{
	"type": "FeatureCollection",
	"features": [
		{
			"type": "Feature",
			"geometry": {
				"type": "LineString",
				"coordinates": [
					[
						103.8579132,
						1.2931386
					],
					[
						103.8581362,
						1.2935255
					],
					[
						103.8583494,
						1.2939109
					],
					[
						103.8586454,
						1.294419
					],
					[
						103.8585656,
						1.2945208
					],
					[
						103.8585356,
						1.2945946
					],
					[
						103.8585088,
						1.2946604
					],
					[
						103.8585076,
						1.2948113
					],
					[
						103.8585277,
						1.2948884
					],
					[
						103.8585911,
						1.2950032
					],
					[
						103.8586771,
						1.2950958
					],
					[
						103.8588081,
						1.2951268
					],
					[
						103.8589209,
						1.2951413
					],
					[
						103.8590372,
						1.2950996
					],
					[
						103.8590951,
						1.2950775
					],
					[
						103.8591472,
						1.2950467
					],
					[
						103.8592232,
						1.2949442
					],
					[
						103.8592696,
						1.2948648
					],
					[
						103.8592925,
						1.2947144
					],
					[
						103.8592586,
						1.2945662
					],
					[
						103.8602434,
						1.2939702
					],
					[
						103.8604855,
						1.2938093
					],
					[
						103.8605163,
						1.2937796
					],
					[
						103.8605781,
						1.2937202
					],
					[
						103.8606699,
						1.293654
					],
					[
						103.8607749,
						1.2934996
					],
					[
						103.8608034,
						1.2933606
					],
					[
						103.8608234,
						1.2932637
					],
					[
						103.8608459,
						1.292686
					],
					[
						103.8608461,
						1.2926821
					],
					[
						103.860877,
						1.2918907
					],
					[
						103.8608795,
						1.2917387
					],
					[
						103.8608865,
						1.2913218
					],
					[
						103.8608802,
						1.2912573
					],
					[
						103.8608727,
						1.2907473
					],
					[
						103.8608736,
						1.2907025
					],
					[
						103.8608737,
						1.290699
					],
					[
						103.8608948,
						1.2896686
					],
					[
						103.8608976,
						1.2895302
					],
					[
						103.8604223,
						1.2895611
					],
					[
						103.8596544,
						1.289611
					],
					[
						103.8595053,
						1.2896212
					],
					[
						103.8590424,
						1.2896487
					],
					[
						103.8590415,
						1.2896488
					],
					[
						103.8588433,
						1.2896605
					],
					[
						103.8585963,
						1.2896761
					],
					[
						103.8579977,
						1.2897141
					],
					[
						103.8575828,
						1.2897404
					],
					[
						103.857339,
						1.2897552
					],
					[
						103.8569997,
						1.2897758
					],
					[
						103.8568996,
						1.2897994
					],
					[
						103.8564535,
						1.2900525
					],
					[
						103.8564528,
						1.2900529
					],
					[
						103.8564438,
						1.2900583
					],
					[
						103.8561625,
						1.2903037
					],
					[
						103.8557555,
						1.2906588
					],
					[
						103.8551901,
						1.2911404
					],
					[
						103.8550617,
						1.2911547
					],
					[
						103.8549809,
						1.2911404
					],
					[
						103.8548848,
						1.2910575
					],
					[
						103.8547998,
						1.290835
					],
					[
						103.8546381,
						1.2903086
					],
					[
						103.8545995,
						1.2901142
					],
					[
						103.8545335,
						1.2897822
					],
					[
						103.8544479,
						1.2893515
					],
					[
						103.8540087,
						1.2869354
					],
					[
						103.8539582,
						1.2866572
					],
					[
						103.8539314,
						1.2865107
					],
					[
						103.8538661,
						1.2862444
					],
					[
						103.8538036,
						1.2859998
					],
					[
						103.8536229,
						1.2856074
					],
					[
						103.8533804,
						1.2850331
					],
					[
						103.8532743,
						1.2847923
					],
					[
						103.8531427,
						1.2845306
					],
					[
						103.852943,
						1.283942
					],
					[
						103.8526944,
						1.2832466
					],
					[
						103.8526197,
						1.2830375
					],
					[
						103.8523827,
						1.2827228
					],
					[
						103.8522773,
						1.2825829
					],
					[
						103.8519642,
						1.2821678
					],
					[
						103.8519032,
						1.2820524
					],
					[
						103.8515162,
						1.281436
					],
					[
						103.8513538,
						1.2811869
					],
					[
						103.8512624,
						1.2810468
					],
					[
						103.8510823,
						1.2807708
					],
					[
						103.8505585,
						1.2799636
					],
					[
						103.8504823,
						1.2798365
					],
					[
						103.8495792,
						1.2783507
					],
					[
						103.8494517,
						1.2781411
					],
					[
						103.8486824,
						1.2768758
					],
					[
						103.8485952,
						1.2767324
					],
					[
						103.8481432,
						1.2761015
					],
					[
						103.8478281,
						1.2756014
					],
					[
						103.8478258,
						1.2755978
					],
					[
						103.8474444,
						1.2749925
					],
					[
						103.8473576,
						1.2748575
					],
					[
						103.8471589,
						1.2746228
					],
					[
						103.8467788,
						1.2741736
					],
					[
						103.8466839,
						1.2740615
					],
					[
						103.8464889,
						1.2738058
					],
					[
						103.8463296,
						1.273614
					],
					[
						103.8461436,
						1.2734012
					],
					[
						103.8459297,
						1.2731424
					],
					[
						103.8456456,
						1.2727986
					],
					[
						103.8454391,
						1.2725143
					],
					[
						103.8449778,
						1.2725641
					],
					[
						103.8442246,
						1.2725515
					],
					[
						103.8438194,
						1.2725448
					],
					[
						103.8432095,
						1.2725232
					],
					[
						103.8418056,
						1.2724853
					],
					[
						103.839938,
						1.2724225
					],
					[
						103.8393727,
						1.2724026
					],
					[
						103.8374283,
						1.2723342
					],
					[
						103.835525,
						1.272292
					],
					[
						103.8349563,
						1.2722173
					],
					[
						103.8335342,
						1.2721449
					],
					[
						103.832568,
						1.2721181
					],
					[
						103.8323322,
						1.272164
					],
					[
						103.8320887,
						1.2722559
					],
					[
						103.8319632,
						1.2723095
					],
					[
						103.8316817,
						1.2725239
					],
					[
						103.8301298,
						1.2739022
					],
					[
						103.8299838,
						1.2740637
					],
					[
						103.8294241,
						1.2747028
					],
					[
						103.8286292,
						1.2753797
					],
					[
						103.8276901,
						1.2761105
					],
					[
						103.8271992,
						1.2764579
					],
					[
						103.8264707,
						1.2769211
					],
					[
						103.8250833,
						1.2777853
					],
					[
						103.8240992,
						1.2782967
					],
					[
						103.8232125,
						1.2786333
					],
					[
						103.8224685,
						1.2787491
					],
					[
						103.8214791,
						1.27878
					],
					[
						103.8208809,
						1.278865
					],
					[
						103.8199913,
						1.2790348
					],
					[
						103.8194989,
						1.2792425
					],
					[
						103.818984,
						1.2795178
					],
					[
						103.8182196,
						1.2799956
					],
					[
						103.8144194,
						1.2823327
					],
					[
						103.8135891,
						1.2827535
					],
					[
						103.8128433,
						1.283036
					],
					[
						103.8125798,
						1.2831153
					],
					[
						103.8117162,
						1.2833166
					],
					[
						103.8106531,
						1.2834574
					],
					[
						103.8016962,
						1.2840203
					],
					[
						103.801109,
						1.2840734
					],
					[
						103.8006727,
						1.2841757
					],
					[
						103.8003742,
						1.2842734
					],
					[
						103.7997315,
						1.284571
					],
					[
						103.7992686,
						1.284854
					],
					[
						103.7976182,
						1.2859531
					],
					[
						103.7962303,
						1.2868805
					],
					[
						103.7952083,
						1.2874377
					],
					[
						103.7944631,
						1.287852
					],
					[
						103.7935759,
						1.2884662
					],
					[
						103.7925946,
						1.289274
					],
					[
						103.7915229,
						1.2900597
					],
					[
						103.790288,
						1.2908241
					],
					[
						103.7876336,
						1.2925242
					],
					[
						103.786774,
						1.2932908
					],
					[
						103.7864233,
						1.2936629
					],
					[
						103.7850377,
						1.2952589
					],
					[
						103.7834883,
						1.2969724
					],
					[
						103.7829875,
						1.2973548
					],
					[
						103.7824645,
						1.2976931
					],
					[
						103.7799804,
						1.2990952
					],
					[
						103.7791834,
						1.2995701
					],
					[
						103.7783644,
						1.3001103
					],
					[
						103.7761937,
						1.3013877
					],
					[
						103.7746743,
						1.3022507
					],
					[
						103.7729545,
						1.3032322
					],
					[
						103.7723499,
						1.3035414
					],
					[
						103.7704242,
						1.3044207
					],
					[
						103.7696931,
						1.3048335
					],
					[
						103.768861,
						1.3053599
					],
					[
						103.7683934,
						1.3057444
					],
					[
						103.7675845,
						1.3063728
					],
					[
						103.7671088,
						1.3067885
					],
					[
						103.76667,
						1.3072514
					],
					[
						103.7658241,
						1.3084803
					],
					[
						103.7651458,
						1.3093559
					],
					[
						103.7644058,
						1.310234
					],
					[
						103.7628914,
						1.3117552
					],
					[
						103.7621725,
						1.3124577
					],
					[
						103.7613031,
						1.3133663
					],
					[
						103.7603899,
						1.3142617
					],
					[
						103.7593981,
						1.3153157
					],
					[
						103.7567994,
						1.3183003
					],
					[
						103.7554348,
						1.3199584
					],
					[
						103.7550237,
						1.3203934
					],
					[
						103.7546887,
						1.3206828
					],
					[
						103.7542363,
						1.3209871
					],
					[
						103.7539655,
						1.3211138
					],
					[
						103.7532093,
						1.321363
					],
					[
						103.7513878,
						1.3219759
					],
					[
						103.7503262,
						1.3222747
					],
					[
						103.7492986,
						1.3224958
					],
					[
						103.7466064,
						1.3228401
					],
					[
						103.7463409,
						1.3228476
					],
					[
						103.7457707,
						1.3228646
					],
					[
						103.7457227,
						1.3238456
					],
					[
						103.7457172,
						1.3245253
					],
					[
						103.7457286,
						1.3251007
					],
					[
						103.7457302,
						1.3251804
					],
					[
						103.745681,
						1.3258443
					],
					[
						103.7456514,
						1.326244
					],
					[
						103.7455596,
						1.3266888
					],
					[
						103.7452447,
						1.3274181
					],
					[
						103.7448961,
						1.3279421
					],
					[
						103.7446817,
						1.328193
					],
					[
						103.7445348,
						1.3283532
					],
					[
						103.7444716,
						1.328422
					],
					[
						103.7445138,
						1.3284799
					],
					[
						103.7448451,
						1.3289357
					],
					[
						103.7451955,
						1.3294117
					],
					[
						103.7453365,
						1.3296034
					],
					[
						103.7457334,
						1.3301427
					],
					[
						103.7458339,
						1.3302793
					],
					[
						103.7463111,
						1.3309187
					],
					[
						103.7466836,
						1.3313913
					],
					[
						103.7468385,
						1.3315879
					],
					[
						103.747012,
						1.3318204
					],
					[
						103.7472393,
						1.3321252
					],
					[
						103.747611,
						1.3326637
					],
					[
						103.7477429,
						1.3329796
					],
					[
						103.7478428,
						1.3332187
					],
					[
						103.7478843,
						1.3333929
					],
					[
						103.7479091,
						1.3337269
					],
					[
						103.7478566,
						1.3344494
					],
					[
						103.7477588,
						1.3353515
					],
					[
						103.7476915,
						1.3359726
					],
					[
						103.7476697,
						1.3361809
					],
					[
						103.7476468,
						1.3363998
					],
					[
						103.747626,
						1.3365989
					],
					[
						103.7476067,
						1.3367838
					],
					[
						103.7475435,
						1.3375936
					],
					[
						103.7475595,
						1.3381583
					],
					[
						103.7475515,
						1.3384325
					],
					[
						103.7474392,
						1.3385535
					],
					[
						103.747306,
						1.338631
					],
					[
						103.7470617,
						1.3387535
					],
					[
						103.7466133,
						1.3388555
					],
					[
						103.7461204,
						1.3390447
					],
					[
						103.7460784,
						1.3390749
					],
					[
						103.7456532,
						1.3393815
					],
					[
						103.7447166,
						1.3400815
					],
					[
						103.7445371,
						1.3402027
					],
					[
						103.7443148,
						1.3403529
					],
					[
						103.7439996,
						1.3405286
					],
					[
						103.743722,
						1.3406832
					],
					[
						103.743275,
						1.3409019
					],
					[
						103.7436879,
						1.3414631
					],
					[
						103.7452651,
						1.343607
					],
					[
						103.7461591,
						1.3448058
					],
					[
						103.7466427,
						1.3454542
					],
					[
						103.7467322,
						1.3457976
					],
					[
						103.7467265,
						1.3459285
					],
					[
						103.7464768,
						1.3462886
					],
					[
						103.7463654,
						1.3463694
					],
					[
						103.745693,
						1.3468571
					],
					[
						103.7455163,
						1.3469853
					],
					[
						103.7455159,
						1.3469856
					],
					[
						103.745225,
						1.3472149
					],
					[
						103.7450333,
						1.3473659
					],
					[
						103.74495,
						1.3474445
					],
					[
						103.7448608,
						1.3475727
					],
					[
						103.7446835,
						1.3478728
					],
					[
						103.7445652,
						1.3481898
					],
					[
						103.7445605,
						1.348243
					],
					[
						103.7445329,
						1.3485089
					],
					[
						103.7445355,
						1.3486492
					],
					[
						103.744578,
						1.3488804
					],
					[
						103.744631,
						1.3490318
					],
					[
						103.7448108,
						1.3494308
					],
					[
						103.7449399,
						1.3497162
					],
					[
						103.745109,
						1.3500898
					],
					[
						103.745195,
						1.3503181
					],
					[
						103.745324,
						1.3506533
					],
					[
						103.7453712,
						1.3508701
					],
					[
						103.7453863,
						1.3511344
					],
					[
						103.7453206,
						1.3516778
					],
					[
						103.7452512,
						1.3521024
					],
					[
						103.7456433,
						1.3521679
					],
					[
						103.7462501,
						1.3522552
					],
					[
						103.7469742,
						1.3523594
					],
					[
						103.7473962,
						1.3523778
					],
					[
						103.7484042,
						1.3523412
					],
					[
						103.7484135,
						1.3526859
					],
					[
						103.7482979,
						1.3532135
					],
					[
						103.7481394,
						1.3535461
					],
					[
						103.74782,
						1.3539763
					],
					[
						103.7476768,
						1.3542037
					],
					[
						103.7474783,
						1.3547661
					],
					[
						103.7473744,
						1.3552765
					],
					[
						103.7473189,
						1.3564404
					],
					[
						103.7472699,
						1.3576538
					],
					[
						103.7472355,
						1.3585042
					],
					[
						103.747189,
						1.3587456
					],
					[
						103.7471039,
						1.3589746
					],
					[
						103.7469854,
						1.3591852
					],
					[
						103.7468528,
						1.3593607
					],
					[
						103.7463751,
						1.3598114
					],
					[
						103.7458088,
						1.3603457
					],
					[
						103.745447,
						1.3608024
					],
					[
						103.7457807,
						1.3610413
					],
					[
						103.7462065,
						1.3614488
					],
					[
						103.7463927,
						1.3616777
					],
					[
						103.746619,
						1.362045
					],
					[
						103.7469063,
						1.362574
					],
					[
						103.7469575,
						1.3626684
					],
					[
						103.7470575,
						1.3629585
					],
					[
						103.747117,
						1.3632599
					],
					[
						103.747134,
						1.3636432
					],
					[
						103.7471076,
						1.3643548
					],
					[
						103.7470696,
						1.3651773
					],
					[
						103.7482516,
						1.3652298
					],
					[
						103.7487487,
						1.3652518
					],
					[
						103.7506074,
						1.3653771
					],
					[
						103.7513166,
						1.3654248
					],
					[
						103.7513405,
						1.365258
					],
					[
						103.7513646,
						1.3646795
					],
					[
						103.7514001,
						1.363831
					],
					[
						103.7514066,
						1.3636624
					],
					[
						103.7514632,
						1.3622701
					]
				]
			},
			"properties": {
				"styleUrl": "#busroute",
				"styleHash": "-2257368b",
				"stroke-opacity": 0.6039215686274509,
				"stroke": "#DA0FB1",
				"stroke-width": 4
			}
		}
	]
}