{
	"type": "FeatureCollection",
	"features": [
		{
			"type": "Feature",
			"geometry": {
				"type": "LineString",
				"coordinates": [
					[
						103.7900413,
						1.4422927
					],
					[
						103.7902537,
						1.4423068
					],
					[
						103.7906416,
						1.4423326
					],
					[
						103.7911341,
						1.4423654
					],
					[
						103.791321,
						1.4424202
					],
					[
						103.7913322,
						1.4424321
					],
					[
						103.7914417,
						1.4425485
					],
					[
						103.7914815,
						1.4426844
					],
					[
						103.7914395,
						1.4434384
					],
					[
						103.7914294,
						1.4436727
					],
					[
						103.7914513,
						1.4437811
					],
					[
						103.7915049,
						1.443883
					],
					[
						103.7916102,
						1.4439707
					],
					[
						103.7917311,
						1.4440118
					],
					[
						103.7918967,
						1.4440241
					],
					[
						103.792208,
						1.4440471
					],
					[
						103.7926541,
						1.4440801
					],
					[
						103.7928341,
						1.4440935
					],
					[
						103.7929966,
						1.44418
					],
					[
						103.7933308,
						1.4444246
					],
					[
						103.7940034,
						1.443492
					],
					[
						103.7940629,
						1.4434095
					],
					[
						103.795338,
						1.441642
					],
					[
						103.795451,
						1.4414683
					],
					[
						103.7955556,
						1.4411814
					],
					[
						103.7955917,
						1.4406257
					],
					[
						103.7956533,
						1.4396749
					],
					[
						103.7956651,
						1.4395107
					],
					[
						103.7956831,
						1.4392271
					],
					[
						103.7957101,
						1.4388013
					],
					[
						103.7957135,
						1.4387479
					],
					[
						103.7957473,
						1.4382227
					],
					[
						103.7958252,
						1.4370119
					],
					[
						103.7958335,
						1.436882
					],
					[
						103.7958426,
						1.4367291
					],
					[
						103.7958922,
						1.4358948
					],
					[
						103.7958906,
						1.4358841
					],
					[
						103.7958383,
						1.4355262
					],
					[
						103.7957937,
						1.43542
					],
					[
						103.7956944,
						1.435183
					],
					[
						103.7951852,
						1.4343003
					],
					[
						103.7951729,
						1.4339761
					],
					[
						103.7952185,
						1.4338381
					],
					[
						103.7953235,
						1.4336581
					],
					[
						103.7962697,
						1.4333771
					],
					[
						103.7963701,
						1.4333578
					],
					[
						103.797259,
						1.4331861
					],
					[
						103.7981895,
						1.4330868
					],
					[
						103.7984217,
						1.4330834
					],
					[
						103.7993206,
						1.4330705
					],
					[
						103.8010837,
						1.4330842
					],
					[
						103.8013861,
						1.4330877
					],
					[
						103.8015464,
						1.4330896
					],
					[
						103.8015554,
						1.4327061
					],
					[
						103.8015302,
						1.4323293
					],
					[
						103.8015237,
						1.4320796
					],
					[
						103.8014551,
						1.431816
					],
					[
						103.8012607,
						1.4314581
					],
					[
						103.8009032,
						1.4311315
					],
					[
						103.8004969,
						1.430939
					],
					[
						103.8004498,
						1.4309174
					],
					[
						103.7997462,
						1.4305946
					],
					[
						103.7992644,
						1.4303983
					],
					[
						103.7989464,
						1.430256
					],
					[
						103.7985657,
						1.4300479
					],
					[
						103.7985113,
						1.4300038
					],
					[
						103.7981582,
						1.4297176
					],
					[
						103.7979113,
						1.4294306
					],
					[
						103.7978341,
						1.4293408
					],
					[
						103.7976317,
						1.4289471
					],
					[
						103.7975913,
						1.4288327
					],
					[
						103.7975084,
						1.428598
					],
					[
						103.7974791,
						1.4282903
					],
					[
						103.797459,
						1.4280717
					],
					[
						103.7975027,
						1.4279416
					],
					[
						103.7975532,
						1.4278368
					],
					[
						103.7976636,
						1.4276716
					],
					[
						103.7978056,
						1.427624
					],
					[
						103.7978908,
						1.4275859
					],
					[
						103.7981591,
						1.4274144
					],
					[
						103.798481,
						1.4271317
					],
					[
						103.798791,
						1.4268482
					],
					[
						103.7985355,
						1.4265432
					],
					[
						103.796314,
						1.4239894
					],
					[
						103.7961198,
						1.42365
					],
					[
						103.7958929,
						1.4232815
					],
					[
						103.7957788,
						1.4229848
					],
					[
						103.7957928,
						1.422786
					],
					[
						103.7958359,
						1.4226115
					],
					[
						103.79595,
						1.4224392
					],
					[
						103.7961212,
						1.4222765
					],
					[
						103.7964255,
						1.4220468
					],
					[
						103.7970958,
						1.4216093
					],
					[
						103.797795,
						1.4210993
					],
					[
						103.7988757,
						1.4204339
					],
					[
						103.800112,
						1.4195606
					],
					[
						103.8009003,
						1.4189438
					],
					[
						103.8020962,
						1.4180061
					],
					[
						103.8033684,
						1.416913
					],
					[
						103.8046215,
						1.4158263
					],
					[
						103.8053475,
						1.4150135
					],
					[
						103.8061686,
						1.4135743
					],
					[
						103.8070744,
						1.4113958
					],
					[
						103.8082712,
						1.4081249
					],
					[
						103.80857,
						1.4074407
					],
					[
						103.8088525,
						1.4068848
					],
					[
						103.8092178,
						1.4063617
					],
					[
						103.8096156,
						1.4057651
					],
					[
						103.8099728,
						1.4053074
					],
					[
						103.8106214,
						1.4045365
					],
					[
						103.8111086,
						1.4038909
					],
					[
						103.8115959,
						1.4031963
					],
					[
						103.8119676,
						1.4025011
					],
					[
						103.8126266,
						1.4012981
					],
					[
						103.8130559,
						1.4003573
					],
					[
						103.8133477,
						1.3996445
					],
					[
						103.8139847,
						1.3978043
					],
					[
						103.8142395,
						1.39729
					],
					[
						103.814606,
						1.3967106
					],
					[
						103.8150616,
						1.3961723
					],
					[
						103.8156553,
						1.3956669
					],
					[
						103.8162486,
						1.395333
					],
					[
						103.8169122,
						1.3950078
					],
					[
						103.8175589,
						1.3948098
					],
					[
						103.8207812,
						1.3938494
					],
					[
						103.8213036,
						1.3937198
					],
					[
						103.8222766,
						1.3934764
					],
					[
						103.8234429,
						1.3932228
					],
					[
						103.8245897,
						1.3930657
					],
					[
						103.8256861,
						1.3929831
					],
					[
						103.8269126,
						1.3929814
					],
					[
						103.8277867,
						1.3930394
					],
					[
						103.8283683,
						1.3931117
					],
					[
						103.8291175,
						1.3932393
					],
					[
						103.8303815,
						1.3935358
					],
					[
						103.8318637,
						1.3939074
					],
					[
						103.8357571,
						1.3948822
					],
					[
						103.8372797,
						1.395263
					],
					[
						103.8397864,
						1.3959183
					],
					[
						103.8410659,
						1.396238
					],
					[
						103.8416194,
						1.3963396
					],
					[
						103.8423264,
						1.3964695
					],
					[
						103.8434753,
						1.3966242
					],
					[
						103.8445517,
						1.3967106
					],
					[
						103.8456305,
						1.3967457
					],
					[
						103.848684,
						1.396605
					],
					[
						103.8497899,
						1.3965801
					],
					[
						103.8506399,
						1.3966466
					],
					[
						103.8513083,
						1.3967629
					],
					[
						103.8519768,
						1.3969789
					],
					[
						103.853619,
						1.3976268
					],
					[
						103.8540234,
						1.3977366
					],
					[
						103.8544335,
						1.3977954
					],
					[
						103.8547539,
						1.3978384
					],
					[
						103.8550714,
						1.3978428
					],
					[
						103.8551912,
						1.3978318
					],
					[
						103.8553122,
						1.3978084
					],
					[
						103.8554285,
						1.3977694
					],
					[
						103.8555557,
						1.3977241
					],
					[
						103.8558398,
						1.3976044
					],
					[
						103.8560767,
						1.3974868
					],
					[
						103.8564144,
						1.3973043
					],
					[
						103.8567852,
						1.3970479
					],
					[
						103.8570616,
						1.3967673
					],
					[
						103.8573909,
						1.3963574
					],
					[
						103.8575729,
						1.3960348
					],
					[
						103.857711,
						1.3956714
					],
					[
						103.8578252,
						1.3953441
					],
					[
						103.8579107,
						1.3949248
					],
					[
						103.8579802,
						1.393907
					],
					[
						103.8580125,
						1.3934827
					],
					[
						103.8581911,
						1.3910796
					],
					[
						103.8582997,
						1.3890212
					],
					[
						103.8583298,
						1.3884497
					],
					[
						103.8584573,
						1.3834223
					],
					[
						103.8583784,
						1.3798509
					],
					[
						103.8584484,
						1.3792533
					],
					[
						103.8584996,
						1.3784717
					],
					[
						103.8587013,
						1.3776241
					],
					[
						103.8589373,
						1.3766639
					],
					[
						103.8590513,
						1.3761182
					],
					[
						103.8591401,
						1.3751925
					],
					[
						103.859268,
						1.3747037
					],
					[
						103.8593999,
						1.3743559
					],
					[
						103.859984,
						1.3729648
					],
					[
						103.8600469,
						1.372596
					],
					[
						103.8601043,
						1.3722939
					],
					[
						103.8605576,
						1.3712335
					],
					[
						103.8607044,
						1.3708608
					],
					[
						103.8607921,
						1.3705038
					],
					[
						103.8609102,
						1.3700244
					],
					[
						103.8609955,
						1.369387
					],
					[
						103.8610015,
						1.3686303
					],
					[
						103.8609338,
						1.3681049
					],
					[
						103.8608444,
						1.3676615
					],
					[
						103.8606908,
						1.3671734
					],
					[
						103.8603974,
						1.3662797
					],
					[
						103.8575352,
						1.3583263
					],
					[
						103.8573312,
						1.3577364
					],
					[
						103.8571597,
						1.3571839
					],
					[
						103.8570099,
						1.3563867
					],
					[
						103.8569241,
						1.3554707
					],
					[
						103.8569378,
						1.3550332
					],
					[
						103.8569546,
						1.3544803
					],
					[
						103.857052,
						1.3535329
					],
					[
						103.8571478,
						1.3530723
					],
					[
						103.8574172,
						1.3521872
					],
					[
						103.8591455,
						1.3472516
					],
					[
						103.859577,
						1.3460411
					],
					[
						103.8600415,
						1.3447382
					],
					[
						103.8604839,
						1.3434972
					],
					[
						103.8614728,
						1.3407183
					],
					[
						103.8616663,
						1.3401746
					],
					[
						103.861927,
						1.3393312
					],
					[
						103.8621164,
						1.3384404
					],
					[
						103.8621734,
						1.3378302
					],
					[
						103.8622447,
						1.3357916
					],
					[
						103.8623016,
						1.3350012
					],
					[
						103.8623855,
						1.3317716
					],
					[
						103.8624291,
						1.3299591
					],
					[
						103.8624335,
						1.3296776
					],
					[
						103.8624337,
						1.3296056
					],
					[
						103.8623776,
						1.329126
					],
					[
						103.862287,
						1.3286869
					],
					[
						103.8621305,
						1.3281566
					],
					[
						103.8619246,
						1.3276233
					],
					[
						103.8616448,
						1.3270794
					],
					[
						103.8611567,
						1.3264251
					],
					[
						103.8606485,
						1.3259335
					],
					[
						103.8602592,
						1.325557
					],
					[
						103.8588544,
						1.3242595
					],
					[
						103.8575892,
						1.3229911
					],
					[
						103.85645,
						1.3216238
					],
					[
						103.8557663,
						1.3209886
					],
					[
						103.8552579,
						1.3205613
					],
					[
						103.8547083,
						1.3201443
					],
					[
						103.8537305,
						1.3195208
					],
					[
						103.8529643,
						1.3191125
					],
					[
						103.8513529,
						1.3183797
					],
					[
						103.8502876,
						1.3178953
					],
					[
						103.8483502,
						1.3170129
					],
					[
						103.8475874,
						1.3165522
					],
					[
						103.8469771,
						1.3160754
					],
					[
						103.8464625,
						1.3155322
					],
					[
						103.845895,
						1.31482
					],
					[
						103.8454806,
						1.3140949
					],
					[
						103.8452447,
						1.3135174
					],
					[
						103.845085,
						1.3130861
					],
					[
						103.8450135,
						1.3128625
					],
					[
						103.8448945,
						1.3122476
					],
					[
						103.8447358,
						1.3115848
					],
					[
						103.8445536,
						1.3109877
					],
					[
						103.8442166,
						1.3102238
					],
					[
						103.8437691,
						1.3096674
					],
					[
						103.8432392,
						1.3091187
					],
					[
						103.8425264,
						1.3085621
					],
					[
						103.8417873,
						1.3079789
					],
					[
						103.84121,
						1.3075702
					],
					[
						103.840747,
						1.3070982
					],
					[
						103.840467,
						1.3066435
					],
					[
						103.8402404,
						1.306089
					],
					[
						103.8401825,
						1.3058981
					],
					[
						103.8401229,
						1.3055029
					],
					[
						103.8401174,
						1.3050063
					],
					[
						103.8401446,
						1.3047557
					],
					[
						103.8402223,
						1.3044267
					],
					[
						103.8403311,
						1.3041016
					],
					[
						103.8405605,
						1.3036624
					],
					[
						103.8408427,
						1.3032709
					],
					[
						103.8411414,
						1.3029486
					],
					[
						103.8425564,
						1.3020314
					],
					[
						103.8429615,
						1.3017344
					],
					[
						103.8431264,
						1.3015352
					],
					[
						103.8432468,
						1.3012488
					],
					[
						103.8432574,
						1.3011809
					],
					[
						103.8432227,
						1.3009534
					],
					[
						103.8431552,
						1.3006845
					],
					[
						103.843064,
						1.3002806
					],
					[
						103.843002,
						1.3000068
					],
					[
						103.8437536,
						1.2997648
					],
					[
						103.8444752,
						1.2995325
					],
					[
						103.844729,
						1.2994547
					],
					[
						103.844773,
						1.299422
					],
					[
						103.8452727,
						1.2992566
					],
					[
						103.8452739,
						1.2992562
					],
					[
						103.8457818,
						1.2990881
					],
					[
						103.8470278,
						1.2986756
					],
					[
						103.8475058,
						1.2987078
					],
					[
						103.8481838,
						1.2987492
					],
					[
						103.8484533,
						1.2986905
					],
					[
						103.8486975,
						1.2986008
					],
					[
						103.8493007,
						1.2981345
					],
					[
						103.8495399,
						1.2979496
					],
					[
						103.8503341,
						1.2973043
					],
					[
						103.8510917,
						1.2966856
					],
					[
						103.8514142,
						1.2964108
					],
					[
						103.8519325,
						1.2959691
					],
					[
						103.853119,
						1.2951222
					],
					[
						103.8539818,
						1.2944678
					],
					[
						103.8542548,
						1.2942607
					],
					[
						103.8546844,
						1.2939343
					],
					[
						103.8549724,
						1.2936655
					],
					[
						103.8553158,
						1.2934483
					],
					[
						103.8558225,
						1.2931754
					],
					[
						103.8559699,
						1.2930845
					],
					[
						103.8556275,
						1.2925581
					],
					[
						103.8553518,
						1.2920987
					],
					[
						103.8552521,
						1.2918877
					],
					[
						103.85499,
						1.2913328
					],
					[
						103.8548848,
						1.2910575
					],
					[
						103.8547998,
						1.290835
					],
					[
						103.8546381,
						1.2903086
					],
					[
						103.8545335,
						1.2897822
					],
					[
						103.8544479,
						1.2893515
					],
					[
						103.8540087,
						1.2869354
					],
					[
						103.8539582,
						1.2866572
					],
					[
						103.8539314,
						1.2865107
					],
					[
						103.8538661,
						1.2862444
					],
					[
						103.8538036,
						1.2859998
					],
					[
						103.8536229,
						1.2856074
					],
					[
						103.8533804,
						1.2850331
					],
					[
						103.8532743,
						1.2847923
					],
					[
						103.8531427,
						1.2845306
					],
					[
						103.852943,
						1.283942
					],
					[
						103.8526944,
						1.2832466
					],
					[
						103.8526197,
						1.2830375
					],
					[
						103.8523827,
						1.2827228
					],
					[
						103.8522773,
						1.2825829
					],
					[
						103.8519642,
						1.2821678
					],
					[
						103.8519032,
						1.2820524
					],
					[
						103.8515162,
						1.281436
					],
					[
						103.8513538,
						1.2811869
					],
					[
						103.8512624,
						1.2810468
					],
					[
						103.8510823,
						1.2807708
					],
					[
						103.8505585,
						1.2799636
					],
					[
						103.8504823,
						1.2798365
					],
					[
						103.8495792,
						1.2783507
					],
					[
						103.8494517,
						1.2781411
					],
					[
						103.8486824,
						1.2768758
					],
					[
						103.8485952,
						1.2767324
					],
					[
						103.8481432,
						1.2761015
					],
					[
						103.8478281,
						1.2756014
					],
					[
						103.8474444,
						1.2749925
					],
					[
						103.8473576,
						1.2748575
					],
					[
						103.8471589,
						1.2746228
					],
					[
						103.8467788,
						1.2741736
					],
					[
						103.8467714,
						1.2741649
					]
				]
			},
			"properties": {
				"styleUrl": "#busroute",
				"styleHash": "-2257368b",
				"stroke-opacity": 0.6039215686274509,
				"stroke": "#DA0FB1",
				"stroke-width": 4
			}
		}
	]
}