{
	"type": "FeatureCollection",
	"features": [
		{
			"type": "Feature",
			"geometry": {
				"type": "LineString",
				"coordinates": [
					[
						103.8449502,
						1.2739329
					],
					[
						103.8452212,
						1.2742629
					],
					[
						103.8455874,
						1.2746957
					],
					[
						103.8457299,
						1.2748637
					],
					[
						103.8465294,
						1.2757984
					],
					[
						103.8469048,
						1.2763738
					],
					[
						103.8472993,
						1.2766425
					],
					[
						103.8476729,
						1.2769761
					],
					[
						103.8481644,
						1.2777871
					],
					[
						103.8481657,
						1.2777893
					],
					[
						103.8487887,
						1.2788174
					],
					[
						103.8494392,
						1.279882
					],
					[
						103.8494403,
						1.2798839
					],
					[
						103.8496231,
						1.280183
					],
					[
						103.849783,
						1.28042
					],
					[
						103.8503142,
						1.2812099
					],
					[
						103.8505937,
						1.2815041
					],
					[
						103.8508205,
						1.2818678
					],
					[
						103.8509218,
						1.282031
					],
					[
						103.8509242,
						1.282035
					],
					[
						103.8512709,
						1.2825937
					],
					[
						103.8517971,
						1.2826547
					],
					[
						103.8520634,
						1.2827408
					],
					[
						103.8521946,
						1.2828414
					],
					[
						103.8524247,
						1.2830567
					],
					[
						103.8525579,
						1.2833247
					],
					[
						103.8530429,
						1.2847508
					],
					[
						103.8532188,
						1.2850905
					],
					[
						103.8534419,
						1.2856098
					],
					[
						103.8535235,
						1.2857996
					],
					[
						103.8536729,
						1.2862026
					],
					[
						103.8537309,
						1.2864388
					],
					[
						103.8537591,
						1.2865376
					],
					[
						103.8542577,
						1.2892654
					],
					[
						103.854467,
						1.2902895
					],
					[
						103.8546374,
						1.290928
					],
					[
						103.8546381,
						1.2909308
					],
					[
						103.8548474,
						1.2914476
					],
					[
						103.8548165,
						1.2914745
					],
					[
						103.8545892,
						1.2916792
					],
					[
						103.8543408,
						1.2919819
					],
					[
						103.8539183,
						1.2924055
					],
					[
						103.8534426,
						1.2927183
					],
					[
						103.8530916,
						1.2929172
					],
					[
						103.852755,
						1.2931353
					],
					[
						103.8524428,
						1.2933375
					],
					[
						103.8521804,
						1.2935075
					],
					[
						103.8520317,
						1.2935723
					],
					[
						103.8514049,
						1.2939763
					],
					[
						103.8513104,
						1.2940372
					],
					[
						103.8505929,
						1.2944997
					],
					[
						103.8500868,
						1.2948036
					],
					[
						103.8497743,
						1.294948
					],
					[
						103.8501561,
						1.2955855
					],
					[
						103.8501561,
						1.2956839
					],
					[
						103.8501468,
						1.2957683
					],
					[
						103.8501142,
						1.2958245
					],
					[
						103.8500118,
						1.2959323
					],
					[
						103.8498348,
						1.2960776
					],
					[
						103.8496532,
						1.296237
					],
					[
						103.8496466,
						1.2962445
					],
					[
						103.8495461,
						1.2963589
					],
					[
						103.8494436,
						1.2964995
					],
					[
						103.8493505,
						1.2966495
					],
					[
						103.8491595,
						1.2969495
					],
					[
						103.848929,
						1.2972481
					],
					[
						103.8482704,
						1.2978093
					],
					[
						103.8478507,
						1.2981634
					],
					[
						103.847826,
						1.2981843
					],
					[
						103.8476802,
						1.2982732
					],
					[
						103.8475609,
						1.2983132
					],
					[
						103.8474173,
						1.2982949
					],
					[
						103.8472934,
						1.2982761
					],
					[
						103.8472312,
						1.298242
					],
					[
						103.847053,
						1.2980712
					],
					[
						103.8468607,
						1.2979232
					],
					[
						103.8467674,
						1.2978862
					],
					[
						103.8466882,
						1.2978691
					],
					[
						103.8464875,
						1.297872
					],
					[
						103.8461559,
						1.297941
					],
					[
						103.8454761,
						1.298151
					],
					[
						103.8453557,
						1.2982868
					],
					[
						103.8453081,
						1.2983174
					],
					[
						103.8452631,
						1.2983315
					],
					[
						103.8452225,
						1.2983442
					],
					[
						103.8449937,
						1.2983
					],
					[
						103.8444785,
						1.2984592
					],
					[
						103.8439625,
						1.2986366
					],
					[
						103.8436884,
						1.2988229
					],
					[
						103.8430516,
						1.2992451
					],
					[
						103.8428445,
						1.2993824
					],
					[
						103.843002,
						1.3000068
					],
					[
						103.843064,
						1.3002806
					],
					[
						103.8431552,
						1.3006845
					],
					[
						103.8432227,
						1.3009534
					],
					[
						103.8430319,
						1.3012155
					],
					[
						103.8429118,
						1.3013209
					],
					[
						103.8428041,
						1.3013575
					],
					[
						103.8423543,
						1.3014953
					],
					[
						103.8414104,
						1.3024264
					],
					[
						103.8410257,
						1.3028697
					],
					[
						103.84058,
						1.3033654
					],
					[
						103.8403263,
						1.3037794
					],
					[
						103.8401816,
						1.3041317
					],
					[
						103.8400727,
						1.3044568
					],
					[
						103.839995,
						1.3047858
					],
					[
						103.8399678,
						1.3050365
					],
					[
						103.8399733,
						1.3055331
					],
					[
						103.8400339,
						1.3059282
					],
					[
						103.840092,
						1.3061191
					],
					[
						103.8405959,
						1.3072204
					],
					[
						103.841067,
						1.3077082
					],
					[
						103.8416329,
						1.3081227
					],
					[
						103.8422217,
						1.3085199
					],
					[
						103.8422879,
						1.308572
					],
					[
						103.8430334,
						1.3091589
					],
					[
						103.8436164,
						1.3097633
					],
					[
						103.8439879,
						1.3102468
					],
					[
						103.8443764,
						1.3110338
					],
					[
						103.8445565,
						1.3115949
					],
					[
						103.8446717,
						1.3121377
					],
					[
						103.8448367,
						1.3129474
					],
					[
						103.8450969,
						1.3136611
					],
					[
						103.845355,
						1.3142451
					],
					[
						103.8457488,
						1.3149173
					],
					[
						103.8463434,
						1.3156825
					],
					[
						103.8467343,
						1.3160622
					],
					[
						103.8470616,
						1.3163429
					],
					[
						103.8475648,
						1.3167293
					],
					[
						103.8482856,
						1.3171791
					],
					[
						103.849973,
						1.3179639
					],
					[
						103.8524783,
						1.3190778
					],
					[
						103.8530744,
						1.3193493
					],
					[
						103.8539545,
						1.3198573
					],
					[
						103.8544282,
						1.3201801
					],
					[
						103.855159,
						1.3207271
					],
					[
						103.8555267,
						1.3210311
					],
					[
						103.855875,
						1.3213454
					],
					[
						103.8562868,
						1.3218001
					],
					[
						103.8582802,
						1.3240202
					],
					[
						103.8605757,
						1.32613
					],
					[
						103.8612642,
						1.3269056
					],
					[
						103.8616175,
						1.3274576
					],
					[
						103.8619247,
						1.3281318
					],
					[
						103.8621056,
						1.3287594
					],
					[
						103.8622108,
						1.329193
					],
					[
						103.8622458,
						1.3295964
					],
					[
						103.8622437,
						1.3298336
					],
					[
						103.8622236,
						1.3318078
					],
					[
						103.8620336,
						1.3360539
					],
					[
						103.8620051,
						1.3375566
					],
					[
						103.8619385,
						1.3383319
					],
					[
						103.8618073,
						1.3390015
					],
					[
						103.8616005,
						1.339784
					],
					[
						103.8611943,
						1.3409318
					],
					[
						103.8608051,
						1.3420415
					],
					[
						103.8602988,
						1.343485
					],
					[
						103.8595367,
						1.345652
					],
					[
						103.8590049,
						1.3471642
					],
					[
						103.8570949,
						1.3526146
					],
					[
						103.8568811,
						1.3535126
					],
					[
						103.8567778,
						1.354459
					],
					[
						103.8567562,
						1.3550179
					],
					[
						103.8567636,
						1.3554651
					],
					[
						103.8568495,
						1.356381
					],
					[
						103.8569992,
						1.3571783
					],
					[
						103.8571502,
						1.3577093
					],
					[
						103.8572028,
						1.3578943
					],
					[
						103.8573354,
						1.3583152
					],
					[
						103.8601611,
						1.3662347
					],
					[
						103.8605439,
						1.3672633
					],
					[
						103.860751,
						1.3680739
					],
					[
						103.8608346,
						1.3686558
					],
					[
						103.8608254,
						1.3693288
					],
					[
						103.8607696,
						1.3698522
					],
					[
						103.8606675,
						1.370357
					],
					[
						103.8605467,
						1.3708244
					],
					[
						103.8601285,
						1.3718011
					],
					[
						103.8598457,
						1.3724399
					],
					[
						103.8590239,
						1.374388
					],
					[
						103.8586796,
						1.375466
					],
					[
						103.8584328,
						1.3765231
					],
					[
						103.8582876,
						1.3774119
					],
					[
						103.8582027,
						1.3783458
					],
					[
						103.858182,
						1.3789873
					],
					[
						103.8581675,
						1.3794333
					],
					[
						103.8583041,
						1.3832037
					],
					[
						103.8582144,
						1.3860571
					],
					[
						103.8581109,
						1.3884497
					],
					[
						103.8580852,
						1.3892229
					],
					[
						103.8580684,
						1.3897265
					],
					[
						103.8580232,
						1.391087
					],
					[
						103.8578195,
						1.3935647
					],
					[
						103.8577896,
						1.3942907
					],
					[
						103.8577376,
						1.3949273
					],
					[
						103.8576509,
						1.3953808
					],
					[
						103.8575296,
						1.3957645
					],
					[
						103.8573221,
						1.3962033
					],
					[
						103.8569202,
						1.3966676
					],
					[
						103.8566379,
						1.3969258
					],
					[
						103.8562671,
						1.3971822
					],
					[
						103.8559295,
						1.3973647
					],
					[
						103.855573,
						1.3975004
					],
					[
						103.8553881,
						1.3975476
					],
					[
						103.8551124,
						1.3976018
					],
					[
						103.8547375,
						1.3976315
					],
					[
						103.854386,
						1.3976197
					],
					[
						103.8539759,
						1.3975609
					],
					[
						103.8533467,
						1.3972946
					],
					[
						103.8519355,
						1.3967298
					],
					[
						103.8512011,
						1.396547
					],
					[
						103.8506977,
						1.3964473
					],
					[
						103.8499879,
						1.3963891
					],
					[
						103.8483952,
						1.396414
					],
					[
						103.8456443,
						1.396527
					],
					[
						103.8445656,
						1.3964918
					],
					[
						103.8434892,
						1.3964055
					],
					[
						103.8425703,
						1.3962817
					],
					[
						103.8423403,
						1.3962507
					],
					[
						103.8413317,
						1.3960631
					],
					[
						103.840134,
						1.3958051
					],
					[
						103.8373128,
						1.3950985
					],
					[
						103.8359088,
						1.3947339
					],
					[
						103.8320087,
						1.3937197
					],
					[
						103.8308192,
						1.39341
					],
					[
						103.8300063,
						1.3932107
					],
					[
						103.8292094,
						1.393076
					],
					[
						103.8284602,
						1.3929484
					],
					[
						103.8278787,
						1.3928762
					],
					[
						103.8270046,
						1.3928183
					],
					[
						103.8255071,
						1.3928248
					],
					[
						103.8241832,
						1.3929398
					],
					[
						103.8229321,
						1.3931283
					],
					[
						103.8215347,
						1.3934533
					],
					[
						103.8207081,
						1.3936711
					],
					[
						103.8173715,
						1.394694
					],
					[
						103.8168709,
						1.3948399
					],
					[
						103.8161229,
						1.3951745
					],
					[
						103.8155419,
						1.3955215
					],
					[
						103.8150702,
						1.395919
					],
					[
						103.8146797,
						1.3963594
					],
					[
						103.8143134,
						1.3968326
					],
					[
						103.8139795,
						1.3974202
					],
					[
						103.8137347,
						1.3980652
					],
					[
						103.8132205,
						1.3995594
					],
					[
						103.8124377,
						1.4013554
					],
					[
						103.811734,
						1.4026488
					],
					[
						103.811198,
						1.403466
					],
					[
						103.8105077,
						1.404373
					],
					[
						103.8094046,
						1.4057488
					],
					[
						103.8086739,
						1.4069258
					],
					[
						103.8081056,
						1.4080944
					],
					[
						103.8075678,
						1.4094885
					],
					[
						103.8063652,
						1.4126782
					],
					[
						103.8060264,
						1.413483
					],
					[
						103.8056589,
						1.4141954
					],
					[
						103.8051362,
						1.414957
					],
					[
						103.8045911,
						1.4155233
					],
					[
						103.8040389,
						1.4160626
					],
					[
						103.8036369,
						1.4164262
					],
					[
						103.8032442,
						1.4167786
					],
					[
						103.8023375,
						1.4175175
					],
					[
						103.8016954,
						1.4180408
					],
					[
						103.8007285,
						1.4188285
					],
					[
						103.7993021,
						1.4199264
					],
					[
						103.7980923,
						1.4207393
					],
					[
						103.7965491,
						1.4214695
					],
					[
						103.7953746,
						1.4219415
					],
					[
						103.795232,
						1.4220755
					],
					[
						103.7951559,
						1.4222143
					],
					[
						103.7951178,
						1.4223483
					],
					[
						103.7951081,
						1.4226215
					],
					[
						103.7956934,
						1.4233007
					],
					[
						103.796314,
						1.4239894
					],
					[
						103.7985355,
						1.4265432
					],
					[
						103.7985638,
						1.4267402
					],
					[
						103.7985567,
						1.426903
					],
					[
						103.798481,
						1.4271317
					],
					[
						103.7981591,
						1.4274144
					],
					[
						103.7978908,
						1.4275859
					],
					[
						103.7978056,
						1.427624
					],
					[
						103.7976636,
						1.4276716
					],
					[
						103.7974021,
						1.4277266
					],
					[
						103.7974538,
						1.4280552
					],
					[
						103.797459,
						1.4280717
					],
					[
						103.7974791,
						1.4282903
					],
					[
						103.7975084,
						1.428598
					],
					[
						103.7975913,
						1.4288327
					],
					[
						103.7976317,
						1.4289471
					],
					[
						103.7978341,
						1.4293408
					],
					[
						103.7981582,
						1.4297176
					],
					[
						103.7985113,
						1.4300038
					],
					[
						103.7985657,
						1.4300479
					],
					[
						103.7989464,
						1.430256
					],
					[
						103.7992644,
						1.4303983
					],
					[
						103.7997462,
						1.4305946
					],
					[
						103.8004969,
						1.430939
					],
					[
						103.8006205,
						1.4309976
					],
					[
						103.8009032,
						1.4311315
					],
					[
						103.8012607,
						1.4314581
					],
					[
						103.8014551,
						1.431816
					],
					[
						103.8015237,
						1.4320796
					],
					[
						103.8015302,
						1.4323293
					],
					[
						103.8015554,
						1.4327061
					],
					[
						103.8014696,
						1.4328188
					],
					[
						103.8013993,
						1.4329027
					],
					[
						103.8013317,
						1.4329567
					],
					[
						103.8012319,
						1.433032
					],
					[
						103.8010837,
						1.4330842
					],
					[
						103.7995525,
						1.4330723
					],
					[
						103.7993206,
						1.4330705
					],
					[
						103.7981895,
						1.4330868
					],
					[
						103.797259,
						1.4331861
					],
					[
						103.7962697,
						1.4333771
					],
					[
						103.7960122,
						1.4334536
					],
					[
						103.7953235,
						1.4336581
					],
					[
						103.7950787,
						1.4337507
					],
					[
						103.7949093,
						1.4338147
					],
					[
						103.7949962,
						1.4339687
					],
					[
						103.7950944,
						1.4341428
					],
					[
						103.7951852,
						1.4343003
					],
					[
						103.7956944,
						1.435183
					],
					[
						103.7957937,
						1.43542
					],
					[
						103.7958383,
						1.4355262
					],
					[
						103.7958665,
						1.4357196
					],
					[
						103.7958922,
						1.4358948
					],
					[
						103.7958426,
						1.4367291
					],
					[
						103.7958335,
						1.436882
					],
					[
						103.7958252,
						1.4370119
					],
					[
						103.7957804,
						1.4377075
					],
					[
						103.7957135,
						1.4387479
					],
					[
						103.7957101,
						1.4388013
					],
					[
						103.7956831,
						1.4392271
					],
					[
						103.7956651,
						1.4395107
					],
					[
						103.7956533,
						1.4396749
					],
					[
						103.7955742,
						1.4408943
					],
					[
						103.7955556,
						1.4411814
					],
					[
						103.795451,
						1.4414683
					],
					[
						103.795338,
						1.441642
					],
					[
						103.7945183,
						1.4427783
					],
					[
						103.7940629,
						1.4434095
					],
					[
						103.7933308,
						1.4444246
					],
					[
						103.7929966,
						1.44418
					],
					[
						103.7928341,
						1.4440935
					],
					[
						103.7922503,
						1.4440502
					],
					[
						103.792208,
						1.4440471
					],
					[
						103.7918967,
						1.4440241
					],
					[
						103.7917311,
						1.4440118
					],
					[
						103.7916102,
						1.4439707
					],
					[
						103.7915049,
						1.443883
					],
					[
						103.7914513,
						1.4437811
					],
					[
						103.7914294,
						1.4436727
					],
					[
						103.7914395,
						1.4434384
					],
					[
						103.7914815,
						1.4426844
					],
					[
						103.7914417,
						1.4425485
					],
					[
						103.7913322,
						1.4424321
					],
					[
						103.791321,
						1.4424202
					],
					[
						103.7911341,
						1.4423654
					],
					[
						103.7906416,
						1.4423326
					],
					[
						103.7902537,
						1.4423068
					],
					[
						103.789732,
						1.4422721
					]
				]
			},
			"properties": {
				"styleUrl": "#busroute",
				"styleHash": "-2257368b",
				"stroke-opacity": 0.6039215686274509,
				"stroke": "#DA0FB1",
				"stroke-width": 4
			}
		}
	]
}