{
	"type": "FeatureCollection",
	"features": [
		{
			"type": "Feature",
			"geometry": {
				"type": "LineString",
				"coordinates": [
					[
						103.8579132,
						1.2931386
					],
					[
						103.8581362,
						1.2935255
					],
					[
						103.8583494,
						1.2939109
					],
					[
						103.8586454,
						1.294419
					],
					[
						103.8585656,
						1.2945208
					],
					[
						103.8585356,
						1.2945946
					],
					[
						103.8585088,
						1.2946604
					],
					[
						103.8585076,
						1.2948113
					],
					[
						103.8585277,
						1.2948884
					],
					[
						103.8585911,
						1.2950032
					],
					[
						103.8586771,
						1.2950958
					],
					[
						103.8588081,
						1.2951268
					],
					[
						103.8589209,
						1.2951413
					],
					[
						103.8590372,
						1.2950996
					],
					[
						103.8590951,
						1.2950775
					],
					[
						103.8591472,
						1.2950467
					],
					[
						103.8592232,
						1.2949442
					],
					[
						103.8592696,
						1.2948648
					],
					[
						103.8592925,
						1.2947144
					],
					[
						103.8592586,
						1.2945662
					],
					[
						103.8602434,
						1.2939702
					],
					[
						103.8604855,
						1.2938093
					],
					[
						103.8605163,
						1.2937796
					],
					[
						103.8605781,
						1.2937202
					],
					[
						103.8606699,
						1.293654
					],
					[
						103.8607749,
						1.2934996
					],
					[
						103.8608034,
						1.2933606
					],
					[
						103.8608234,
						1.2932637
					],
					[
						103.8608459,
						1.292686
					],
					[
						103.8608461,
						1.2926821
					],
					[
						103.860877,
						1.2918907
					],
					[
						103.8608795,
						1.2917387
					],
					[
						103.8608865,
						1.2913218
					],
					[
						103.8608802,
						1.2912573
					],
					[
						103.8608727,
						1.2907473
					],
					[
						103.8608736,
						1.2907025
					],
					[
						103.8608737,
						1.290699
					],
					[
						103.8608948,
						1.2896686
					],
					[
						103.8608976,
						1.2895302
					],
					[
						103.8608952,
						1.2891515
					],
					[
						103.8608914,
						1.2885464
					],
					[
						103.860831,
						1.2864038
					],
					[
						103.8607816,
						1.2852166
					],
					[
						103.8607048,
						1.2848135
					],
					[
						103.8606444,
						1.284565
					],
					[
						103.8605402,
						1.2842944
					],
					[
						103.8603097,
						1.283825
					],
					[
						103.8599641,
						1.2832783
					],
					[
						103.8599295,
						1.2832248
					],
					[
						103.8594189,
						1.2824352
					],
					[
						103.8587173,
						1.2813289
					],
					[
						103.8585873,
						1.281124
					],
					[
						103.8584827,
						1.280959
					],
					[
						103.8575787,
						1.2795573
					],
					[
						103.8573845,
						1.2792562
					],
					[
						103.8571406,
						1.2788781
					],
					[
						103.8569947,
						1.2786541
					],
					[
						103.8561355,
						1.2772904
					],
					[
						103.8556661,
						1.2776079
					],
					[
						103.8546095,
						1.2783225
					],
					[
						103.8531892,
						1.279233
					],
					[
						103.852817,
						1.2794504
					],
					[
						103.8524324,
						1.279675
					],
					[
						103.8523505,
						1.2797226
					],
					[
						103.8520533,
						1.2798961
					],
					[
						103.8517442,
						1.2801474
					],
					[
						103.8514792,
						1.2803771
					],
					[
						103.8510823,
						1.2807708
					],
					[
						103.8505585,
						1.2799636
					],
					[
						103.8504823,
						1.2798365
					],
					[
						103.8495792,
						1.2783507
					],
					[
						103.8494517,
						1.2781411
					],
					[
						103.8486824,
						1.2768758
					],
					[
						103.8485952,
						1.2767324
					],
					[
						103.8481432,
						1.2761015
					],
					[
						103.8478281,
						1.2756014
					],
					[
						103.8474444,
						1.2749925
					],
					[
						103.8473576,
						1.2748575
					],
					[
						103.8471589,
						1.2746228
					],
					[
						103.8467788,
						1.2741736
					],
					[
						103.8467684,
						1.2741614
					],
					[
						103.8466839,
						1.2740615
					],
					[
						103.8464889,
						1.2738058
					],
					[
						103.8463296,
						1.273614
					],
					[
						103.8461436,
						1.2734012
					],
					[
						103.8459297,
						1.2731424
					],
					[
						103.8456456,
						1.2727986
					],
					[
						103.8454391,
						1.2725143
					],
					[
						103.8449778,
						1.2725641
					],
					[
						103.8442246,
						1.2725515
					],
					[
						103.8438194,
						1.2725448
					],
					[
						103.8432095,
						1.2725232
					],
					[
						103.8426678,
						1.2725085
					],
					[
						103.8418056,
						1.2724853
					],
					[
						103.839938,
						1.2724225
					],
					[
						103.8399228,
						1.27253
					],
					[
						103.8399261,
						1.2726548
					],
					[
						103.8399056,
						1.2727189
					],
					[
						103.8399076,
						1.2728822
					],
					[
						103.8399335,
						1.272982
					],
					[
						103.8401166,
						1.2732119
					],
					[
						103.8406503,
						1.2735659
					],
					[
						103.841017,
						1.2738425
					],
					[
						103.8412898,
						1.2742416
					],
					[
						103.8411254,
						1.2747774
					],
					[
						103.8410852,
						1.2749115
					],
					[
						103.8410037,
						1.2751834
					],
					[
						103.8408808,
						1.2757383
					],
					[
						103.8408526,
						1.2758655
					],
					[
						103.840657,
						1.2771682
					],
					[
						103.8406335,
						1.277271
					],
					[
						103.8405575,
						1.2776027
					],
					[
						103.8404542,
						1.2780135
					],
					[
						103.8404058,
						1.2781065
					],
					[
						103.839861,
						1.2791224
					],
					[
						103.8396686,
						1.2794482
					],
					[
						103.8396196,
						1.2795577
					],
					[
						103.8395395,
						1.2797213
					],
					[
						103.8394784,
						1.2798699
					],
					[
						103.8394091,
						1.2801247
					],
					[
						103.8393268,
						1.2803814
					],
					[
						103.8392703,
						1.280504
					],
					[
						103.839098,
						1.2807373
					],
					[
						103.8386106,
						1.2812906
					],
					[
						103.8383818,
						1.2815269
					],
					[
						103.8382091,
						1.281704
					],
					[
						103.8374885,
						1.2821474
					],
					[
						103.83742,
						1.2821896
					],
					[
						103.8373387,
						1.2822397
					],
					[
						103.8370442,
						1.2824209
					],
					[
						103.8367475,
						1.2826035
					],
					[
						103.8365236,
						1.282758
					],
					[
						103.8360907,
						1.2830935
					],
					[
						103.8360423,
						1.2831358
					],
					[
						103.8360339,
						1.2833595
					],
					[
						103.8360693,
						1.2835425
					],
					[
						103.8361227,
						1.2836578
					],
					[
						103.8364034,
						1.2839527
					],
					[
						103.8366497,
						1.2842535
					],
					[
						103.8367649,
						1.2844966
					],
					[
						103.8369357,
						1.2846743
					],
					[
						103.8370912,
						1.2849217
					],
					[
						103.8372951,
						1.2852307
					],
					[
						103.8374766,
						1.2854824
					],
					[
						103.8378006,
						1.2857074
					],
					[
						103.8382533,
						1.2860513
					],
					[
						103.8401737,
						1.2872552
					],
					[
						103.8405878,
						1.2875598
					],
					[
						103.8407659,
						1.2877298
					],
					[
						103.8409691,
						1.2879741
					],
					[
						103.8414627,
						1.2887637
					],
					[
						103.8430845,
						1.2912408
					],
					[
						103.843679,
						1.2923871
					],
					[
						103.8439421,
						1.2931813
					],
					[
						103.8440617,
						1.2935743
					],
					[
						103.8440936,
						1.2942161
					],
					[
						103.8438306,
						1.2963419
					],
					[
						103.8437349,
						1.2968794
					],
					[
						103.843653,
						1.2982472
					],
					[
						103.8435995,
						1.2991416
					],
					[
						103.8435282,
						1.3000723
					],
					[
						103.8433608,
						1.3005858
					],
					[
						103.8431535,
						1.3009549
					],
					[
						103.8429713,
						1.301212
					],
					[
						103.842699,
						1.3014684
					],
					[
						103.8424997,
						1.301669
					],
					[
						103.8417877,
						1.3022519
					],
					[
						103.8410257,
						1.3028697
					],
					[
						103.84058,
						1.3033654
					],
					[
						103.8403263,
						1.3037794
					],
					[
						103.8401816,
						1.3041317
					],
					[
						103.8400727,
						1.3044568
					],
					[
						103.8400231,
						1.3046669
					],
					[
						103.839995,
						1.3047858
					],
					[
						103.8399678,
						1.3050365
					],
					[
						103.8399733,
						1.3055331
					],
					[
						103.8400339,
						1.3059282
					],
					[
						103.840092,
						1.3061191
					],
					[
						103.8405959,
						1.3072204
					],
					[
						103.841067,
						1.3077082
					],
					[
						103.8416329,
						1.3081227
					],
					[
						103.8422217,
						1.3085199
					],
					[
						103.8430334,
						1.3091589
					],
					[
						103.8436164,
						1.3097633
					],
					[
						103.8439879,
						1.3102468
					],
					[
						103.8443764,
						1.3110338
					],
					[
						103.8445565,
						1.3115949
					],
					[
						103.8446717,
						1.3121377
					],
					[
						103.8448367,
						1.3129474
					],
					[
						103.8450969,
						1.3136611
					],
					[
						103.845355,
						1.3142451
					],
					[
						103.8457488,
						1.3149173
					],
					[
						103.8463434,
						1.3156825
					],
					[
						103.8467343,
						1.3160622
					],
					[
						103.8470616,
						1.3163429
					],
					[
						103.8475648,
						1.3167293
					],
					[
						103.8482856,
						1.3171791
					],
					[
						103.849973,
						1.3179639
					],
					[
						103.8524783,
						1.3190778
					],
					[
						103.8530744,
						1.3193493
					],
					[
						103.8539545,
						1.3198573
					],
					[
						103.8544282,
						1.3201801
					],
					[
						103.855159,
						1.3207271
					],
					[
						103.8555267,
						1.3210311
					],
					[
						103.855875,
						1.3213454
					],
					[
						103.8562868,
						1.3218001
					],
					[
						103.8582802,
						1.3240202
					],
					[
						103.8605757,
						1.32613
					],
					[
						103.8612642,
						1.3269056
					],
					[
						103.8616175,
						1.3274576
					],
					[
						103.8619247,
						1.3281318
					],
					[
						103.8621056,
						1.3287594
					],
					[
						103.8622108,
						1.329193
					],
					[
						103.8622458,
						1.3295964
					],
					[
						103.8622437,
						1.3298336
					],
					[
						103.8622236,
						1.3318078
					],
					[
						103.8620336,
						1.3360539
					],
					[
						103.8620051,
						1.3375566
					],
					[
						103.8619385,
						1.3383319
					],
					[
						103.8618073,
						1.3390015
					],
					[
						103.8616005,
						1.339784
					],
					[
						103.8611943,
						1.3409318
					],
					[
						103.8608051,
						1.3420415
					],
					[
						103.8602988,
						1.343485
					],
					[
						103.8595367,
						1.345652
					],
					[
						103.8590049,
						1.3471642
					],
					[
						103.8570949,
						1.3526146
					],
					[
						103.8568811,
						1.3535126
					],
					[
						103.8567778,
						1.354459
					],
					[
						103.8567562,
						1.3550179
					],
					[
						103.8567636,
						1.3554651
					],
					[
						103.8568495,
						1.356381
					],
					[
						103.8569992,
						1.3571783
					],
					[
						103.8571502,
						1.3577093
					],
					[
						103.8572028,
						1.3578943
					],
					[
						103.8573354,
						1.3583152
					],
					[
						103.8601611,
						1.3662347
					],
					[
						103.8605439,
						1.3672633
					],
					[
						103.860751,
						1.3680739
					],
					[
						103.8608346,
						1.3686558
					],
					[
						103.8608254,
						1.3693288
					],
					[
						103.8607696,
						1.3698522
					],
					[
						103.8606675,
						1.370357
					],
					[
						103.8605467,
						1.3708244
					],
					[
						103.8601285,
						1.3718011
					],
					[
						103.8598457,
						1.3724399
					],
					[
						103.8590239,
						1.374388
					],
					[
						103.8586796,
						1.375466
					],
					[
						103.8584328,
						1.3765231
					],
					[
						103.8582876,
						1.3774119
					],
					[
						103.8582027,
						1.3783458
					],
					[
						103.858182,
						1.3789873
					],
					[
						103.8581675,
						1.3794333
					],
					[
						103.8583041,
						1.3832037
					],
					[
						103.8582437,
						1.3851252
					],
					[
						103.8582144,
						1.3860571
					],
					[
						103.8581109,
						1.3884497
					],
					[
						103.8580852,
						1.3892229
					],
					[
						103.8580684,
						1.3897265
					],
					[
						103.8580232,
						1.391087
					],
					[
						103.8578195,
						1.3935647
					],
					[
						103.8574309,
						1.395332
					],
					[
						103.8573025,
						1.3956192
					],
					[
						103.8571265,
						1.3959111
					],
					[
						103.856865,
						1.3961552
					],
					[
						103.8561911,
						1.3967008
					],
					[
						103.8558794,
						1.3970309
					],
					[
						103.8557201,
						1.3972375
					],
					[
						103.8555311,
						1.3975621
					],
					[
						103.8553822,
						1.3979268
					],
					[
						103.8553197,
						1.3982246
					],
					[
						103.8553141,
						1.398529
					],
					[
						103.8553774,
						1.3989144
					],
					[
						103.85544,
						1.3990949
					],
					[
						103.8556026,
						1.3994097
					],
					[
						103.8557862,
						1.3996406
					],
					[
						103.8560072,
						1.3998379
					],
					[
						103.8562783,
						1.400031
					],
					[
						103.8565661,
						1.4001863
					],
					[
						103.8570333,
						1.4003542
					],
					[
						103.8576631,
						1.4005389
					],
					[
						103.8591076,
						1.4010375
					],
					[
						103.8596097,
						1.4012117
					],
					[
						103.8606083,
						1.4015161
					],
					[
						103.8608765,
						1.4015792
					],
					[
						103.8611561,
						1.4015965
					],
					[
						103.8615156,
						1.4015907
					],
					[
						103.8621603,
						1.401539
					],
					[
						103.8629934,
						1.4015046
					],
					[
						103.8633301,
						1.4014701
					],
					[
						103.8647876,
						1.4014562
					],
					[
						103.8660658,
						1.4013949
					],
					[
						103.8665945,
						1.4013911
					],
					[
						103.8671994,
						1.4014293
					],
					[
						103.8679348,
						1.4014834
					],
					[
						103.8688849,
						1.4015236
					],
					[
						103.8694555,
						1.4015266
					],
					[
						103.870725,
						1.4015332
					],
					[
						103.8716808,
						1.4015762
					],
					[
						103.8722884,
						1.401537
					],
					[
						103.872628,
						1.4015933
					],
					[
						103.8734476,
						1.4014788
					],
					[
						103.8737749,
						1.4014657
					],
					[
						103.8744738,
						1.4014944
					],
					[
						103.8760787,
						1.4015518
					],
					[
						103.8762998,
						1.4015231
					],
					[
						103.8767776,
						1.4015733
					],
					[
						103.8788389,
						1.4016091
					],
					[
						103.8793881,
						1.401645
					],
					[
						103.8798446,
						1.4015589
					],
					[
						103.880308,
						1.4015046
					],
					[
						103.8813207,
						1.4013967
					],
					[
						103.8834752,
						1.4014519
					],
					[
						103.8855643,
						1.4013545
					],
					[
						103.886168,
						1.4013138
					],
					[
						103.8873726,
						1.4012326
					],
					[
						103.8889922,
						1.4010388
					],
					[
						103.8911761,
						1.4007297
					],
					[
						103.8929533,
						1.4004854
					],
					[
						103.8948507,
						1.4005397
					],
					[
						103.895077,
						1.4005519
					],
					[
						103.8955465,
						1.4005805
					],
					[
						103.8959448,
						1.4006521
					],
					[
						103.8961582,
						1.4008311
					],
					[
						103.8964285,
						1.4013393
					],
					[
						103.8964937,
						1.4016917
					],
					[
						103.8965617,
						1.4020587
					],
					[
						103.8967314,
						1.4029756
					],
					[
						103.8968007,
						1.4033497
					],
					[
						103.8972673,
						1.4032548
					],
					[
						103.8978836,
						1.4031294
					],
					[
						103.898025,
						1.4030792
					],
					[
						103.8985951,
						1.4028767
					],
					[
						103.8990054,
						1.402731
					],
					[
						103.899341,
						1.4026118
					],
					[
						103.8994589,
						1.40257
					],
					[
						103.8995708,
						1.402528
					],
					[
						103.8998329,
						1.4024298
					],
					[
						103.9007117,
						1.4021004
					],
					[
						103.9007224,
						1.4020954
					],
					[
						103.9014738,
						1.4017486
					],
					[
						103.9018659,
						1.4015577
					],
					[
						103.902046,
						1.40147
					],
					[
						103.902158,
						1.4014126
					],
					[
						103.9025318,
						1.4012213
					],
					[
						103.9029299,
						1.4010314
					],
					[
						103.903401,
						1.4008068
					],
					[
						103.903536,
						1.4007424
					],
					[
						103.9045384,
						1.4001928
					],
					[
						103.9048685,
						1.4000172
					],
					[
						103.905046,
						1.3999227
					],
					[
						103.9051812,
						1.3998471
					],
					[
						103.905466,
						1.3996881
					],
					[
						103.9056583,
						1.3995595
					],
					[
						103.9058874,
						1.3993587
					],
					[
						103.9062145,
						1.3991305
					],
					[
						103.906371,
						1.3989724
					],
					[
						103.906453,
						1.3989066
					],
					[
						103.9065794,
						1.3988044
					],
					[
						103.9067943,
						1.3986306
					],
					[
						103.9071136,
						1.398374
					],
					[
						103.907179,
						1.3983215
					],
					[
						103.9072639,
						1.3982588
					],
					[
						103.9074918,
						1.3980905
					],
					[
						103.9080507,
						1.3976222
					],
					[
						103.9084899,
						1.3972541
					],
					[
						103.9085911,
						1.3971716
					],
					[
						103.9096818,
						1.3962821
					],
					[
						103.9099536,
						1.3960604
					],
					[
						103.9105901,
						1.3955414
					],
					[
						103.9108415,
						1.3953485
					],
					[
						103.9109256,
						1.3952839
					],
					[
						103.9110694,
						1.3951684
					],
					[
						103.9112058,
						1.3950589
					],
					[
						103.9116554,
						1.3946992
					],
					[
						103.9119687,
						1.3944293
					],
					[
						103.9124134,
						1.3940461
					],
					[
						103.9133847,
						1.3932486
					],
					[
						103.9134587,
						1.3931878
					],
					[
						103.9136791,
						1.393007
					],
					[
						103.9141661,
						1.3926073
					],
					[
						103.9144131,
						1.3925565
					],
					[
						103.9144977,
						1.3925652
					],
					[
						103.914589,
						1.3925746
					],
					[
						103.9147827,
						1.3926556
					],
					[
						103.9150751,
						1.3930508
					],
					[
						103.9154228,
						1.3935297
					],
					[
						103.9154554,
						1.3935745
					],
					[
						103.9158941,
						1.3941737
					],
					[
						103.9162013,
						1.3945934
					],
					[
						103.9162367,
						1.3946417
					],
					[
						103.9163962,
						1.394877
					],
					[
						103.9165842,
						1.3951339
					],
					[
						103.9166696,
						1.3952598
					],
					[
						103.9166742,
						1.3952665
					],
					[
						103.9167827,
						1.3954266
					],
					[
						103.9168069,
						1.3954623
					],
					[
						103.9168558,
						1.3955344
					],
					[
						103.9168793,
						1.395569
					],
					[
						103.9169126,
						1.3956197
					],
					[
						103.9169218,
						1.3956338
					],
					[
						103.9169334,
						1.3956514
					],
					[
						103.9169475,
						1.3956729
					],
					[
						103.9170545,
						1.3958357
					],
					[
						103.9170594,
						1.3958431
					],
					[
						103.9171534,
						1.3959862
					],
					[
						103.9176134,
						1.3965742
					],
					[
						103.9176602,
						1.3966334
					],
					[
						103.917705,
						1.3966926
					],
					[
						103.9186969,
						1.3980032
					],
					[
						103.9180402,
						1.3984695
					],
					[
						103.917925,
						1.3985513
					],
					[
						103.9178891,
						1.3985779
					],
					[
						103.9174553,
						1.3988993
					],
					[
						103.9171416,
						1.3991076
					],
					[
						103.9168278,
						1.3993381
					],
					[
						103.9167944,
						1.3993615
					],
					[
						103.9158279,
						1.4000406
					],
					[
						103.9151392,
						1.4005297
					],
					[
						103.9149308,
						1.4006778
					],
					[
						103.9148193,
						1.4007569
					],
					[
						103.9146472,
						1.4008817
					],
					[
						103.9145045,
						1.4009851
					],
					[
						103.9140246,
						1.4013329
					],
					[
						103.9137232,
						1.4015513
					],
					[
						103.9129355,
						1.4021222
					],
					[
						103.9118797,
						1.4028874
					],
					[
						103.9112586,
						1.4033376
					],
					[
						103.9110049,
						1.4035215
					],
					[
						103.9109294,
						1.4035762
					],
					[
						103.9105716,
						1.4038328
					],
					[
						103.9100107,
						1.4042351
					],
					[
						103.9095189,
						1.4045878
					],
					[
						103.9094701,
						1.4046228
					]
				]
			},
			"properties": {
				"styleUrl": "#busroute",
				"styleHash": "-2257368b",
				"stroke-opacity": 0.6039215686274509,
				"stroke": "#DA0FB1",
				"stroke-width": 4
			}
		}
	]
}