{
	"type": "FeatureCollection",
	"features": [
		{
			"type": "Feature",
			"geometry": {
				"type": "LineString",
				"coordinates": [
					[
						103.909097,
						1.4048903
					],
					[
						103.9091241,
						1.4048709
					],
					[
						103.9095189,
						1.4045878
					],
					[
						103.9100107,
						1.4042351
					],
					[
						103.9105716,
						1.4038328
					],
					[
						103.9109294,
						1.4035762
					],
					[
						103.9110049,
						1.4035215
					],
					[
						103.9112586,
						1.4033376
					],
					[
						103.9118797,
						1.4028874
					],
					[
						103.9123977,
						1.402512
					],
					[
						103.9137232,
						1.4015513
					],
					[
						103.9140246,
						1.4013329
					],
					[
						103.9145045,
						1.4009851
					],
					[
						103.9146472,
						1.4008817
					],
					[
						103.9148193,
						1.4007569
					],
					[
						103.9149308,
						1.4006778
					],
					[
						103.9151392,
						1.4005297
					],
					[
						103.9158279,
						1.4000406
					],
					[
						103.9160981,
						1.3998508
					],
					[
						103.9168278,
						1.3993381
					],
					[
						103.9171416,
						1.3991076
					],
					[
						103.9174553,
						1.3988993
					],
					[
						103.9178891,
						1.3985779
					],
					[
						103.917925,
						1.3985513
					],
					[
						103.9180402,
						1.3984695
					],
					[
						103.9186969,
						1.3980032
					],
					[
						103.917853,
						1.3968882
					],
					[
						103.9176602,
						1.3966334
					],
					[
						103.9176134,
						1.3965742
					],
					[
						103.9171534,
						1.3959862
					],
					[
						103.9170594,
						1.3958431
					],
					[
						103.9170545,
						1.3958357
					],
					[
						103.9169475,
						1.3956729
					],
					[
						103.9169334,
						1.3956514
					],
					[
						103.9169218,
						1.3956338
					],
					[
						103.9169126,
						1.3956197
					],
					[
						103.9168793,
						1.395569
					],
					[
						103.9168558,
						1.3955344
					],
					[
						103.9168069,
						1.3954623
					],
					[
						103.9167827,
						1.3954266
					],
					[
						103.9166742,
						1.3952665
					],
					[
						103.9166696,
						1.3952598
					],
					[
						103.9165842,
						1.3951339
					],
					[
						103.9163962,
						1.394877
					],
					[
						103.9162367,
						1.3946417
					],
					[
						103.9162013,
						1.3945934
					],
					[
						103.9159108,
						1.3941965
					],
					[
						103.9154554,
						1.3935745
					],
					[
						103.9154228,
						1.3935297
					],
					[
						103.9150751,
						1.3930508
					],
					[
						103.9147827,
						1.3926556
					],
					[
						103.9146127,
						1.3923977
					],
					[
						103.9145473,
						1.3922985
					],
					[
						103.9144333,
						1.3923908
					],
					[
						103.9141661,
						1.3926073
					],
					[
						103.9136791,
						1.393007
					],
					[
						103.9134587,
						1.3931878
					],
					[
						103.9133847,
						1.3932486
					],
					[
						103.9124134,
						1.3940461
					],
					[
						103.9120081,
						1.3943953
					],
					[
						103.9116554,
						1.3946992
					],
					[
						103.9112058,
						1.3950589
					],
					[
						103.9110694,
						1.3951684
					],
					[
						103.9109256,
						1.3952839
					],
					[
						103.9108415,
						1.3953485
					],
					[
						103.9105901,
						1.3955414
					],
					[
						103.9099536,
						1.3960604
					],
					[
						103.9096818,
						1.3962821
					],
					[
						103.9093088,
						1.3965863
					],
					[
						103.9084899,
						1.3972541
					],
					[
						103.9080507,
						1.3976222
					],
					[
						103.9074918,
						1.3980905
					],
					[
						103.9072639,
						1.3982588
					],
					[
						103.907179,
						1.3983215
					],
					[
						103.9071136,
						1.398374
					],
					[
						103.9067943,
						1.3986306
					],
					[
						103.9067431,
						1.398672
					],
					[
						103.906453,
						1.3989066
					],
					[
						103.906371,
						1.3989724
					],
					[
						103.9062145,
						1.3991305
					],
					[
						103.9058874,
						1.3993587
					],
					[
						103.9056583,
						1.3995595
					],
					[
						103.905466,
						1.3996881
					],
					[
						103.9051812,
						1.3998471
					],
					[
						103.905046,
						1.3999227
					],
					[
						103.9048685,
						1.4000172
					],
					[
						103.9045384,
						1.4001928
					],
					[
						103.9039908,
						1.400493
					],
					[
						103.903536,
						1.4007424
					],
					[
						103.903401,
						1.4008068
					],
					[
						103.9025318,
						1.4012213
					],
					[
						103.902158,
						1.4014126
					],
					[
						103.902046,
						1.40147
					],
					[
						103.9018659,
						1.4015577
					],
					[
						103.9014738,
						1.4017486
					],
					[
						103.9009441,
						1.4019931
					],
					[
						103.9007117,
						1.4021004
					],
					[
						103.8998329,
						1.4024298
					],
					[
						103.8995708,
						1.402528
					],
					[
						103.8994589,
						1.40257
					],
					[
						103.899341,
						1.4026118
					],
					[
						103.8990054,
						1.402731
					],
					[
						103.8985951,
						1.4028767
					],
					[
						103.8985302,
						1.4028998
					],
					[
						103.8978836,
						1.4031294
					],
					[
						103.8972673,
						1.4032548
					],
					[
						103.8970682,
						1.4032237
					],
					[
						103.8968668,
						1.4031209
					],
					[
						103.8967314,
						1.4029756
					],
					[
						103.8966267,
						1.4024098
					],
					[
						103.8965617,
						1.4020587
					],
					[
						103.8964285,
						1.4013393
					],
					[
						103.8961866,
						1.4005194
					],
					[
						103.8961582,
						1.400423
					],
					[
						103.8961128,
						1.400333
					],
					[
						103.8960159,
						1.4000508
					],
					[
						103.895849,
						1.3996108
					],
					[
						103.8957883,
						1.3994208
					],
					[
						103.8951766,
						1.399564
					],
					[
						103.8926373,
						1.40033
					],
					[
						103.891144,
						1.4005681
					],
					[
						103.888905,
						1.400868
					],
					[
						103.8872034,
						1.4010489
					],
					[
						103.8860962,
						1.4011393
					],
					[
						103.8858659,
						1.4011581
					],
					[
						103.8849114,
						1.4012089
					],
					[
						103.8837872,
						1.4012505
					],
					[
						103.8834142,
						1.4012523
					],
					[
						103.8823888,
						1.4012453
					],
					[
						103.8759864,
						1.4011164
					],
					[
						103.8713087,
						1.4010142
					],
					[
						103.8704127,
						1.4009086
					],
					[
						103.8695396,
						1.400788
					],
					[
						103.869066,
						1.4007019
					],
					[
						103.868581,
						1.4006559
					],
					[
						103.8680218,
						1.4006674
					],
					[
						103.8677365,
						1.4006502
					],
					[
						103.8673371,
						1.40061
					],
					[
						103.8663956,
						1.4005124
					],
					[
						103.8661503,
						1.4004952
					],
					[
						103.8656824,
						1.4004894
					],
					[
						103.8648037,
						1.4005124
					],
					[
						103.8639249,
						1.4005124
					],
					[
						103.8632687,
						1.4004837
					],
					[
						103.8612143,
						1.4005038
					],
					[
						103.8603301,
						1.4005125
					],
					[
						103.8599707,
						1.400478
					],
					[
						103.8593618,
						1.4003706
					],
					[
						103.8585702,
						1.400245
					],
					[
						103.8582034,
						1.4001377
					],
					[
						103.8580037,
						1.4000564
					],
					[
						103.857842,
						1.3999607
					],
					[
						103.8576756,
						1.3998362
					],
					[
						103.8574997,
						1.3996544
					],
					[
						103.8573523,
						1.399463
					],
					[
						103.8572429,
						1.3992524
					],
					[
						103.8571668,
						1.3990275
					],
					[
						103.8571145,
						1.3987834
					],
					[
						103.8571145,
						1.3985202
					],
					[
						103.857143,
						1.39819
					],
					[
						103.8573914,
						1.3967432
					],
					[
						103.8574687,
						1.3965039
					],
					[
						103.857647,
						1.3961749
					],
					[
						103.8578135,
						1.395802
					],
					[
						103.8578954,
						1.3954526
					],
					[
						103.8579107,
						1.3949248
					],
					[
						103.8579802,
						1.393907
					],
					[
						103.8580125,
						1.3934827
					],
					[
						103.8581911,
						1.3910796
					],
					[
						103.8582997,
						1.3890212
					],
					[
						103.8583298,
						1.3884497
					],
					[
						103.8584573,
						1.3834223
					],
					[
						103.8583784,
						1.3798509
					],
					[
						103.8584484,
						1.3792533
					],
					[
						103.8584996,
						1.3784717
					],
					[
						103.8587013,
						1.3776241
					],
					[
						103.8589373,
						1.3766639
					],
					[
						103.8590513,
						1.3761182
					],
					[
						103.8591401,
						1.3751925
					],
					[
						103.859268,
						1.3747037
					],
					[
						103.8593999,
						1.3743559
					],
					[
						103.859984,
						1.3729648
					],
					[
						103.8600469,
						1.372596
					],
					[
						103.8601043,
						1.3722939
					],
					[
						103.8605576,
						1.3712335
					],
					[
						103.8607044,
						1.3708608
					],
					[
						103.8607921,
						1.3705038
					],
					[
						103.8609102,
						1.3700244
					],
					[
						103.8609955,
						1.369387
					],
					[
						103.8610015,
						1.3686303
					],
					[
						103.8609338,
						1.3681049
					],
					[
						103.8608444,
						1.3676615
					],
					[
						103.8606908,
						1.3671734
					],
					[
						103.8603974,
						1.3662797
					],
					[
						103.8581539,
						1.3600456
					],
					[
						103.8575352,
						1.3583263
					],
					[
						103.8573312,
						1.3577364
					],
					[
						103.8571597,
						1.3571839
					],
					[
						103.8570099,
						1.3563867
					],
					[
						103.8569241,
						1.3554707
					],
					[
						103.8569378,
						1.3550332
					],
					[
						103.8569546,
						1.3544803
					],
					[
						103.857052,
						1.3535329
					],
					[
						103.8571478,
						1.3530723
					],
					[
						103.8574172,
						1.3521872
					],
					[
						103.8591455,
						1.3472516
					],
					[
						103.859577,
						1.3460411
					],
					[
						103.8600415,
						1.3447382
					],
					[
						103.8604839,
						1.3434972
					],
					[
						103.8614728,
						1.3407183
					],
					[
						103.8616663,
						1.3401746
					],
					[
						103.861927,
						1.3393312
					],
					[
						103.8621164,
						1.3384404
					],
					[
						103.8621734,
						1.3378302
					],
					[
						103.8622447,
						1.3357916
					],
					[
						103.8623016,
						1.3350012
					],
					[
						103.8623855,
						1.3317716
					],
					[
						103.8624291,
						1.3299591
					],
					[
						103.8624335,
						1.3296776
					],
					[
						103.8624337,
						1.3296056
					],
					[
						103.8623776,
						1.329126
					],
					[
						103.862287,
						1.3286869
					],
					[
						103.8621305,
						1.3281566
					],
					[
						103.8619246,
						1.3276233
					],
					[
						103.8616448,
						1.3270794
					],
					[
						103.8611567,
						1.3264251
					],
					[
						103.8602592,
						1.325557
					],
					[
						103.8588544,
						1.3242595
					],
					[
						103.8575892,
						1.3229911
					],
					[
						103.85645,
						1.3216238
					],
					[
						103.8557663,
						1.3209886
					],
					[
						103.8552579,
						1.3205613
					],
					[
						103.8547083,
						1.3201443
					],
					[
						103.8537305,
						1.3195208
					],
					[
						103.8529643,
						1.3191125
					],
					[
						103.8513529,
						1.3183797
					],
					[
						103.8502876,
						1.3178953
					],
					[
						103.8483502,
						1.3170129
					],
					[
						103.8475874,
						1.3165522
					],
					[
						103.8469771,
						1.3160754
					],
					[
						103.8464625,
						1.3155322
					],
					[
						103.845895,
						1.31482
					],
					[
						103.8454806,
						1.3140949
					],
					[
						103.8452447,
						1.3135174
					],
					[
						103.845085,
						1.3130861
					],
					[
						103.8450135,
						1.3128625
					],
					[
						103.8448945,
						1.3122476
					],
					[
						103.8447358,
						1.3115848
					],
					[
						103.8445536,
						1.3109877
					],
					[
						103.8442166,
						1.3102238
					],
					[
						103.8437691,
						1.3096674
					],
					[
						103.8432392,
						1.3091187
					],
					[
						103.8425264,
						1.3085621
					],
					[
						103.8417873,
						1.3079789
					],
					[
						103.84121,
						1.3075702
					],
					[
						103.840747,
						1.3070982
					],
					[
						103.840467,
						1.3066435
					],
					[
						103.8402404,
						1.306089
					],
					[
						103.8401825,
						1.3058981
					],
					[
						103.8401229,
						1.3055029
					],
					[
						103.8401214,
						1.3053636
					],
					[
						103.8401174,
						1.3050063
					],
					[
						103.8401446,
						1.3047557
					],
					[
						103.8402223,
						1.3044267
					],
					[
						103.8403311,
						1.3041016
					],
					[
						103.8405605,
						1.3036624
					],
					[
						103.8408427,
						1.3032709
					],
					[
						103.8411414,
						1.3029486
					],
					[
						103.8419015,
						1.3023302
					],
					[
						103.8427069,
						1.3016979
					],
					[
						103.8430885,
						1.3013238
					],
					[
						103.8432106,
						1.3011668
					],
					[
						103.8434195,
						1.3008283
					],
					[
						103.8436002,
						1.3004139
					],
					[
						103.8436953,
						1.3000516
					],
					[
						103.8437668,
						1.2988448
					],
					[
						103.8438943,
						1.2969276
					],
					[
						103.8442623,
						1.2942694
					],
					[
						103.8442051,
						1.2935342
					],
					[
						103.8441254,
						1.2931251
					],
					[
						103.8432993,
						1.2911667
					],
					[
						103.8418423,
						1.2888501
					],
					[
						103.8414095,
						1.2882625
					],
					[
						103.8409687,
						1.2877284
					],
					[
						103.8401616,
						1.2870955
					],
					[
						103.8386256,
						1.2861585
					],
					[
						103.8382072,
						1.2858637
					],
					[
						103.8378474,
						1.2855738
					],
					[
						103.8376875,
						1.285219
					],
					[
						103.8372347,
						1.2845343
					],
					[
						103.8371632,
						1.2843396
					],
					[
						103.8369013,
						1.2839451
					],
					[
						103.8368127,
						1.2838116
					],
					[
						103.8364329,
						1.2833826
					],
					[
						103.8364127,
						1.2831126
					],
					[
						103.8365236,
						1.282758
					],
					[
						103.8367475,
						1.2826035
					],
					[
						103.8373387,
						1.2822397
					],
					[
						103.83742,
						1.2821896
					],
					[
						103.8374885,
						1.2821474
					],
					[
						103.8377632,
						1.2819784
					],
					[
						103.8382091,
						1.281704
					],
					[
						103.8383818,
						1.2815269
					],
					[
						103.8386106,
						1.2812906
					],
					[
						103.839098,
						1.2807373
					],
					[
						103.8392703,
						1.280504
					],
					[
						103.8393268,
						1.2803814
					],
					[
						103.8394091,
						1.2801247
					],
					[
						103.8394784,
						1.2798699
					],
					[
						103.8395395,
						1.2797213
					],
					[
						103.8396196,
						1.2795577
					],
					[
						103.8396686,
						1.2794482
					],
					[
						103.839861,
						1.2791224
					],
					[
						103.8404058,
						1.2781065
					],
					[
						103.8404542,
						1.2780135
					],
					[
						103.8405575,
						1.2776027
					],
					[
						103.8406335,
						1.277271
					],
					[
						103.840657,
						1.2771682
					],
					[
						103.8408526,
						1.2758655
					],
					[
						103.8408808,
						1.2757383
					],
					[
						103.8410037,
						1.2751834
					],
					[
						103.8410852,
						1.2749115
					],
					[
						103.8411254,
						1.2747774
					],
					[
						103.8412898,
						1.2742416
					],
					[
						103.841377,
						1.274056
					],
					[
						103.8414441,
						1.2739134
					],
					[
						103.8416692,
						1.273471
					],
					[
						103.8418221,
						1.2732273
					],
					[
						103.8419246,
						1.2730638
					],
					[
						103.8420363,
						1.2729759
					],
					[
						103.8421613,
						1.2728048
					],
					[
						103.8423069,
						1.2727018
					],
					[
						103.8430274,
						1.2727274
					],
					[
						103.8434932,
						1.2727369
					],
					[
						103.8439572,
						1.2727463
					],
					[
						103.8442182,
						1.2730554
					],
					[
						103.8445593,
						1.2734593
					],
					[
						103.8446332,
						1.2735468
					],
					[
						103.8452212,
						1.2742629
					],
					[
						103.8454836,
						1.274573
					],
					[
						103.8455874,
						1.2746957
					],
					[
						103.8457299,
						1.2748637
					],
					[
						103.8465294,
						1.2757984
					],
					[
						103.8469048,
						1.2763738
					],
					[
						103.8472993,
						1.2766425
					],
					[
						103.8476729,
						1.2769761
					],
					[
						103.8481644,
						1.2777871
					],
					[
						103.8481657,
						1.2777893
					],
					[
						103.8487887,
						1.2788174
					],
					[
						103.8494392,
						1.279882
					],
					[
						103.8494403,
						1.2798839
					],
					[
						103.8496231,
						1.280183
					],
					[
						103.849783,
						1.28042
					],
					[
						103.8503142,
						1.2812099
					],
					[
						103.8505937,
						1.2815041
					],
					[
						103.8508205,
						1.2818678
					],
					[
						103.8509218,
						1.282031
					],
					[
						103.8512709,
						1.2825937
					],
					[
						103.8514059,
						1.2825361
					],
					[
						103.8519642,
						1.2821678
					],
					[
						103.8526647,
						1.2817574
					],
					[
						103.853003,
						1.2815317
					],
					[
						103.8534127,
						1.2812583
					],
					[
						103.8541763,
						1.2807734
					],
					[
						103.8549292,
						1.2802955
					],
					[
						103.8556143,
						1.2798605
					],
					[
						103.8567561,
						1.2791256
					],
					[
						103.8571406,
						1.2788781
					],
					[
						103.8573845,
						1.2792562
					],
					[
						103.8575787,
						1.2795573
					],
					[
						103.8584827,
						1.280959
					],
					[
						103.8585873,
						1.281124
					],
					[
						103.8590695,
						1.2818842
					],
					[
						103.8594189,
						1.2824352
					],
					[
						103.8599641,
						1.2832783
					],
					[
						103.8603097,
						1.283825
					],
					[
						103.8605402,
						1.2842944
					],
					[
						103.8606444,
						1.284565
					],
					[
						103.8607048,
						1.2848135
					],
					[
						103.8607366,
						1.2849804
					],
					[
						103.8607816,
						1.2852166
					],
					[
						103.860831,
						1.2864038
					],
					[
						103.8608914,
						1.2885464
					],
					[
						103.8608952,
						1.2891515
					],
					[
						103.8608976,
						1.2895302
					],
					[
						103.8608948,
						1.2896686
					],
					[
						103.8608736,
						1.2907025
					],
					[
						103.8608727,
						1.2907473
					],
					[
						103.8608802,
						1.2912573
					],
					[
						103.8608865,
						1.2913218
					],
					[
						103.8608795,
						1.2917387
					],
					[
						103.860877,
						1.2918907
					],
					[
						103.8608459,
						1.292686
					],
					[
						103.8608234,
						1.2932637
					],
					[
						103.8608039,
						1.2933582
					],
					[
						103.8608034,
						1.2933606
					],
					[
						103.8607749,
						1.2934996
					],
					[
						103.8606699,
						1.293654
					],
					[
						103.8605781,
						1.2937202
					],
					[
						103.8605163,
						1.2937796
					],
					[
						103.8604855,
						1.2938093
					],
					[
						103.8602434,
						1.2939702
					],
					[
						103.8599364,
						1.2940864
					],
					[
						103.8598628,
						1.2941142
					],
					[
						103.8596377,
						1.2941405
					],
					[
						103.8593897,
						1.2941372
					],
					[
						103.859158,
						1.2941043
					],
					[
						103.8590503,
						1.2940721
					],
					[
						103.8588938,
						1.294032
					],
					[
						103.8586654,
						1.2939302
					],
					[
						103.8583886,
						1.2937445
					],
					[
						103.8583355,
						1.2936514
					],
					[
						103.8583346,
						1.2936497
					],
					[
						103.8581014,
						1.2932408
					],
					[
						103.8578156,
						1.2927482
					],
					[
						103.8576923,
						1.2925356
					],
					[
						103.857639,
						1.2924084
					],
					[
						103.8576404,
						1.2922669
					],
					[
						103.8577081,
						1.2921076
					],
					[
						103.8578348,
						1.2919596
					],
					[
						103.8584471,
						1.2916044
					],
					[
						103.858753,
						1.2914975
					],
					[
						103.8588455,
						1.2914652
					],
					[
						103.8591954,
						1.2914359
					],
					[
						103.8591985,
						1.2914357
					]
				]
			},
			"properties": {
				"styleUrl": "#busroute",
				"styleHash": "-2257368b",
				"stroke-opacity": 0.6039215686274509,
				"stroke": "#DA0FB1",
				"stroke-width": 4
			}
		}
	]
}