{
	"type": "FeatureCollection",
	"features": [
		{
			"type": "Feature",
			"geometry": {
				"type": "LineString",
				"coordinates": [
					[
						103.8434952,
						1.3773355
					],
					[
						103.8433172,
						1.3773333
					],
					[
						103.8428639,
						1.3772862
					],
					[
						103.842031,
						1.3771997
					],
					[
						103.8411997,
						1.3771134
					],
					[
						103.8411832,
						1.3771117
					],
					[
						103.8409655,
						1.3770898
					],
					[
						103.8406748,
						1.3770884
					],
					[
						103.8396394,
						1.3770834
					],
					[
						103.8395595,
						1.377083
					],
					[
						103.839572,
						1.3771558
					],
					[
						103.8397238,
						1.3780386
					],
					[
						103.8397647,
						1.3782762
					],
					[
						103.839791,
						1.3784289
					],
					[
						103.8398343,
						1.3788154
					],
					[
						103.8398351,
						1.3794505
					],
					[
						103.8397787,
						1.3798786
					],
					[
						103.8397515,
						1.3800849
					],
					[
						103.8397397,
						1.3801749
					],
					[
						103.8395202,
						1.3808085
					],
					[
						103.8393587,
						1.3811124
					],
					[
						103.8393318,
						1.3811632
					],
					[
						103.8390875,
						1.3815553
					],
					[
						103.8386779,
						1.3822129
					],
					[
						103.8386365,
						1.3822793
					],
					[
						103.8385937,
						1.3823393
					],
					[
						103.8382133,
						1.3828727
					],
					[
						103.8377012,
						1.3835254
					],
					[
						103.837426,
						1.3838841
					],
					[
						103.8373285,
						1.3840112
					],
					[
						103.8374162,
						1.3841103
					],
					[
						103.8376739,
						1.3844018
					],
					[
						103.8388711,
						1.3855487
					],
					[
						103.8392957,
						1.3859555
					],
					[
						103.8393507,
						1.3860082
					],
					[
						103.8393988,
						1.3860543
					],
					[
						103.839484,
						1.386121
					],
					[
						103.8395449,
						1.3861687
					],
					[
						103.8404811,
						1.3869023
					],
					[
						103.8409236,
						1.3872491
					],
					[
						103.8414733,
						1.3876328
					],
					[
						103.8416202,
						1.3877353
					],
					[
						103.8416923,
						1.3875577
					],
					[
						103.8418067,
						1.387355
					],
					[
						103.8419909,
						1.3871456
					],
					[
						103.8423178,
						1.3869183
					],
					[
						103.8426507,
						1.3866611
					],
					[
						103.8428231,
						1.3864218
					],
					[
						103.8429657,
						1.3860629
					],
					[
						103.843017,
						1.3859333
					],
					[
						103.8437597,
						1.3840561
					],
					[
						103.8439594,
						1.3834965
					],
					[
						103.8440091,
						1.3829337
					],
					[
						103.8440174,
						1.3828401
					],
					[
						103.8440506,
						1.3823186
					],
					[
						103.8440578,
						1.3820745
					],
					[
						103.844072,
						1.3818951
					],
					[
						103.844097,
						1.3814141
					],
					[
						103.8442066,
						1.3808953
					],
					[
						103.8442466,
						1.3807436
					],
					[
						103.84427,
						1.3806158
					],
					[
						103.8443312,
						1.3802807
					],
					[
						103.8443934,
						1.3797613
					],
					[
						103.8444353,
						1.3794232
					],
					[
						103.8445356,
						1.378613
					],
					[
						103.8446409,
						1.3777629
					],
					[
						103.8446785,
						1.3774595
					],
					[
						103.8446932,
						1.3773406
					],
					[
						103.8448289,
						1.3773203
					],
					[
						103.8451107,
						1.3772781
					],
					[
						103.8456128,
						1.3772004
					],
					[
						103.8462497,
						1.3770601
					],
					[
						103.8472201,
						1.3768463
					],
					[
						103.8476644,
						1.3767469
					],
					[
						103.8477379,
						1.3767304
					],
					[
						103.8478111,
						1.3767138
					],
					[
						103.8483053,
						1.3766015
					],
					[
						103.8494944,
						1.3763859
					],
					[
						103.8506171,
						1.376247
					],
					[
						103.8508132,
						1.3762318
					],
					[
						103.8509353,
						1.3762223
					],
					[
						103.8509129,
						1.3758581
					],
					[
						103.8508687,
						1.3750597
					],
					[
						103.850863,
						1.3749613
					],
					[
						103.8508518,
						1.3747688
					],
					[
						103.8508426,
						1.3746108
					],
					[
						103.8507516,
						1.3730446
					],
					[
						103.8516066,
						1.3728808
					],
					[
						103.8516198,
						1.3728778
					],
					[
						103.8517635,
						1.372845
					],
					[
						103.8528656,
						1.3726383
					],
					[
						103.8531874,
						1.372578
					],
					[
						103.8536014,
						1.3724674
					],
					[
						103.854216,
						1.3723033
					],
					[
						103.8544469,
						1.3722417
					],
					[
						103.8552185,
						1.3720289
					],
					[
						103.8554932,
						1.3720108
					],
					[
						103.8556722,
						1.3720587
					],
					[
						103.8558312,
						1.3721504
					],
					[
						103.8562209,
						1.3725328
					],
					[
						103.856509,
						1.3719403
					],
					[
						103.856591,
						1.3716916
					],
					[
						103.8566709,
						1.3714492
					],
					[
						103.8567796,
						1.3709434
					],
					[
						103.8568306,
						1.370299
					],
					[
						103.8568299,
						1.3693735
					],
					[
						103.8568277,
						1.3691121
					],
					[
						103.856951,
						1.3690898
					],
					[
						103.8570912,
						1.3690645
					],
					[
						103.857509,
						1.3690263
					],
					[
						103.8579669,
						1.3690227
					],
					[
						103.8588688,
						1.3690946
					],
					[
						103.8593692,
						1.3691345
					],
					[
						103.8604515,
						1.3693175
					],
					[
						103.8605273,
						1.3693357
					],
					[
						103.8612031,
						1.3694974
					],
					[
						103.8612687,
						1.3694457
					],
					[
						103.8613187,
						1.3693826
					],
					[
						103.8613489,
						1.3691136
					],
					[
						103.8613396,
						1.3688851
					],
					[
						103.8613061,
						1.3686322
					],
					[
						103.8612097,
						1.368221
					],
					[
						103.861084,
						1.3678099
					],
					[
						103.8608326,
						1.3670952
					],
					[
						103.8603974,
						1.3662797
					],
					[
						103.8575352,
						1.3583263
					],
					[
						103.8573312,
						1.3577364
					],
					[
						103.8571597,
						1.3571839
					],
					[
						103.8570099,
						1.3563867
					],
					[
						103.8569241,
						1.3554707
					],
					[
						103.8569378,
						1.3550332
					],
					[
						103.8569546,
						1.3544803
					],
					[
						103.857052,
						1.3535329
					],
					[
						103.8571478,
						1.3530723
					],
					[
						103.8574172,
						1.3521872
					],
					[
						103.8591455,
						1.3472516
					],
					[
						103.859577,
						1.3460411
					],
					[
						103.8600415,
						1.3447382
					],
					[
						103.8604839,
						1.3434972
					],
					[
						103.8614728,
						1.3407183
					],
					[
						103.8616663,
						1.3401746
					],
					[
						103.861927,
						1.3393312
					],
					[
						103.8621164,
						1.3384404
					],
					[
						103.8621734,
						1.3378302
					],
					[
						103.8622447,
						1.3357916
					],
					[
						103.8623016,
						1.3350012
					],
					[
						103.8623855,
						1.3317716
					],
					[
						103.8624291,
						1.3299591
					],
					[
						103.8624335,
						1.3296776
					],
					[
						103.8624337,
						1.3296056
					],
					[
						103.8623776,
						1.329126
					],
					[
						103.862287,
						1.3286869
					],
					[
						103.8621305,
						1.3281566
					],
					[
						103.8619246,
						1.3276233
					],
					[
						103.8616448,
						1.3270794
					],
					[
						103.8611567,
						1.3264251
					],
					[
						103.8602592,
						1.325557
					],
					[
						103.8588544,
						1.3242595
					],
					[
						103.8575892,
						1.3229911
					],
					[
						103.85645,
						1.3216238
					],
					[
						103.8557663,
						1.3209886
					],
					[
						103.8552579,
						1.3205613
					],
					[
						103.8547083,
						1.3201443
					],
					[
						103.8537305,
						1.3195208
					],
					[
						103.8529643,
						1.3191125
					],
					[
						103.8513529,
						1.3183797
					],
					[
						103.8502876,
						1.3178953
					],
					[
						103.8483502,
						1.3170129
					],
					[
						103.8475874,
						1.3165522
					],
					[
						103.8469771,
						1.3160754
					],
					[
						103.8464625,
						1.3155322
					],
					[
						103.845895,
						1.31482
					],
					[
						103.8454806,
						1.3140949
					],
					[
						103.8452447,
						1.3135174
					],
					[
						103.845085,
						1.3130861
					],
					[
						103.8450135,
						1.3128625
					],
					[
						103.8448945,
						1.3122476
					],
					[
						103.8447358,
						1.3115848
					],
					[
						103.8445536,
						1.3109877
					],
					[
						103.8442166,
						1.3102238
					],
					[
						103.8437691,
						1.3096674
					],
					[
						103.8432392,
						1.3091187
					],
					[
						103.8425264,
						1.3085621
					],
					[
						103.8417873,
						1.3079789
					],
					[
						103.84121,
						1.3075702
					],
					[
						103.840747,
						1.3070982
					],
					[
						103.840467,
						1.3066435
					],
					[
						103.8402404,
						1.306089
					],
					[
						103.8401825,
						1.3058981
					],
					[
						103.8401229,
						1.3055029
					],
					[
						103.8401174,
						1.3050063
					],
					[
						103.8401265,
						1.3049224
					],
					[
						103.8401446,
						1.3047557
					],
					[
						103.8402223,
						1.3044267
					],
					[
						103.8403311,
						1.3041016
					],
					[
						103.8405605,
						1.3036624
					],
					[
						103.8408427,
						1.3032709
					],
					[
						103.8411414,
						1.3029486
					],
					[
						103.8419015,
						1.3023302
					],
					[
						103.8427069,
						1.3016979
					],
					[
						103.8430885,
						1.3013238
					],
					[
						103.8432106,
						1.3011668
					],
					[
						103.8434195,
						1.3008283
					],
					[
						103.8436002,
						1.3004139
					],
					[
						103.8436953,
						1.3000516
					],
					[
						103.8437668,
						1.2988448
					],
					[
						103.8438943,
						1.2969276
					],
					[
						103.8442623,
						1.2942694
					],
					[
						103.8442051,
						1.2935342
					],
					[
						103.8441254,
						1.2931251
					],
					[
						103.8432993,
						1.2911667
					],
					[
						103.8418423,
						1.2888501
					],
					[
						103.8414095,
						1.2882625
					],
					[
						103.8409687,
						1.2877284
					],
					[
						103.8401616,
						1.2870955
					],
					[
						103.8386256,
						1.2861585
					],
					[
						103.8382072,
						1.2858637
					],
					[
						103.8378474,
						1.2855738
					],
					[
						103.8376875,
						1.285219
					],
					[
						103.8372347,
						1.2845343
					],
					[
						103.8371632,
						1.2843396
					],
					[
						103.8369013,
						1.2839451
					],
					[
						103.8368127,
						1.2838116
					],
					[
						103.8364329,
						1.2833826
					],
					[
						103.8364127,
						1.2831126
					],
					[
						103.8365236,
						1.282758
					],
					[
						103.8367475,
						1.2826035
					],
					[
						103.8373387,
						1.2822397
					],
					[
						103.83742,
						1.2821896
					],
					[
						103.8374885,
						1.2821474
					],
					[
						103.8382091,
						1.281704
					],
					[
						103.8383818,
						1.2815269
					],
					[
						103.8386106,
						1.2812906
					],
					[
						103.839098,
						1.2807373
					],
					[
						103.8392703,
						1.280504
					],
					[
						103.8393268,
						1.2803814
					],
					[
						103.8394091,
						1.2801247
					],
					[
						103.8394784,
						1.2798699
					],
					[
						103.8395395,
						1.2797213
					],
					[
						103.8396196,
						1.2795577
					],
					[
						103.8396686,
						1.2794482
					],
					[
						103.839861,
						1.2791224
					],
					[
						103.8404058,
						1.2781065
					],
					[
						103.8404542,
						1.2780135
					],
					[
						103.8405575,
						1.2776027
					],
					[
						103.8406335,
						1.277271
					],
					[
						103.840657,
						1.2771682
					],
					[
						103.8408526,
						1.2758655
					],
					[
						103.8408808,
						1.2757383
					],
					[
						103.8410037,
						1.2751834
					],
					[
						103.8410852,
						1.2749115
					],
					[
						103.8411254,
						1.2747774
					],
					[
						103.8412898,
						1.2742416
					],
					[
						103.841377,
						1.274056
					],
					[
						103.8414441,
						1.2739134
					],
					[
						103.8416692,
						1.273471
					],
					[
						103.8418221,
						1.2732273
					],
					[
						103.8419246,
						1.2730638
					],
					[
						103.8420363,
						1.2729759
					],
					[
						103.8421613,
						1.2728048
					],
					[
						103.8423069,
						1.2727018
					],
					[
						103.8426197,
						1.2727129
					],
					[
						103.8430274,
						1.2727274
					],
					[
						103.8434932,
						1.2727369
					],
					[
						103.8439572,
						1.2727463
					],
					[
						103.8445593,
						1.2734593
					],
					[
						103.8446332,
						1.2735468
					],
					[
						103.8452212,
						1.2742629
					],
					[
						103.8454836,
						1.274573
					],
					[
						103.8455874,
						1.2746957
					],
					[
						103.8457299,
						1.2748637
					],
					[
						103.8465294,
						1.2757984
					],
					[
						103.8469048,
						1.2763738
					],
					[
						103.8472993,
						1.2766425
					],
					[
						103.8476729,
						1.2769761
					],
					[
						103.8481644,
						1.2777871
					],
					[
						103.8481657,
						1.2777893
					],
					[
						103.8487887,
						1.2788174
					],
					[
						103.8494392,
						1.279882
					],
					[
						103.8494403,
						1.2798839
					],
					[
						103.8496231,
						1.280183
					],
					[
						103.849783,
						1.28042
					],
					[
						103.8503142,
						1.2812099
					],
					[
						103.8505937,
						1.2815041
					],
					[
						103.8508205,
						1.2818678
					],
					[
						103.8509218,
						1.282031
					],
					[
						103.8512709,
						1.2825937
					],
					[
						103.8514059,
						1.2825361
					],
					[
						103.8519642,
						1.2821678
					],
					[
						103.8526647,
						1.2817574
					],
					[
						103.853003,
						1.2815317
					],
					[
						103.8534127,
						1.2812583
					],
					[
						103.8541763,
						1.2807734
					],
					[
						103.8549292,
						1.2802955
					]
				]
			},
			"properties": {
				"styleUrl": "#busroute",
				"styleHash": "-2257368b",
				"stroke-opacity": 0.6039215686274509,
				"stroke": "#DA0FB1",
				"stroke-width": 4
			}
		}
	]
}