{
	"type": "FeatureCollection",
	"features": [
		{
			"type": "Feature",
			"geometry": {
				"type": "LineString",
				"coordinates": [
					[
						103.8556661,
						1.2776079
					],
					[
						103.8546095,
						1.2783225
					],
					[
						103.8531892,
						1.279233
					],
					[
						103.852817,
						1.2794504
					],
					[
						103.8524324,
						1.279675
					],
					[
						103.8523505,
						1.2797226
					],
					[
						103.8520533,
						1.2798961
					],
					[
						103.8517442,
						1.2801474
					],
					[
						103.8516013,
						1.2802713
					],
					[
						103.8514792,
						1.2803771
					],
					[
						103.8510823,
						1.2807708
					],
					[
						103.8505585,
						1.2799636
					],
					[
						103.8504823,
						1.2798365
					],
					[
						103.8495792,
						1.2783507
					],
					[
						103.8494517,
						1.2781411
					],
					[
						103.8486824,
						1.2768758
					],
					[
						103.8485952,
						1.2767324
					],
					[
						103.8481432,
						1.2761015
					],
					[
						103.8478281,
						1.2756014
					],
					[
						103.8474444,
						1.2749925
					],
					[
						103.8473576,
						1.2748575
					],
					[
						103.8471589,
						1.2746228
					],
					[
						103.8468236,
						1.2742266
					],
					[
						103.8467788,
						1.2741736
					],
					[
						103.8466839,
						1.2740615
					],
					[
						103.8464889,
						1.2738058
					],
					[
						103.8463296,
						1.273614
					],
					[
						103.8461436,
						1.2734012
					],
					[
						103.8459297,
						1.2731424
					],
					[
						103.8456456,
						1.2727986
					],
					[
						103.8454391,
						1.2725143
					],
					[
						103.8449778,
						1.2725641
					],
					[
						103.8442246,
						1.2725515
					],
					[
						103.8438194,
						1.2725448
					],
					[
						103.8432095,
						1.2725232
					],
					[
						103.8421316,
						1.2724941
					],
					[
						103.8418056,
						1.2724853
					],
					[
						103.839938,
						1.2724225
					],
					[
						103.8399228,
						1.27253
					],
					[
						103.8399261,
						1.2726548
					],
					[
						103.8399056,
						1.2727189
					],
					[
						103.8399076,
						1.2728822
					],
					[
						103.8399335,
						1.272982
					],
					[
						103.8401166,
						1.2732119
					],
					[
						103.8406503,
						1.2735659
					],
					[
						103.841017,
						1.2738425
					],
					[
						103.8412898,
						1.2742416
					],
					[
						103.8411254,
						1.2747774
					],
					[
						103.8410852,
						1.2749115
					],
					[
						103.8410037,
						1.2751834
					],
					[
						103.8408808,
						1.2757383
					],
					[
						103.8408526,
						1.2758655
					],
					[
						103.840657,
						1.2771682
					],
					[
						103.8406335,
						1.277271
					],
					[
						103.8405575,
						1.2776027
					],
					[
						103.8404542,
						1.2780135
					],
					[
						103.8404058,
						1.2781065
					],
					[
						103.839861,
						1.2791224
					],
					[
						103.8396686,
						1.2794482
					],
					[
						103.8396196,
						1.2795577
					],
					[
						103.8395395,
						1.2797213
					],
					[
						103.8394784,
						1.2798699
					],
					[
						103.8394091,
						1.2801247
					],
					[
						103.8393268,
						1.2803814
					],
					[
						103.8392703,
						1.280504
					],
					[
						103.839098,
						1.2807373
					],
					[
						103.8386106,
						1.2812906
					],
					[
						103.8383818,
						1.2815269
					],
					[
						103.8382091,
						1.281704
					],
					[
						103.8379477,
						1.2818648
					],
					[
						103.8374885,
						1.2821474
					],
					[
						103.83742,
						1.2821896
					],
					[
						103.8373387,
						1.2822397
					],
					[
						103.8367475,
						1.2826035
					],
					[
						103.8365236,
						1.282758
					],
					[
						103.8360907,
						1.2830935
					],
					[
						103.8360423,
						1.2831358
					],
					[
						103.8360339,
						1.2833595
					],
					[
						103.8360693,
						1.2835425
					],
					[
						103.8361227,
						1.2836578
					],
					[
						103.8364034,
						1.2839527
					],
					[
						103.8366497,
						1.2842535
					],
					[
						103.8367649,
						1.2844966
					],
					[
						103.8369357,
						1.2846743
					],
					[
						103.8370912,
						1.2849217
					],
					[
						103.8372951,
						1.2852307
					],
					[
						103.8374766,
						1.2854824
					],
					[
						103.8378006,
						1.2857074
					],
					[
						103.8382533,
						1.2860513
					],
					[
						103.8401737,
						1.2872552
					],
					[
						103.8405878,
						1.2875598
					],
					[
						103.8407659,
						1.2877298
					],
					[
						103.8409691,
						1.2879741
					],
					[
						103.8414627,
						1.2887637
					],
					[
						103.8426928,
						1.2906426
					],
					[
						103.8430845,
						1.2912408
					],
					[
						103.843679,
						1.2923871
					],
					[
						103.8439421,
						1.2931813
					],
					[
						103.8440617,
						1.2935743
					],
					[
						103.8440936,
						1.2942161
					],
					[
						103.8438306,
						1.2963419
					],
					[
						103.8437349,
						1.2968794
					],
					[
						103.843653,
						1.2982472
					],
					[
						103.8435995,
						1.2991416
					],
					[
						103.8435282,
						1.3000723
					],
					[
						103.8433608,
						1.3005858
					],
					[
						103.8431535,
						1.3009549
					],
					[
						103.8429713,
						1.301212
					],
					[
						103.842699,
						1.3014684
					],
					[
						103.8424997,
						1.301669
					],
					[
						103.8417877,
						1.3022519
					],
					[
						103.8410257,
						1.3028697
					],
					[
						103.84058,
						1.3033654
					],
					[
						103.8403263,
						1.3037794
					],
					[
						103.8401816,
						1.3041317
					],
					[
						103.8400727,
						1.3044568
					],
					[
						103.839995,
						1.3047858
					],
					[
						103.8399678,
						1.3050365
					],
					[
						103.8399733,
						1.3055331
					],
					[
						103.8400339,
						1.3059282
					],
					[
						103.840092,
						1.3061191
					],
					[
						103.8405959,
						1.3072204
					],
					[
						103.841067,
						1.3077082
					],
					[
						103.8416329,
						1.3081227
					],
					[
						103.8422217,
						1.3085199
					],
					[
						103.8430334,
						1.3091589
					],
					[
						103.8436164,
						1.3097633
					],
					[
						103.8439879,
						1.3102468
					],
					[
						103.8443764,
						1.3110338
					],
					[
						103.8445565,
						1.3115949
					],
					[
						103.8446717,
						1.3121377
					],
					[
						103.8448367,
						1.3129474
					],
					[
						103.8450969,
						1.3136611
					],
					[
						103.845355,
						1.3142451
					],
					[
						103.8457488,
						1.3149173
					],
					[
						103.8463434,
						1.3156825
					],
					[
						103.8467343,
						1.3160622
					],
					[
						103.8470616,
						1.3163429
					],
					[
						103.8475648,
						1.3167293
					],
					[
						103.8482856,
						1.3171791
					],
					[
						103.849973,
						1.3179639
					],
					[
						103.8524783,
						1.3190778
					],
					[
						103.8530744,
						1.3193493
					],
					[
						103.8539545,
						1.3198573
					],
					[
						103.8544282,
						1.3201801
					],
					[
						103.855159,
						1.3207271
					],
					[
						103.8555267,
						1.3210311
					],
					[
						103.855875,
						1.3213454
					],
					[
						103.8562868,
						1.3218001
					],
					[
						103.8582802,
						1.3240202
					],
					[
						103.8605757,
						1.32613
					],
					[
						103.8612642,
						1.3269056
					],
					[
						103.8616175,
						1.3274576
					],
					[
						103.8619247,
						1.3281318
					],
					[
						103.8621056,
						1.3287594
					],
					[
						103.8622108,
						1.329193
					],
					[
						103.8622458,
						1.3295964
					],
					[
						103.8622437,
						1.3298336
					],
					[
						103.8622236,
						1.3318078
					],
					[
						103.8620336,
						1.3360539
					],
					[
						103.8620051,
						1.3375566
					],
					[
						103.8619385,
						1.3383319
					],
					[
						103.8618073,
						1.3390015
					],
					[
						103.8616005,
						1.339784
					],
					[
						103.8611943,
						1.3409318
					],
					[
						103.8608051,
						1.3420415
					],
					[
						103.8602988,
						1.343485
					],
					[
						103.8595367,
						1.345652
					],
					[
						103.8590049,
						1.3471642
					],
					[
						103.8570949,
						1.3526146
					],
					[
						103.8568811,
						1.3535126
					],
					[
						103.8567778,
						1.354459
					],
					[
						103.8567562,
						1.3550179
					],
					[
						103.8567636,
						1.3554651
					],
					[
						103.8568495,
						1.356381
					],
					[
						103.8569992,
						1.3571783
					],
					[
						103.8571502,
						1.3577093
					],
					[
						103.8572028,
						1.3578943
					],
					[
						103.8573354,
						1.3583152
					],
					[
						103.8601611,
						1.3662347
					],
					[
						103.8602505,
						1.366781
					],
					[
						103.8603924,
						1.3674148
					],
					[
						103.8604244,
						1.3681654
					],
					[
						103.8603306,
						1.3686667
					],
					[
						103.8602767,
						1.3687939
					],
					[
						103.8601878,
						1.3689143
					],
					[
						103.8600668,
						1.3690084
					],
					[
						103.8598236,
						1.3691032
					],
					[
						103.8593692,
						1.3691345
					],
					[
						103.8583148,
						1.3690505
					],
					[
						103.8579669,
						1.3690227
					],
					[
						103.857509,
						1.3690263
					],
					[
						103.8570912,
						1.3690645
					],
					[
						103.856951,
						1.3690898
					],
					[
						103.8568277,
						1.3691121
					],
					[
						103.8568299,
						1.3693735
					],
					[
						103.8568306,
						1.370299
					],
					[
						103.8567796,
						1.3709434
					],
					[
						103.8567506,
						1.3710784
					],
					[
						103.8566709,
						1.3714492
					],
					[
						103.856509,
						1.3719403
					],
					[
						103.8562209,
						1.3725328
					],
					[
						103.8558312,
						1.3721504
					],
					[
						103.8556722,
						1.3720587
					],
					[
						103.8554932,
						1.3720108
					],
					[
						103.8552185,
						1.3720289
					],
					[
						103.8549055,
						1.3721152
					],
					[
						103.8544469,
						1.3722417
					],
					[
						103.8536014,
						1.3724674
					],
					[
						103.8531874,
						1.372578
					],
					[
						103.8528656,
						1.3726383
					],
					[
						103.8521507,
						1.3727724
					],
					[
						103.8517635,
						1.372845
					],
					[
						103.8516066,
						1.3728808
					],
					[
						103.8507516,
						1.3730446
					],
					[
						103.8508175,
						1.3741788
					],
					[
						103.8508518,
						1.3747688
					],
					[
						103.850863,
						1.3749613
					],
					[
						103.8508687,
						1.3750597
					],
					[
						103.8509129,
						1.3758581
					],
					[
						103.8508474,
						1.3759891
					],
					[
						103.850744,
						1.3761192
					],
					[
						103.8506171,
						1.376247
					],
					[
						103.8500126,
						1.3763218
					],
					[
						103.8494944,
						1.3763859
					],
					[
						103.8483053,
						1.3766015
					],
					[
						103.8478111,
						1.3767138
					],
					[
						103.8477379,
						1.3767304
					],
					[
						103.8476644,
						1.3767469
					],
					[
						103.8472201,
						1.3768463
					],
					[
						103.8462108,
						1.3770687
					],
					[
						103.8456128,
						1.3772004
					],
					[
						103.8451107,
						1.3772781
					],
					[
						103.8448289,
						1.3773203
					],
					[
						103.8446932,
						1.3773406
					],
					[
						103.8446785,
						1.3774595
					],
					[
						103.8446409,
						1.3777629
					],
					[
						103.8445359,
						1.3786109
					],
					[
						103.8444353,
						1.3794232
					],
					[
						103.8443934,
						1.3797613
					],
					[
						103.8443312,
						1.3802807
					],
					[
						103.84427,
						1.3806158
					],
					[
						103.8442466,
						1.3807436
					],
					[
						103.8442066,
						1.3808953
					],
					[
						103.844097,
						1.3814141
					],
					[
						103.8440955,
						1.3814431
					],
					[
						103.844072,
						1.3818951
					],
					[
						103.8440578,
						1.3820745
					],
					[
						103.8440506,
						1.3823186
					],
					[
						103.8440174,
						1.3828401
					],
					[
						103.8439594,
						1.3834965
					],
					[
						103.8437597,
						1.3840561
					],
					[
						103.8430538,
						1.3858403
					],
					[
						103.8429657,
						1.3860629
					],
					[
						103.8428231,
						1.3864218
					],
					[
						103.8426507,
						1.3866611
					],
					[
						103.8423178,
						1.3869183
					],
					[
						103.8416749,
						1.3871746
					],
					[
						103.8414166,
						1.3872595
					],
					[
						103.8411451,
						1.3872805
					],
					[
						103.8409236,
						1.3872491
					],
					[
						103.8404811,
						1.3869023
					],
					[
						103.8395449,
						1.3861687
					],
					[
						103.839484,
						1.386121
					],
					[
						103.8393988,
						1.3860543
					],
					[
						103.8393507,
						1.3860082
					],
					[
						103.8392957,
						1.3859555
					],
					[
						103.8390796,
						1.3857485
					],
					[
						103.8376739,
						1.3844018
					],
					[
						103.8376089,
						1.384142
					],
					[
						103.8376009,
						1.3839632
					],
					[
						103.837637,
						1.3836961
					],
					[
						103.8377012,
						1.3835254
					],
					[
						103.8382133,
						1.3828727
					],
					[
						103.8385937,
						1.3823393
					],
					[
						103.8386365,
						1.3822793
					],
					[
						103.8386779,
						1.3822129
					],
					[
						103.8391737,
						1.3814169
					],
					[
						103.8393318,
						1.3811632
					],
					[
						103.8393587,
						1.3811124
					],
					[
						103.8395202,
						1.3808085
					],
					[
						103.8397397,
						1.3801749
					],
					[
						103.8397515,
						1.3800849
					],
					[
						103.8398351,
						1.3794505
					],
					[
						103.8398345,
						1.3789403
					],
					[
						103.8398343,
						1.3788154
					],
					[
						103.839791,
						1.3784289
					],
					[
						103.8397647,
						1.3782762
					],
					[
						103.8397238,
						1.3780386
					],
					[
						103.839572,
						1.3771558
					],
					[
						103.8395595,
						1.377083
					],
					[
						103.8396394,
						1.3770834
					],
					[
						103.8405971,
						1.377088
					],
					[
						103.8406748,
						1.3770884
					],
					[
						103.8409655,
						1.3770898
					],
					[
						103.8411997,
						1.3771134
					],
					[
						103.842031,
						1.3771997
					],
					[
						103.8428639,
						1.3772862
					],
					[
						103.8433172,
						1.3773333
					],
					[
						103.8434011,
						1.3773343
					]
				]
			},
			"properties": {
				"styleUrl": "#busroute",
				"styleHash": "-2257368b",
				"stroke-opacity": 0.6039215686274509,
				"stroke": "#DA0FB1",
				"stroke-width": 4
			}
		}
	]
}