{
	"type": "FeatureCollection",
	"features": [
		{
			"type": "Feature",
			"geometry": {
				"type": "LineString",
				"coordinates": [
					[
						103.8594883,
						1.2956424
					],
					[
						103.8591472,
						1.2950467
					],
					[
						103.8592232,
						1.2949442
					],
					[
						103.8592696,
						1.2948648
					],
					[
						103.8592925,
						1.2947144
					],
					[
						103.8592586,
						1.2945662
					],
					[
						103.8602434,
						1.2939702
					],
					[
						103.8604855,
						1.2938093
					],
					[
						103.8605163,
						1.2937796
					],
					[
						103.8605781,
						1.2937202
					],
					[
						103.8606699,
						1.293654
					],
					[
						103.8607749,
						1.2934996
					],
					[
						103.8608034,
						1.2933606
					],
					[
						103.8608234,
						1.2932637
					],
					[
						103.8608459,
						1.292686
					],
					[
						103.8608461,
						1.2926821
					],
					[
						103.860877,
						1.2918907
					],
					[
						103.8608795,
						1.2917387
					],
					[
						103.8608865,
						1.2913218
					],
					[
						103.8608802,
						1.2912573
					],
					[
						103.8608727,
						1.2907473
					],
					[
						103.8608736,
						1.2907025
					],
					[
						103.8608737,
						1.290699
					],
					[
						103.8608948,
						1.2896686
					],
					[
						103.8608976,
						1.2895302
					],
					[
						103.8608952,
						1.2891515
					],
					[
						103.8608914,
						1.2885464
					],
					[
						103.860831,
						1.2864038
					],
					[
						103.8607816,
						1.2852166
					],
					[
						103.8607048,
						1.2848135
					],
					[
						103.8606444,
						1.284565
					],
					[
						103.8605402,
						1.2842944
					],
					[
						103.8603097,
						1.283825
					],
					[
						103.8599641,
						1.2832783
					],
					[
						103.8599295,
						1.2832248
					],
					[
						103.8594189,
						1.2824352
					],
					[
						103.8587173,
						1.2813289
					],
					[
						103.8585873,
						1.281124
					],
					[
						103.8584827,
						1.280959
					],
					[
						103.8575787,
						1.2795573
					],
					[
						103.8573845,
						1.2792562
					],
					[
						103.8571406,
						1.2788781
					],
					[
						103.8569947,
						1.2786541
					],
					[
						103.8561355,
						1.2772904
					],
					[
						103.8556661,
						1.2776079
					],
					[
						103.8546095,
						1.2783225
					],
					[
						103.8531892,
						1.279233
					],
					[
						103.852817,
						1.2794504
					],
					[
						103.8524324,
						1.279675
					],
					[
						103.8523505,
						1.2797226
					],
					[
						103.8520533,
						1.2798961
					],
					[
						103.8517442,
						1.2801474
					],
					[
						103.8514792,
						1.2803771
					],
					[
						103.8510823,
						1.2807708
					],
					[
						103.8505585,
						1.2799636
					],
					[
						103.8504823,
						1.2798365
					],
					[
						103.8495792,
						1.2783507
					],
					[
						103.8494517,
						1.2781411
					],
					[
						103.8486824,
						1.2768758
					],
					[
						103.8485952,
						1.2767324
					],
					[
						103.8481432,
						1.2761015
					],
					[
						103.8478281,
						1.2756014
					],
					[
						103.8478258,
						1.2755978
					],
					[
						103.8474444,
						1.2749925
					],
					[
						103.8473576,
						1.2748575
					],
					[
						103.8471589,
						1.2746228
					],
					[
						103.8467788,
						1.2741736
					],
					[
						103.8466839,
						1.2740615
					],
					[
						103.8464889,
						1.2738058
					],
					[
						103.8463296,
						1.273614
					],
					[
						103.8461436,
						1.2734012
					],
					[
						103.8459297,
						1.2731424
					],
					[
						103.8456456,
						1.2727986
					],
					[
						103.8454391,
						1.2725143
					],
					[
						103.8449778,
						1.2725641
					],
					[
						103.8442246,
						1.2725515
					],
					[
						103.8438194,
						1.2725448
					],
					[
						103.8432095,
						1.2725232
					],
					[
						103.8418056,
						1.2724853
					],
					[
						103.8409368,
						1.2724561
					],
					[
						103.839938,
						1.2724225
					],
					[
						103.8399228,
						1.27253
					],
					[
						103.8399261,
						1.2726548
					],
					[
						103.8399056,
						1.2727189
					],
					[
						103.8399076,
						1.2728822
					],
					[
						103.8399335,
						1.272982
					],
					[
						103.8401166,
						1.2732119
					],
					[
						103.8406503,
						1.2735659
					],
					[
						103.841017,
						1.2738425
					],
					[
						103.8412898,
						1.2742416
					],
					[
						103.8411254,
						1.2747774
					],
					[
						103.8410852,
						1.2749115
					],
					[
						103.8410037,
						1.2751834
					],
					[
						103.8408808,
						1.2757383
					],
					[
						103.8408526,
						1.2758655
					],
					[
						103.840841,
						1.2759427
					],
					[
						103.840657,
						1.2771682
					],
					[
						103.8406335,
						1.277271
					],
					[
						103.8405575,
						1.2776027
					],
					[
						103.8404542,
						1.2780135
					],
					[
						103.8404058,
						1.2781065
					],
					[
						103.839861,
						1.2791224
					],
					[
						103.8396686,
						1.2794482
					],
					[
						103.8396196,
						1.2795577
					],
					[
						103.8395395,
						1.2797213
					],
					[
						103.8394784,
						1.2798699
					],
					[
						103.8394091,
						1.2801247
					],
					[
						103.8393268,
						1.2803814
					],
					[
						103.8392703,
						1.280504
					],
					[
						103.839098,
						1.2807373
					],
					[
						103.8386106,
						1.2812906
					],
					[
						103.8383818,
						1.2815269
					],
					[
						103.8382091,
						1.281704
					],
					[
						103.8374885,
						1.2821474
					],
					[
						103.83742,
						1.2821896
					],
					[
						103.8373387,
						1.2822397
					],
					[
						103.8367475,
						1.2826035
					],
					[
						103.8365236,
						1.282758
					],
					[
						103.8360907,
						1.2830935
					],
					[
						103.8360423,
						1.2831358
					],
					[
						103.8360339,
						1.2833595
					],
					[
						103.8360693,
						1.2835425
					],
					[
						103.8361227,
						1.2836578
					],
					[
						103.8362144,
						1.2837542
					],
					[
						103.8364034,
						1.2839527
					],
					[
						103.8366497,
						1.2842535
					],
					[
						103.8367649,
						1.2844966
					],
					[
						103.8369357,
						1.2846743
					],
					[
						103.8370912,
						1.2849217
					],
					[
						103.8372951,
						1.2852307
					],
					[
						103.8374766,
						1.2854824
					],
					[
						103.8378006,
						1.2857074
					],
					[
						103.8382533,
						1.2860513
					],
					[
						103.8401737,
						1.2872552
					],
					[
						103.8405878,
						1.2875598
					],
					[
						103.8407659,
						1.2877298
					],
					[
						103.8409691,
						1.2879741
					],
					[
						103.8414627,
						1.2887637
					],
					[
						103.8430845,
						1.2912408
					],
					[
						103.843679,
						1.2923871
					],
					[
						103.8439421,
						1.2931813
					],
					[
						103.8440617,
						1.2935743
					],
					[
						103.8440936,
						1.2942161
					],
					[
						103.8438306,
						1.2963419
					],
					[
						103.8437349,
						1.2968794
					],
					[
						103.843653,
						1.2982472
					],
					[
						103.8435995,
						1.2991416
					],
					[
						103.8435282,
						1.3000723
					],
					[
						103.8433608,
						1.3005858
					],
					[
						103.8431535,
						1.3009549
					],
					[
						103.8429713,
						1.301212
					],
					[
						103.842699,
						1.3014684
					],
					[
						103.8424997,
						1.301669
					],
					[
						103.8417877,
						1.3022519
					],
					[
						103.8410257,
						1.3028697
					],
					[
						103.84058,
						1.3033654
					],
					[
						103.8403263,
						1.3037794
					],
					[
						103.8401816,
						1.3041317
					],
					[
						103.8400727,
						1.3044568
					],
					[
						103.839995,
						1.3047858
					],
					[
						103.8399678,
						1.3050365
					],
					[
						103.8399733,
						1.3055331
					],
					[
						103.8400339,
						1.3059282
					],
					[
						103.840092,
						1.3061191
					],
					[
						103.8405959,
						1.3072204
					],
					[
						103.841067,
						1.3077082
					],
					[
						103.8416329,
						1.3081227
					],
					[
						103.8422217,
						1.3085199
					],
					[
						103.8430334,
						1.3091589
					],
					[
						103.8434701,
						1.3096117
					],
					[
						103.8436164,
						1.3097633
					],
					[
						103.8439879,
						1.3102468
					],
					[
						103.8443764,
						1.3110338
					],
					[
						103.8445565,
						1.3115949
					],
					[
						103.8446717,
						1.3121377
					],
					[
						103.8448367,
						1.3129474
					],
					[
						103.8450969,
						1.3136611
					],
					[
						103.845355,
						1.3142451
					],
					[
						103.8457488,
						1.3149173
					],
					[
						103.8463434,
						1.3156825
					],
					[
						103.8467343,
						1.3160622
					],
					[
						103.8470616,
						1.3163429
					],
					[
						103.8475648,
						1.3167293
					],
					[
						103.8482856,
						1.3171791
					],
					[
						103.849973,
						1.3179639
					],
					[
						103.8524783,
						1.3190778
					],
					[
						103.8530744,
						1.3193493
					],
					[
						103.8539545,
						1.3198573
					],
					[
						103.8544282,
						1.3201801
					],
					[
						103.855159,
						1.3207271
					],
					[
						103.8555267,
						1.3210311
					],
					[
						103.855875,
						1.3213454
					],
					[
						103.8562868,
						1.3218001
					],
					[
						103.8582802,
						1.3240202
					],
					[
						103.8605757,
						1.32613
					],
					[
						103.8612642,
						1.3269056
					],
					[
						103.8616175,
						1.3274576
					],
					[
						103.8619247,
						1.3281318
					],
					[
						103.8619618,
						1.3282604
					],
					[
						103.8621056,
						1.3287594
					],
					[
						103.8622108,
						1.329193
					],
					[
						103.8622458,
						1.3295964
					],
					[
						103.8622437,
						1.3298336
					],
					[
						103.8621482,
						1.3304546
					],
					[
						103.8620752,
						1.3312275
					],
					[
						103.8620151,
						1.3314888
					],
					[
						103.8618823,
						1.3317341
					],
					[
						103.861762,
						1.3318807
					],
					[
						103.8616228,
						1.3319858
					],
					[
						103.8614827,
						1.3320322
					],
					[
						103.8613519,
						1.3320469
					],
					[
						103.8612334,
						1.3320175
					],
					[
						103.8610928,
						1.3319652
					],
					[
						103.860993,
						1.3318791
					],
					[
						103.8609121,
						1.3317642
					],
					[
						103.8608551,
						1.3316063
					],
					[
						103.8608503,
						1.3314196
					],
					[
						103.8608979,
						1.3312569
					],
					[
						103.8609787,
						1.3311229
					],
					[
						103.8610976,
						1.3310177
					],
					[
						103.8612307,
						1.3309267
					],
					[
						103.8613345,
						1.3308766
					],
					[
						103.8615065,
						1.3308119
					],
					[
						103.8617728,
						1.330764
					],
					[
						103.862291,
						1.3307066
					],
					[
						103.8628759,
						1.3305774
					],
					[
						103.8632696,
						1.330456
					],
					[
						103.8637242,
						1.330271
					],
					[
						103.864406,
						1.3299846
					],
					[
						103.8650945,
						1.329655
					],
					[
						103.8658451,
						1.329336
					],
					[
						103.8664884,
						1.3291238
					],
					[
						103.8667097,
						1.3290508
					],
					[
						103.8674292,
						1.3288595
					],
					[
						103.8677133,
						1.3287615
					],
					[
						103.8679903,
						1.3286533
					],
					[
						103.8681455,
						1.3286989
					],
					[
						103.868309,
						1.3288072
					],
					[
						103.8683696,
						1.3289821
					],
					[
						103.8683735,
						1.3289935
					],
					[
						103.8684123,
						1.3291321
					],
					[
						103.8687125,
						1.3306236
					],
					[
						103.8690628,
						1.3312071
					],
					[
						103.8692595,
						1.3319491
					],
					[
						103.8693269,
						1.3322033
					],
					[
						103.8693548,
						1.3323129
					],
					[
						103.8694341,
						1.3326876
					],
					[
						103.8695929,
						1.3333375
					],
					[
						103.8697745,
						1.3337885
					],
					[
						103.8699896,
						1.3343489
					],
					[
						103.8700623,
						1.334561
					],
					[
						103.8701194,
						1.3346854
					],
					[
						103.8701527,
						1.3348577
					],
					[
						103.8701856,
						1.3349716
					],
					[
						103.8701574,
						1.3350874
					],
					[
						103.8702208,
						1.3351455
					],
					[
						103.8702553,
						1.3353155
					],
					[
						103.8703072,
						1.3357365
					],
					[
						103.8703405,
						1.3359734
					],
					[
						103.8704154,
						1.3365489
					],
					[
						103.8705211,
						1.3373483
					],
					[
						103.870546,
						1.3375865
					],
					[
						103.8705754,
						1.3377729
					],
					[
						103.8705849,
						1.3379261
					],
					[
						103.8706154,
						1.3382529
					],
					[
						103.8707013,
						1.3390695
					],
					[
						103.8707307,
						1.3393678
					],
					[
						103.8707385,
						1.3394464
					],
					[
						103.8707408,
						1.3395185
					],
					[
						103.870749,
						1.339772
					],
					[
						103.870793,
						1.3400181
					],
					[
						103.8707259,
						1.3414734
					],
					[
						103.8706828,
						1.3428112
					],
					[
						103.8706537,
						1.3433294
					],
					[
						103.8706698,
						1.3437428
					],
					[
						103.8707469,
						1.3442738
					],
					[
						103.8708286,
						1.3446576
					],
					[
						103.8709759,
						1.3450641
					],
					[
						103.8714506,
						1.3461059
					],
					[
						103.8722288,
						1.3477678
					],
					[
						103.8725518,
						1.3483361
					],
					[
						103.8729852,
						1.3488778
					],
					[
						103.8735095,
						1.3495251
					],
					[
						103.873852,
						1.3499191
					],
					[
						103.8742265,
						1.3503187
					],
					[
						103.8745715,
						1.3506623
					],
					[
						103.8752543,
						1.3513019
					],
					[
						103.8761004,
						1.3521169
					],
					[
						103.8768813,
						1.3528297
					],
					[
						103.8780787,
						1.353901
					],
					[
						103.878922,
						1.3546133
					],
					[
						103.8793172,
						1.3549097
					],
					[
						103.879539,
						1.3550952
					],
					[
						103.8798678,
						1.3553704
					],
					[
						103.8799017,
						1.3553987
					],
					[
						103.8799371,
						1.3554294
					],
					[
						103.8801589,
						1.3556222
					],
					[
						103.8805768,
						1.3559592
					],
					[
						103.8806626,
						1.3560434
					],
					[
						103.8807187,
						1.3560985
					],
					[
						103.8807613,
						1.3561415
					],
					[
						103.8809101,
						1.3562918
					],
					[
						103.8813587,
						1.356667
					],
					[
						103.8824363,
						1.3576589
					],
					[
						103.8829455,
						1.3581513
					],
					[
						103.8830172,
						1.3582182
					],
					[
						103.883263,
						1.3584475
					],
					[
						103.8848272,
						1.3599412
					],
					[
						103.8854127,
						1.3604307
					],
					[
						103.8856644,
						1.3606412
					],
					[
						103.8861639,
						1.3610831
					],
					[
						103.8862246,
						1.3611367
					],
					[
						103.8862677,
						1.3611767
					],
					[
						103.8865825,
						1.3614684
					],
					[
						103.8867254,
						1.3616113
					],
					[
						103.8869948,
						1.3618998
					],
					[
						103.887261,
						1.3621446
					],
					[
						103.887633,
						1.362502
					],
					[
						103.8879107,
						1.3627688
					],
					[
						103.8879588,
						1.362815
					],
					[
						103.8880014,
						1.3628568
					],
					[
						103.8881653,
						1.3630174
					],
					[
						103.8882069,
						1.3630582
					],
					[
						103.8887033,
						1.3635447
					],
					[
						103.8887379,
						1.3635787
					],
					[
						103.8887687,
						1.3636088
					],
					[
						103.8892257,
						1.3640569
					],
					[
						103.8896204,
						1.3643856
					],
					[
						103.8896874,
						1.3644408
					],
					[
						103.8906461,
						1.3653831
					],
					[
						103.8908486,
						1.3655672
					],
					[
						103.8909336,
						1.3656444
					],
					[
						103.8912732,
						1.3659601
					],
					[
						103.8914207,
						1.3660967
					],
					[
						103.8918788,
						1.366521
					],
					[
						103.8920028,
						1.3666423
					],
					[
						103.8922095,
						1.3668459
					],
					[
						103.8922678,
						1.3669033
					],
					[
						103.8923375,
						1.3669752
					],
					[
						103.8924888,
						1.3671311
					],
					[
						103.8928399,
						1.3674817
					],
					[
						103.8931632,
						1.3678045
					],
					[
						103.8939895,
						1.3686294
					],
					[
						103.894317,
						1.3689472
					],
					[
						103.8945673,
						1.3691861
					],
					[
						103.8946557,
						1.3692705
					],
					[
						103.8949783,
						1.3689031
					],
					[
						103.895481,
						1.3683676
					],
					[
						103.8956143,
						1.3682256
					],
					[
						103.8957968,
						1.3680113
					],
					[
						103.8959093,
						1.3678791
					],
					[
						103.8960814,
						1.3676573
					],
					[
						103.8965359,
						1.3670721
					],
					[
						103.8969689,
						1.3666083
					],
					[
						103.8971455,
						1.3664191
					],
					[
						103.89772,
						1.3658022
					],
					[
						103.897906,
						1.3656026
					],
					[
						103.8987805,
						1.366429
					],
					[
						103.8989457,
						1.3666455
					],
					[
						103.8991632,
						1.3671745
					],
					[
						103.8994164,
						1.3677903
					],
					[
						103.899736,
						1.3685688
					],
					[
						103.9001202,
						1.3695009
					],
					[
						103.9001637,
						1.3696067
					],
					[
						103.9004266,
						1.3702468
					],
					[
						103.9007983,
						1.3711518
					],
					[
						103.9009117,
						1.3714277
					],
					[
						103.9009381,
						1.3715969
					],
					[
						103.9009284,
						1.3717688
					],
					[
						103.9008911,
						1.3719098
					],
					[
						103.9008849,
						1.3719338
					],
					[
						103.9007994,
						1.3720819
					],
					[
						103.9005427,
						1.3723646
					],
					[
						103.9001507,
						1.3727965
					],
					[
						103.9000976,
						1.3728581
					],
					[
						103.8996866,
						1.3733352
					],
					[
						103.8995008,
						1.3735095
					],
					[
						103.8993522,
						1.3736112
					],
					[
						103.8994128,
						1.3736691
					],
					[
						103.8996774,
						1.3739217
					],
					[
						103.9002866,
						1.3745311
					],
					[
						103.9007534,
						1.374998
					],
					[
						103.9009251,
						1.3751621
					],
					[
						103.9012228,
						1.3754468
					],
					[
						103.9024994,
						1.3766674
					],
					[
						103.9026825,
						1.3768918
					],
					[
						103.90274,
						1.3769712
					],
					[
						103.9028183,
						1.3770793
					],
					[
						103.9028844,
						1.3771845
					],
					[
						103.902963,
						1.3773096
					],
					[
						103.9030155,
						1.3774061
					],
					[
						103.9030704,
						1.377507
					],
					[
						103.9031508,
						1.3776718
					],
					[
						103.903201,
						1.3777749
					],
					[
						103.9033037,
						1.378024
					],
					[
						103.9033689,
						1.3782489
					],
					[
						103.9033956,
						1.3783509
					]
				]
			},
			"properties": {
				"styleUrl": "#busroute",
				"styleHash": "-2257368b",
				"stroke-opacity": 0.6039215686274509,
				"stroke": "#DA0FB1",
				"stroke-width": 4
			}
		}
	]
}