{
	"type": "FeatureCollection",
	"features": [
		{
			"type": "Feature",
			"geometry": {
				"type": "LineString",
				"coordinates": [
					[
						103.9149047,
						1.3968349
					],
					[
						103.9147318,
						1.3969596
					],
					[
						103.9146587,
						1.3970123
					],
					[
						103.9145795,
						1.3970622
					],
					[
						103.9132332,
						1.3979113
					],
					[
						103.9131578,
						1.3979582
					],
					[
						103.9131496,
						1.397964
					],
					[
						103.9130245,
						1.3980524
					],
					[
						103.9129244,
						1.3981232
					],
					[
						103.9128108,
						1.3982024
					],
					[
						103.9126182,
						1.3983366
					],
					[
						103.9113941,
						1.3992207
					],
					[
						103.9111829,
						1.3992677
					],
					[
						103.9110444,
						1.3993234
					],
					[
						103.9110331,
						1.399328
					],
					[
						103.9108655,
						1.3994414
					],
					[
						103.9106822,
						1.3995785
					],
					[
						103.9106375,
						1.3996322
					],
					[
						103.9105823,
						1.3996726
					],
					[
						103.9099013,
						1.4001715
					],
					[
						103.9095685,
						1.4003845
					],
					[
						103.9094532,
						1.4004728
					],
					[
						103.9090361,
						1.4009081
					],
					[
						103.9091305,
						1.401048
					],
					[
						103.9093274,
						1.4013401
					],
					[
						103.9095059,
						1.4015892
					],
					[
						103.9096755,
						1.401826
					],
					[
						103.9098208,
						1.4020288
					],
					[
						103.9100087,
						1.4022911
					],
					[
						103.9102527,
						1.4026316
					],
					[
						103.910304,
						1.4027032
					],
					[
						103.9106865,
						1.4032372
					],
					[
						103.9108793,
						1.4035062
					],
					[
						103.9109294,
						1.4035762
					],
					[
						103.9114495,
						1.4043348
					],
					[
						103.9114931,
						1.4043984
					],
					[
						103.9123054,
						1.4054773
					],
					[
						103.9123309,
						1.4055111
					],
					[
						103.912575,
						1.4058353
					],
					[
						103.9128159,
						1.4061553
					],
					[
						103.9128409,
						1.4061885
					],
					[
						103.9132679,
						1.4067456
					],
					[
						103.9140998,
						1.4061121
					],
					[
						103.914638,
						1.4057024
					],
					[
						103.915298,
						1.4052162
					],
					[
						103.9161349,
						1.4045758
					],
					[
						103.917042,
						1.4038818
					],
					[
						103.9186999,
						1.4026704
					],
					[
						103.9188724,
						1.4025443
					],
					[
						103.9205154,
						1.4012663
					],
					[
						103.9208022,
						1.4010432
					],
					[
						103.9205334,
						1.4006667
					],
					[
						103.9202482,
						1.4002674
					],
					[
						103.9200648,
						1.4000106
					],
					[
						103.9191498,
						1.3986679
					],
					[
						103.9186969,
						1.3980032
					],
					[
						103.917853,
						1.3968882
					],
					[
						103.9176602,
						1.3966334
					],
					[
						103.9176134,
						1.3965742
					],
					[
						103.9171534,
						1.3959862
					],
					[
						103.9170594,
						1.3958431
					],
					[
						103.9170545,
						1.3958357
					],
					[
						103.9169475,
						1.3956729
					],
					[
						103.9169334,
						1.3956514
					],
					[
						103.9169218,
						1.3956338
					],
					[
						103.9169126,
						1.3956197
					],
					[
						103.9168793,
						1.395569
					],
					[
						103.9168558,
						1.3955344
					],
					[
						103.9168069,
						1.3954623
					],
					[
						103.9167827,
						1.3954266
					],
					[
						103.9166742,
						1.3952665
					],
					[
						103.9166696,
						1.3952598
					],
					[
						103.9165842,
						1.3951339
					],
					[
						103.9163962,
						1.394877
					],
					[
						103.9162367,
						1.3946417
					],
					[
						103.9162013,
						1.3945934
					],
					[
						103.9159108,
						1.3941965
					],
					[
						103.9154554,
						1.3935745
					],
					[
						103.9154228,
						1.3935297
					],
					[
						103.9150751,
						1.3930508
					],
					[
						103.9147827,
						1.3926556
					],
					[
						103.9146127,
						1.3923977
					],
					[
						103.9145473,
						1.3922985
					],
					[
						103.9144764,
						1.3921934
					],
					[
						103.9143268,
						1.3919714
					],
					[
						103.9140187,
						1.3915534
					],
					[
						103.9135854,
						1.3909654
					],
					[
						103.9134191,
						1.3907137
					],
					[
						103.913076,
						1.3902345
					],
					[
						103.9126311,
						1.3897248
					],
					[
						103.9120792,
						1.3892511
					],
					[
						103.9116734,
						1.3889243
					],
					[
						103.9113001,
						1.3886303
					],
					[
						103.910811,
						1.3883592
					],
					[
						103.9104202,
						1.3880829
					],
					[
						103.9098715,
						1.3877563
					],
					[
						103.9092174,
						1.3874029
					],
					[
						103.9091897,
						1.3873879
					],
					[
						103.908621,
						1.38709
					],
					[
						103.9078797,
						1.3867009
					],
					[
						103.907486,
						1.3864939
					],
					[
						103.9070599,
						1.3862828
					],
					[
						103.9066424,
						1.3860378
					],
					[
						103.9061368,
						1.3857638
					],
					[
						103.9056312,
						1.3855159
					],
					[
						103.9051644,
						1.3852158
					],
					[
						103.9047126,
						1.3848462
					],
					[
						103.9043135,
						1.3844025
					],
					[
						103.9041314,
						1.3841528
					],
					[
						103.9037988,
						1.3836002
					],
					[
						103.903617,
						1.383151
					],
					[
						103.9035006,
						1.3826905
					],
					[
						103.9033959,
						1.3821256
					],
					[
						103.9033801,
						1.3818439
					],
					[
						103.9033747,
						1.3817482
					],
					[
						103.9033739,
						1.3813842
					],
					[
						103.9033739,
						1.3813502
					],
					[
						103.9034672,
						1.3807624
					],
					[
						103.9035865,
						1.3805975
					],
					[
						103.9037199,
						1.3804782
					],
					[
						103.9038457,
						1.3803884
					],
					[
						103.9044351,
						1.380437
					],
					[
						103.9049693,
						1.3803632
					],
					[
						103.9056083,
						1.3801417
					],
					[
						103.9064777,
						1.3796989
					],
					[
						103.9072738,
						1.3792034
					],
					[
						103.907829,
						1.3788238
					],
					[
						103.9083841,
						1.3782967
					],
					[
						103.908845,
						1.3777274
					],
					[
						103.9093089,
						1.3770722
					],
					[
						103.9097037,
						1.3765109
					],
					[
						103.9097829,
						1.376346
					],
					[
						103.9098985,
						1.3760745
					],
					[
						103.9099692,
						1.3757964
					],
					[
						103.909982,
						1.375486
					],
					[
						103.9099114,
						1.3751433
					],
					[
						103.9097571,
						1.3747554
					],
					[
						103.9096191,
						1.3744625
					],
					[
						103.9093146,
						1.3735262
					],
					[
						103.9088778,
						1.3726125
					],
					[
						103.9085688,
						1.3716528
					],
					[
						103.9068278,
						1.3662454
					],
					[
						103.9063146,
						1.3650189
					],
					[
						103.9048271,
						1.3621129
					],
					[
						103.9037745,
						1.3601427
					],
					[
						103.9027215,
						1.3582117
					],
					[
						103.9009425,
						1.3550441
					],
					[
						103.8988978,
						1.3500925
					],
					[
						103.8988371,
						1.3498929
					],
					[
						103.8986526,
						1.3490064
					],
					[
						103.8985958,
						1.3482052
					],
					[
						103.8986242,
						1.3475046
					],
					[
						103.8987294,
						1.3467881
					],
					[
						103.8988774,
						1.3461953
					],
					[
						103.8990424,
						1.3456267
					],
					[
						103.8990962,
						1.3453335
					],
					[
						103.8992522,
						1.3443678
					],
					[
						103.8991946,
						1.3433024
					],
					[
						103.8990464,
						1.3424918
					],
					[
						103.8979117,
						1.3398342
					],
					[
						103.8978745,
						1.3397699
					],
					[
						103.8978368,
						1.3397059
					],
					[
						103.8977988,
						1.3396422
					],
					[
						103.8977605,
						1.3395786
					],
					[
						103.8977218,
						1.3395153
					],
					[
						103.8976827,
						1.3394522
					],
					[
						103.8976432,
						1.3393893
					],
					[
						103.8976034,
						1.3393267
					],
					[
						103.8975632,
						1.3392643
					],
					[
						103.8975226,
						1.3392021
					],
					[
						103.8974817,
						1.3391402
					],
					[
						103.8974404,
						1.3390785
					],
					[
						103.8973988,
						1.3390171
					],
					[
						103.8973568,
						1.3389559
					],
					[
						103.8973145,
						1.338895
					],
					[
						103.8972718,
						1.3388343
					],
					[
						103.8972287,
						1.3387738
					],
					[
						103.8971854,
						1.3387137
					],
					[
						103.8971416,
						1.3386537
					],
					[
						103.8970975,
						1.3385941
					],
					[
						103.8970531,
						1.3385346
					],
					[
						103.8970083,
						1.3384755
					],
					[
						103.8969632,
						1.3384166
					],
					[
						103.8969177,
						1.338358
					],
					[
						103.8968719,
						1.3382997
					],
					[
						103.8968258,
						1.3382416
					],
					[
						103.8967793,
						1.3381838
					],
					[
						103.8967325,
						1.3381262
					],
					[
						103.8966853,
						1.338069
					],
					[
						103.8966378,
						1.338012
					],
					[
						103.89659,
						1.3379553
					],
					[
						103.8965419,
						1.3378989
					],
					[
						103.8964934,
						1.3378428
					],
					[
						103.8964446,
						1.3377869
					],
					[
						103.8963955,
						1.3377314
					],
					[
						103.8963461,
						1.3376761
					],
					[
						103.8962963,
						1.3376211
					],
					[
						103.8962463,
						1.3375665
					],
					[
						103.8961959,
						1.3375121
					],
					[
						103.8961452,
						1.337458
					],
					[
						103.8960941,
						1.3374042
					],
					[
						103.8960428,
						1.3373507
					],
					[
						103.8959912,
						1.3372975
					],
					[
						103.8959392,
						1.3372447
					],
					[
						103.895887,
						1.3371921
					],
					[
						103.8958344,
						1.3371398
					],
					[
						103.8957815,
						1.3370879
					],
					[
						103.8957284,
						1.3370362
					],
					[
						103.8956749,
						1.3369849
					],
					[
						103.8956212,
						1.3369339
					],
					[
						103.8955671,
						1.3368832
					],
					[
						103.8955128,
						1.3368328
					],
					[
						103.8954581,
						1.3367828
					],
					[
						103.8954032,
						1.336733
					],
					[
						103.895348,
						1.3366836
					],
					[
						103.8952925,
						1.3366345
					],
					[
						103.8952367,
						1.3365858
					],
					[
						103.8951806,
						1.3365374
					],
					[
						103.8951243,
						1.3364893
					],
					[
						103.8950676,
						1.3364415
					],
					[
						103.8950107,
						1.3363941
					],
					[
						103.8949536,
						1.336347
					],
					[
						103.8948961,
						1.3363002
					],
					[
						103.8948384,
						1.3362538
					],
					[
						103.8947804,
						1.3362077
					],
					[
						103.8947221,
						1.336162
					],
					[
						103.8946636,
						1.3361166
					],
					[
						103.8946048,
						1.3360715
					],
					[
						103.8945458,
						1.3360268
					],
					[
						103.8944865,
						1.3359825
					],
					[
						103.8944269,
						1.3359385
					],
					[
						103.8943671,
						1.3358948
					],
					[
						103.894307,
						1.3358515
					],
					[
						103.8942467,
						1.3358086
					],
					[
						103.8941861,
						1.335766
					],
					[
						103.8937357,
						1.3354492
					],
					[
						103.8929579,
						1.3349999
					],
					[
						103.8918065,
						1.3344103
					],
					[
						103.8908722,
						1.3339847
					],
					[
						103.8899729,
						1.333575
					],
					[
						103.8886196,
						1.3327171
					],
					[
						103.887412,
						1.3320004
					],
					[
						103.8860156,
						1.3312288
					],
					[
						103.8856416,
						1.3309088
					],
					[
						103.8854172,
						1.3306202
					],
					[
						103.8852675,
						1.3303567
					],
					[
						103.8851678,
						1.3300744
					],
					[
						103.8851054,
						1.3297356
					],
					[
						103.8849679,
						1.3272408
					],
					[
						103.8847774,
						1.3256639
					],
					[
						103.8846995,
						1.3252195
					],
					[
						103.884561,
						1.3248101
					],
					[
						103.8843532,
						1.3244006
					],
					[
						103.8840675,
						1.3239388
					],
					[
						103.8837126,
						1.3235642
					],
					[
						103.8833491,
						1.3232593
					],
					[
						103.8828989,
						1.3229979
					],
					[
						103.8808993,
						1.3221529
					],
					[
						103.8804446,
						1.3220317
					],
					[
						103.8798355,
						1.3218153
					],
					[
						103.8770211,
						1.3203289
					],
					[
						103.876495,
						1.3200253
					],
					[
						103.876208,
						1.319829
					],
					[
						103.8757947,
						1.3194897
					],
					[
						103.8756187,
						1.3193037
					],
					[
						103.8754632,
						1.3190911
					],
					[
						103.8753168,
						1.3188063
					],
					[
						103.8751259,
						1.3184456
					],
					[
						103.8750395,
						1.3182297
					],
					[
						103.8749323,
						1.3178558
					],
					[
						103.8748486,
						1.3174109
					],
					[
						103.8747779,
						1.3169317
					],
					[
						103.8747518,
						1.316621
					],
					[
						103.8747546,
						1.3158685
					],
					[
						103.8748076,
						1.3153879
					],
					[
						103.8750238,
						1.3134248
					],
					[
						103.8751232,
						1.3126482
					],
					[
						103.8753376,
						1.3117109
					],
					[
						103.8753769,
						1.3113028
					],
					[
						103.8755757,
						1.3104419
					],
					[
						103.8759549,
						1.3091676
					],
					[
						103.8761373,
						1.3087061
					],
					[
						103.876239,
						1.3084098
					],
					[
						103.8769508,
						1.3065404
					],
					[
						103.8773083,
						1.3056353
					],
					[
						103.8774593,
						1.3052528
					],
					[
						103.8781758,
						1.3033388
					],
					[
						103.8783157,
						1.3028151
					],
					[
						103.8783503,
						1.3024526
					],
					[
						103.8783572,
						1.302118
					],
					[
						103.8783503,
						1.3017694
					],
					[
						103.8782949,
						1.3013163
					],
					[
						103.8782048,
						1.3008771
					],
					[
						103.8778717,
						1.2999036
					],
					[
						103.8773482,
						1.2985787
					],
					[
						103.8763212,
						1.2956595
					],
					[
						103.87615,
						1.2951522
					],
					[
						103.8757212,
						1.2939239
					],
					[
						103.8755022,
						1.2932352
					],
					[
						103.8753927,
						1.2927807
					],
					[
						103.8753517,
						1.2923399
					],
					[
						103.875338,
						1.2918716
					],
					[
						103.875379,
						1.2913895
					],
					[
						103.8754474,
						1.2909075
					],
					[
						103.8755569,
						1.2904943
					],
					[
						103.8757348,
						1.2900811
					],
					[
						103.8759401,
						1.2896816
					],
					[
						103.8762411,
						1.2892409
					],
					[
						103.876679,
						1.2887175
					],
					[
						103.8772815,
						1.2880695
					],
					[
						103.8779351,
						1.2872393
					],
					[
						103.8781015,
						1.2869402
					],
					[
						103.8782204,
						1.286665
					],
					[
						103.8783392,
						1.2863181
					],
					[
						103.8784224,
						1.285995
					],
					[
						103.8784581,
						1.285684
					],
					[
						103.8784462,
						1.2852772
					],
					[
						103.8784224,
						1.2849183
					],
					[
						103.878363,
						1.2845474
					],
					[
						103.8782203,
						1.2841167
					],
					[
						103.8780539,
						1.2837697
					],
					[
						103.8777329,
						1.2832792
					],
					[
						103.8774239,
						1.2829203
					],
					[
						103.8769959,
						1.2825135
					],
					[
						103.876568,
						1.2821427
					],
					[
						103.870898,
						1.2779754
					],
					[
						103.8690551,
						1.2766144
					],
					[
						103.8653463,
						1.2740761
					],
					[
						103.8605021,
						1.2706937
					],
					[
						103.860097,
						1.2704813
					],
					[
						103.8596463,
						1.2703032
					],
					[
						103.8591898,
						1.2702056
					],
					[
						103.8586877,
						1.2701712
					],
					[
						103.858197,
						1.2701826
					],
					[
						103.8576835,
						1.2702631
					],
					[
						103.857267,
						1.2703779
					],
					[
						103.8568619,
						1.2705502
					],
					[
						103.8563427,
						1.2708431
					],
					[
						103.8535314,
						1.2727109
					],
					[
						103.8529794,
						1.2730809
					],
					[
						103.852508,
						1.2733005
					],
					[
						103.852121,
						1.2734279
					],
					[
						103.8518325,
						1.2735058
					],
					[
						103.8515651,
						1.2735413
					],
					[
						103.8513445,
						1.2735479
					],
					[
						103.8509223,
						1.2735307
					],
					[
						103.8504031,
						1.2734274
					],
					[
						103.8500094,
						1.2732895
					],
					[
						103.8494958,
						1.2730426
					],
					[
						103.8487256,
						1.2725028
					],
					[
						103.8483319,
						1.2723362
					],
					[
						103.848058,
						1.2722616
					],
					[
						103.847767,
						1.2722271
					],
					[
						103.8474988,
						1.2722099
					],
					[
						103.8472364,
						1.2722099
					],
					[
						103.846934,
						1.2722559
					],
					[
						103.8464148,
						1.2723707
					],
					[
						103.8457015,
						1.2724569
					],
					[
						103.8454391,
						1.2725143
					],
					[
						103.8449778,
						1.2725641
					],
					[
						103.8442246,
						1.2725515
					],
					[
						103.8438194,
						1.2725448
					],
					[
						103.8439572,
						1.2727463
					],
					[
						103.8445593,
						1.2734593
					],
					[
						103.8446332,
						1.2735468
					],
					[
						103.8449502,
						1.2739329
					],
					[
						103.8452212,
						1.2742629
					],
					[
						103.8455874,
						1.2746957
					],
					[
						103.8457299,
						1.2748637
					],
					[
						103.8463955,
						1.2756419
					],
					[
						103.8465294,
						1.2757984
					],
					[
						103.8469048,
						1.2763738
					],
					[
						103.8469654,
						1.2767577
					],
					[
						103.8469307,
						1.2770293
					],
					[
						103.8469729,
						1.2774239
					],
					[
						103.8470439,
						1.2775864
					],
					[
						103.8472335,
						1.2778955
					],
					[
						103.8477783,
						1.278792
					],
					[
						103.8480534,
						1.2792448
					],
					[
						103.84812,
						1.2793528
					],
					[
						103.8482084,
						1.2794296
					],
					[
						103.849074,
						1.2808416
					],
					[
						103.8493696,
						1.281346
					],
					[
						103.8495131,
						1.2816569
					],
					[
						103.8498182,
						1.282184
					],
					[
						103.850001,
						1.2824402
					],
					[
						103.8500499,
						1.2824873
					],
					[
						103.8500673,
						1.2825041
					],
					[
						103.8502309,
						1.282619
					],
					[
						103.8504367,
						1.2826556
					],
					[
						103.8509411,
						1.2826393
					],
					[
						103.8512709,
						1.2825937
					],
					[
						103.8514059,
						1.2825361
					],
					[
						103.8519642,
						1.2821678
					],
					[
						103.8526647,
						1.2817574
					],
					[
						103.853003,
						1.2815317
					],
					[
						103.8534127,
						1.2812583
					],
					[
						103.8541763,
						1.2807734
					],
					[
						103.8549292,
						1.2802955
					],
					[
						103.8556143,
						1.2798605
					],
					[
						103.8567561,
						1.2791256
					],
					[
						103.8571406,
						1.2788781
					],
					[
						103.8573845,
						1.2792562
					],
					[
						103.8575787,
						1.2795573
					],
					[
						103.8584827,
						1.280959
					],
					[
						103.8585873,
						1.281124
					],
					[
						103.8590695,
						1.2818842
					],
					[
						103.8594189,
						1.2824352
					],
					[
						103.8599641,
						1.2832783
					],
					[
						103.8603097,
						1.283825
					],
					[
						103.8605402,
						1.2842944
					],
					[
						103.8606444,
						1.284565
					],
					[
						103.8607048,
						1.2848135
					],
					[
						103.8607366,
						1.2849804
					],
					[
						103.8607816,
						1.2852166
					],
					[
						103.860831,
						1.2864038
					],
					[
						103.8608914,
						1.2885464
					],
					[
						103.8608952,
						1.2891515
					],
					[
						103.8608976,
						1.2895302
					],
					[
						103.8608948,
						1.2896686
					],
					[
						103.8608736,
						1.2907025
					],
					[
						103.8608727,
						1.2907473
					],
					[
						103.8608802,
						1.2912573
					],
					[
						103.8608865,
						1.2913218
					],
					[
						103.8608795,
						1.2917387
					],
					[
						103.860877,
						1.2918907
					],
					[
						103.8608459,
						1.292686
					],
					[
						103.8608234,
						1.2932637
					],
					[
						103.8608039,
						1.2933582
					],
					[
						103.8608034,
						1.2933606
					],
					[
						103.8607749,
						1.2934996
					],
					[
						103.8606699,
						1.293654
					],
					[
						103.8605781,
						1.2937202
					],
					[
						103.8605163,
						1.2937796
					],
					[
						103.8604855,
						1.2938093
					],
					[
						103.8602434,
						1.2939702
					],
					[
						103.8592586,
						1.2945662
					],
					[
						103.8591519,
						1.2944307
					],
					[
						103.8590192,
						1.2943586
					],
					[
						103.8588694,
						1.2943411
					],
					[
						103.8587498,
						1.2943665
					],
					[
						103.8586454,
						1.294419
					],
					[
						103.8585656,
						1.2945208
					],
					[
						103.8585356,
						1.2945946
					],
					[
						103.8585088,
						1.2946604
					],
					[
						103.8585076,
						1.2948113
					],
					[
						103.8585277,
						1.2948884
					],
					[
						103.8585911,
						1.2950032
					],
					[
						103.8586771,
						1.2950958
					],
					[
						103.8588081,
						1.2951268
					],
					[
						103.8589209,
						1.2951413
					],
					[
						103.8590372,
						1.2950996
					],
					[
						103.8593735,
						1.2956739
					],
					[
						103.8594039,
						1.2957282
					]
				]
			},
			"properties": {
				"styleUrl": "#busroute",
				"styleHash": "-2257368b",
				"stroke-opacity": 0.6039215686274509,
				"stroke": "#DA0FB1",
				"stroke-width": 4
			}
		}
	]
}