{
	"type": "FeatureCollection",
	"features": [
		{
			"type": "Feature",
			"geometry": {
				"type": "LineString",
				"coordinates": [
					[
						103.7483809,
						1.3756632
					],
					[
						103.7465621,
						1.3751508
					],
					[
						103.7462797,
						1.3760839
					],
					[
						103.7462487,
						1.3761876
					],
					[
						103.7460885,
						1.376723
					],
					[
						103.7460494,
						1.376854
					],
					[
						103.7452724,
						1.3766299
					],
					[
						103.7448686,
						1.3765135
					],
					[
						103.7446454,
						1.3764491
					],
					[
						103.7446138,
						1.3764458
					],
					[
						103.7443449,
						1.3764174
					],
					[
						103.7424726,
						1.3762196
					],
					[
						103.7423548,
						1.3762221
					],
					[
						103.7421545,
						1.3755228
					],
					[
						103.7419111,
						1.3746736
					],
					[
						103.7424466,
						1.3745165
					],
					[
						103.7425849,
						1.3744759
					],
					[
						103.742854,
						1.3743969
					],
					[
						103.7431662,
						1.3743053
					],
					[
						103.7432371,
						1.3743106
					],
					[
						103.7432949,
						1.3742475
					],
					[
						103.7432806,
						1.3741787
					],
					[
						103.7432042,
						1.3741331
					],
					[
						103.7431347,
						1.3741743
					],
					[
						103.7431241,
						1.3742481
					],
					[
						103.7431662,
						1.3743053
					],
					[
						103.742889,
						1.3743866
					],
					[
						103.7425849,
						1.3744759
					],
					[
						103.7424466,
						1.3745165
					],
					[
						103.7419111,
						1.3746736
					],
					[
						103.7413521,
						1.372723
					],
					[
						103.7417388,
						1.3726085
					],
					[
						103.7428101,
						1.3723841
					],
					[
						103.7439195,
						1.3721517
					],
					[
						103.744421,
						1.3720429
					],
					[
						103.7450684,
						1.3719025
					],
					[
						103.7453917,
						1.3717917
					],
					[
						103.7457013,
						1.3715771
					],
					[
						103.7463142,
						1.3710404
					],
					[
						103.7481413,
						1.3694186
					],
					[
						103.7485188,
						1.3690845
					],
					[
						103.7483854,
						1.3689583
					],
					[
						103.7482046,
						1.3687874
					],
					[
						103.7465044,
						1.3673013
					],
					[
						103.7463354,
						1.3671536
					],
					[
						103.7457372,
						1.3666307
					],
					[
						103.7454288,
						1.3663723
					],
					[
						103.7453073,
						1.366268
					],
					[
						103.7450782,
						1.3660714
					],
					[
						103.7446422,
						1.3656942
					],
					[
						103.7443599,
						1.3654036
					],
					[
						103.7441574,
						1.365195
					],
					[
						103.744124,
						1.3651606
					],
					[
						103.7441143,
						1.3651507
					],
					[
						103.7438309,
						1.364801
					],
					[
						103.7425347,
						1.3632017
					],
					[
						103.7421778,
						1.3627601
					],
					[
						103.7420176,
						1.3625565
					],
					[
						103.7418479,
						1.3623408
					],
					[
						103.7416442,
						1.3620881
					],
					[
						103.7401948,
						1.3602895
					],
					[
						103.7408747,
						1.3597385
					],
					[
						103.7410894,
						1.3595645
					],
					[
						103.7421729,
						1.3586864
					],
					[
						103.7416873,
						1.358075
					],
					[
						103.7413599,
						1.3576628
					],
					[
						103.741237,
						1.3575081
					],
					[
						103.7407703,
						1.3569204
					],
					[
						103.740488,
						1.3565655
					],
					[
						103.7400589,
						1.3560258
					],
					[
						103.7396467,
						1.3554585
					],
					[
						103.7395189,
						1.3552825
					],
					[
						103.7393327,
						1.3550226
					],
					[
						103.7393314,
						1.3550208
					],
					[
						103.7389777,
						1.3545245
					],
					[
						103.7388607,
						1.3543317
					],
					[
						103.7387894,
						1.354102
					],
					[
						103.738768,
						1.353822
					],
					[
						103.7387823,
						1.3536067
					],
					[
						103.7391674,
						1.3527525
					],
					[
						103.7394171,
						1.3522643
					],
					[
						103.7395437,
						1.3518831
					],
					[
						103.7395858,
						1.3516585
					],
					[
						103.7395715,
						1.3509701
					],
					[
						103.7395675,
						1.3507792
					],
					[
						103.7395602,
						1.3497924
					],
					[
						103.7387004,
						1.3497737
					],
					[
						103.7385286,
						1.3497037
					],
					[
						103.7384201,
						1.3496145
					],
					[
						103.7383816,
						1.3495553
					],
					[
						103.7382767,
						1.3492538
					],
					[
						103.738327,
						1.3487843
					],
					[
						103.7383184,
						1.3483999
					],
					[
						103.7382478,
						1.347967
					],
					[
						103.7380525,
						1.3474195
					],
					[
						103.7379237,
						1.3471787
					],
					[
						103.7377792,
						1.3469083
					],
					[
						103.737303,
						1.3459605
					],
					[
						103.7368147,
						1.3450413
					],
					[
						103.7364999,
						1.3443741
					],
					[
						103.7363344,
						1.3439337
					],
					[
						103.7361823,
						1.3435018
					],
					[
						103.7361054,
						1.3432833
					],
					[
						103.7360333,
						1.3430944
					],
					[
						103.7358563,
						1.3426301
					],
					[
						103.7356448,
						1.3421533
					],
					[
						103.7353627,
						1.3417041
					],
					[
						103.7350025,
						1.3412002
					],
					[
						103.7348946,
						1.3410493
					],
					[
						103.7347976,
						1.3409125
					],
					[
						103.7344901,
						1.3404787
					],
					[
						103.7342911,
						1.3400712
					],
					[
						103.734125,
						1.3395595
					],
					[
						103.7340424,
						1.3390077
					],
					[
						103.7340558,
						1.3384627
					],
					[
						103.7341219,
						1.3380169
					],
					[
						103.7342886,
						1.3374897
					],
					[
						103.7343909,
						1.3372801
					],
					[
						103.7344216,
						1.3372172
					],
					[
						103.7344848,
						1.3370877
					],
					[
						103.7345166,
						1.337032
					],
					[
						103.7347302,
						1.3366578
					],
					[
						103.7351187,
						1.3360598
					],
					[
						103.7355693,
						1.3354759
					],
					[
						103.735688,
						1.3353437
					],
					[
						103.7364015,
						1.3345496
					],
					[
						103.736472,
						1.3344788
					],
					[
						103.7368435,
						1.3341055
					],
					[
						103.7373087,
						1.3336993
					],
					[
						103.7376628,
						1.3333902
					],
					[
						103.7377676,
						1.3332988
					],
					[
						103.7378567,
						1.3332226
					],
					[
						103.7380819,
						1.3330303
					],
					[
						103.7382473,
						1.3329175
					],
					[
						103.7386186,
						1.3326639
					],
					[
						103.7398644,
						1.331821
					],
					[
						103.7402654,
						1.3315392
					],
					[
						103.7403953,
						1.3314501
					],
					[
						103.7407531,
						1.3312048
					],
					[
						103.7409841,
						1.3310616
					],
					[
						103.7412188,
						1.3309161
					],
					[
						103.7434471,
						1.3293135
					],
					[
						103.7438153,
						1.3290075
					],
					[
						103.7444092,
						1.3284777
					],
					[
						103.7444716,
						1.328422
					],
					[
						103.7445348,
						1.3283532
					],
					[
						103.7446817,
						1.328193
					],
					[
						103.7448961,
						1.3279421
					],
					[
						103.7452447,
						1.3274181
					],
					[
						103.7455596,
						1.3266888
					],
					[
						103.7456514,
						1.326244
					],
					[
						103.745681,
						1.3258443
					],
					[
						103.7457302,
						1.3251804
					],
					[
						103.7457172,
						1.3245253
					],
					[
						103.7459674,
						1.3239156
					],
					[
						103.746091,
						1.3237356
					],
					[
						103.7464488,
						1.3235804
					],
					[
						103.7493474,
						1.3227167
					],
					[
						103.7514593,
						1.3221317
					],
					[
						103.7542794,
						1.3211849
					],
					[
						103.7548606,
						1.3208213
					],
					[
						103.7552575,
						1.3204148
					],
					[
						103.7590439,
						1.3159892
					],
					[
						103.7593745,
						1.3155851
					],
					[
						103.7603664,
						1.3145311
					],
					[
						103.7614324,
						1.3134902
					],
					[
						103.7635893,
						1.3113188
					],
					[
						103.7651036,
						1.3097284
					],
					[
						103.7651894,
						1.3096348
					],
					[
						103.7666202,
						1.3076312
					],
					[
						103.7669828,
						1.3072093
					],
					[
						103.7672054,
						1.3069681
					],
					[
						103.7674817,
						1.3067139
					],
					[
						103.7687407,
						1.3057103
					],
					[
						103.769592,
						1.305093
					],
					[
						103.7703903,
						1.3046301
					],
					[
						103.7710229,
						1.3043637
					],
					[
						103.7737846,
						1.3030194
					],
					[
						103.7753658,
						1.3020949
					],
					[
						103.7784677,
						1.3002712
					],
					[
						103.7792961,
						1.299741
					],
					[
						103.7797049,
						1.2994877
					],
					[
						103.782747,
						1.2977647
					],
					[
						103.7834882,
						1.2972657
					],
					[
						103.7841326,
						1.2965942
					],
					[
						103.7866013,
						1.2937598
					],
					[
						103.7869516,
						1.2933874
					],
					[
						103.7876687,
						1.2927879
					],
					[
						103.7882653,
						1.2923528
					],
					[
						103.7904513,
						1.2909741
					],
					[
						103.7919914,
						1.2899883
					],
					[
						103.792811,
						1.2893663
					],
					[
						103.7940869,
						1.2883849
					],
					[
						103.7948463,
						1.2878805
					],
					[
						103.794882,
						1.2878611
					],
					[
						103.7959464,
						1.2872805
					],
					[
						103.7965426,
						1.2869091
					],
					[
						103.7979053,
						1.2860091
					],
					[
						103.7994066,
						1.2849543
					],
					[
						103.7998693,
						1.2846714
					],
					[
						103.8005123,
						1.2843737
					],
					[
						103.8008108,
						1.284276
					],
					[
						103.8012471,
						1.2841737
					],
					[
						103.8018338,
						1.2841224
					],
					[
						103.8107911,
						1.2835578
					],
					[
						103.8118543,
						1.283417
					],
					[
						103.8127179,
						1.2832156
					],
					[
						103.8129814,
						1.2831363
					],
					[
						103.8137272,
						1.2828539
					],
					[
						103.8144182,
						1.2825402
					],
					[
						103.8150618,
						1.2821839
					],
					[
						103.8186702,
						1.2798984
					],
					[
						103.819346,
						1.2795016
					],
					[
						103.8200782,
						1.279202
					],
					[
						103.8209116,
						1.2790348
					],
					[
						103.8215405,
						1.2789576
					],
					[
						103.8227887,
						1.2789377
					],
					[
						103.8231924,
						1.2788812
					],
					[
						103.8238251,
						1.2787311
					],
					[
						103.8240631,
						1.2787043
					],
					[
						103.8242138,
						1.2786621
					],
					[
						103.8247761,
						1.278449
					],
					[
						103.8259372,
						1.2778672
					],
					[
						103.828386,
						1.2758082
					],
					[
						103.8295229,
						1.2748353
					],
					[
						103.8301906,
						1.2743348
					],
					[
						103.8316208,
						1.2731403
					],
					[
						103.8319023,
						1.2729527
					],
					[
						103.8321762,
						1.2728263
					],
					[
						103.8324349,
						1.2727574
					],
					[
						103.8333706,
						1.2726388
					],
					[
						103.834177,
						1.2725775
					],
					[
						103.8349508,
						1.272544
					],
					[
						103.835487,
						1.2725204
					],
					[
						103.8372837,
						1.2725819
					],
					[
						103.8388586,
						1.272626
					],
					[
						103.8394227,
						1.2726392
					],
					[
						103.8395108,
						1.2726413
					],
					[
						103.8399261,
						1.2726548
					],
					[
						103.8419094,
						1.2726938
					],
					[
						103.8423069,
						1.2727018
					],
					[
						103.8430274,
						1.2727274
					],
					[
						103.8434932,
						1.2727369
					],
					[
						103.8439572,
						1.2727463
					],
					[
						103.8445593,
						1.2734593
					],
					[
						103.8446332,
						1.2735468
					],
					[
						103.8452212,
						1.2742629
					],
					[
						103.8454836,
						1.274573
					],
					[
						103.8455874,
						1.2746957
					],
					[
						103.8457299,
						1.2748637
					],
					[
						103.8465294,
						1.2757984
					],
					[
						103.8469048,
						1.2763738
					],
					[
						103.8472993,
						1.2766425
					],
					[
						103.8476729,
						1.2769761
					],
					[
						103.8481644,
						1.2777871
					],
					[
						103.8481657,
						1.2777893
					],
					[
						103.8487887,
						1.2788174
					],
					[
						103.8494392,
						1.279882
					],
					[
						103.8494403,
						1.2798839
					],
					[
						103.8496231,
						1.280183
					],
					[
						103.849783,
						1.28042
					],
					[
						103.8503142,
						1.2812099
					],
					[
						103.8505937,
						1.2815041
					],
					[
						103.8508205,
						1.2818678
					],
					[
						103.8509218,
						1.282031
					],
					[
						103.8512709,
						1.2825937
					],
					[
						103.8514059,
						1.2825361
					],
					[
						103.8519642,
						1.2821678
					],
					[
						103.8526647,
						1.2817574
					],
					[
						103.853003,
						1.2815317
					],
					[
						103.8534127,
						1.2812583
					],
					[
						103.8541763,
						1.2807734
					],
					[
						103.8549292,
						1.2802955
					]
				]
			},
			"properties": {
				"styleUrl": "#busroute",
				"styleHash": "-2257368b",
				"stroke-opacity": 0.6039215686274509,
				"stroke": "#DA0FB1",
				"stroke-width": 4
			}
		}
	]
}