{
	"type": "FeatureCollection",
	"features": [
		{
			"type": "Feature",
			"geometry": {
				"type": "LineString",
				"coordinates": [
					[
						103.8556661,
						1.2776079
					],
					[
						103.8546095,
						1.2783225
					],
					[
						103.8531892,
						1.279233
					],
					[
						103.852817,
						1.2794504
					],
					[
						103.8524324,
						1.279675
					],
					[
						103.8523505,
						1.2797226
					],
					[
						103.8520533,
						1.2798961
					],
					[
						103.8517442,
						1.2801474
					],
					[
						103.8514792,
						1.2803771
					],
					[
						103.8510823,
						1.2807708
					],
					[
						103.8505585,
						1.2799636
					],
					[
						103.8504823,
						1.2798365
					],
					[
						103.8495792,
						1.2783507
					],
					[
						103.8494517,
						1.2781411
					],
					[
						103.8486824,
						1.2768758
					],
					[
						103.8485952,
						1.2767324
					],
					[
						103.8481432,
						1.2761015
					],
					[
						103.8478281,
						1.2756014
					],
					[
						103.8478258,
						1.2755978
					],
					[
						103.8474444,
						1.2749925
					],
					[
						103.8473576,
						1.2748575
					],
					[
						103.8471589,
						1.2746228
					],
					[
						103.8467788,
						1.2741736
					],
					[
						103.8466839,
						1.2740615
					],
					[
						103.8464889,
						1.2738058
					],
					[
						103.8463296,
						1.273614
					],
					[
						103.8461436,
						1.2734012
					],
					[
						103.8459297,
						1.2731424
					],
					[
						103.8456456,
						1.2727986
					],
					[
						103.8454391,
						1.2725143
					],
					[
						103.8449778,
						1.2725641
					],
					[
						103.8448668,
						1.2725623
					],
					[
						103.8442246,
						1.2725515
					],
					[
						103.8438194,
						1.2725448
					],
					[
						103.8432095,
						1.2725232
					],
					[
						103.8418056,
						1.2724853
					],
					[
						103.839938,
						1.2724225
					],
					[
						103.8393727,
						1.2724026
					],
					[
						103.8374283,
						1.2723342
					],
					[
						103.835525,
						1.272292
					],
					[
						103.8349563,
						1.2722173
					],
					[
						103.8335342,
						1.2721449
					],
					[
						103.832568,
						1.2721181
					],
					[
						103.8323322,
						1.272164
					],
					[
						103.8320887,
						1.2722559
					],
					[
						103.8319632,
						1.2723095
					],
					[
						103.8316817,
						1.2725239
					],
					[
						103.8301298,
						1.2739022
					],
					[
						103.8299838,
						1.2740637
					],
					[
						103.8294241,
						1.2747028
					],
					[
						103.8286292,
						1.2753797
					],
					[
						103.8276901,
						1.2761105
					],
					[
						103.8271992,
						1.2764579
					],
					[
						103.8264707,
						1.2769211
					],
					[
						103.8250833,
						1.2777853
					],
					[
						103.8240992,
						1.2782967
					],
					[
						103.8232125,
						1.2786333
					],
					[
						103.8224685,
						1.2787491
					],
					[
						103.8214791,
						1.27878
					],
					[
						103.8208809,
						1.278865
					],
					[
						103.8199913,
						1.2790348
					],
					[
						103.8194989,
						1.2792425
					],
					[
						103.818984,
						1.2795178
					],
					[
						103.8182196,
						1.2799956
					],
					[
						103.8144194,
						1.2823327
					],
					[
						103.8135891,
						1.2827535
					],
					[
						103.8128433,
						1.283036
					],
					[
						103.8125798,
						1.2831153
					],
					[
						103.8117162,
						1.2833166
					],
					[
						103.8106531,
						1.2834574
					],
					[
						103.8016962,
						1.2840203
					],
					[
						103.801109,
						1.2840734
					],
					[
						103.8006727,
						1.2841757
					],
					[
						103.8003742,
						1.2842734
					],
					[
						103.7997315,
						1.284571
					],
					[
						103.7992686,
						1.284854
					],
					[
						103.7976182,
						1.2859531
					],
					[
						103.7962303,
						1.2868805
					],
					[
						103.7952083,
						1.2874377
					],
					[
						103.7944631,
						1.287852
					],
					[
						103.7935759,
						1.2884662
					],
					[
						103.7925946,
						1.289274
					],
					[
						103.7915229,
						1.2900597
					],
					[
						103.790288,
						1.2908241
					],
					[
						103.7876336,
						1.2925242
					],
					[
						103.786774,
						1.2932908
					],
					[
						103.7864233,
						1.2936629
					],
					[
						103.7850377,
						1.2952589
					],
					[
						103.7834883,
						1.2969724
					],
					[
						103.7829875,
						1.2973548
					],
					[
						103.7824645,
						1.2976931
					],
					[
						103.7799804,
						1.2990952
					],
					[
						103.7791834,
						1.2995701
					],
					[
						103.7783644,
						1.3001103
					],
					[
						103.7761937,
						1.3013877
					],
					[
						103.7746743,
						1.3022507
					],
					[
						103.7729545,
						1.3032322
					],
					[
						103.7723499,
						1.3035414
					],
					[
						103.7704242,
						1.3044207
					],
					[
						103.7696931,
						1.3048335
					],
					[
						103.768861,
						1.3053599
					],
					[
						103.7683934,
						1.3057444
					],
					[
						103.7675845,
						1.3063728
					],
					[
						103.7671088,
						1.3067885
					],
					[
						103.76667,
						1.3072514
					],
					[
						103.7658241,
						1.3084803
					],
					[
						103.7651458,
						1.3093559
					],
					[
						103.7644058,
						1.310234
					],
					[
						103.7628914,
						1.3117552
					],
					[
						103.7621725,
						1.3124577
					],
					[
						103.7613031,
						1.3133663
					],
					[
						103.7603899,
						1.3142617
					],
					[
						103.7593981,
						1.3153157
					],
					[
						103.7567994,
						1.3183003
					],
					[
						103.7554348,
						1.3199584
					],
					[
						103.7550237,
						1.3203934
					],
					[
						103.7546887,
						1.3206828
					],
					[
						103.7542363,
						1.3209871
					],
					[
						103.7539655,
						1.3211138
					],
					[
						103.7532093,
						1.321363
					],
					[
						103.7513878,
						1.3219759
					],
					[
						103.7503262,
						1.3222747
					],
					[
						103.7492986,
						1.3224958
					],
					[
						103.7466064,
						1.3228401
					],
					[
						103.7463409,
						1.3228476
					],
					[
						103.7457707,
						1.3228646
					],
					[
						103.7457227,
						1.3238456
					],
					[
						103.7457172,
						1.3245253
					],
					[
						103.7457302,
						1.3251804
					],
					[
						103.745681,
						1.3258443
					],
					[
						103.7456514,
						1.326244
					],
					[
						103.7455596,
						1.3266888
					],
					[
						103.7452447,
						1.3274181
					],
					[
						103.7448961,
						1.3279421
					],
					[
						103.7446817,
						1.328193
					],
					[
						103.7445348,
						1.3283532
					],
					[
						103.7444716,
						1.328422
					],
					[
						103.7444092,
						1.3284777
					],
					[
						103.7438153,
						1.3290075
					],
					[
						103.7434471,
						1.3293135
					],
					[
						103.7412188,
						1.3309161
					],
					[
						103.7409841,
						1.3310616
					],
					[
						103.7407531,
						1.3312048
					],
					[
						103.7403953,
						1.3314501
					],
					[
						103.7402654,
						1.3315392
					],
					[
						103.7398644,
						1.331821
					],
					[
						103.7386186,
						1.3326639
					],
					[
						103.7382473,
						1.3329175
					],
					[
						103.7380819,
						1.3330303
					],
					[
						103.7378567,
						1.3332226
					],
					[
						103.7377676,
						1.3332988
					],
					[
						103.7376628,
						1.3333902
					],
					[
						103.7373087,
						1.3336993
					],
					[
						103.7368435,
						1.3341055
					],
					[
						103.736472,
						1.3344788
					],
					[
						103.7364015,
						1.3345496
					],
					[
						103.735688,
						1.3353437
					],
					[
						103.7355693,
						1.3354759
					],
					[
						103.7351187,
						1.3360598
					],
					[
						103.7347302,
						1.3366578
					],
					[
						103.7345166,
						1.337032
					],
					[
						103.7344848,
						1.3370877
					],
					[
						103.7344216,
						1.3372172
					],
					[
						103.7343909,
						1.3372801
					],
					[
						103.7342886,
						1.3374897
					],
					[
						103.7341219,
						1.3380169
					],
					[
						103.7340558,
						1.3384627
					],
					[
						103.7340424,
						1.3390077
					],
					[
						103.734125,
						1.3395595
					],
					[
						103.7342911,
						1.3400712
					],
					[
						103.7344901,
						1.3404787
					],
					[
						103.7347976,
						1.3409125
					],
					[
						103.7348946,
						1.3410493
					],
					[
						103.7350025,
						1.3412002
					],
					[
						103.7353627,
						1.3417041
					],
					[
						103.7356448,
						1.3421533
					],
					[
						103.7358563,
						1.3426301
					],
					[
						103.7360333,
						1.3430944
					],
					[
						103.7361054,
						1.3432833
					],
					[
						103.7361823,
						1.3435018
					],
					[
						103.7363344,
						1.3439337
					],
					[
						103.7364999,
						1.3443741
					],
					[
						103.7368147,
						1.3450413
					],
					[
						103.737303,
						1.3459605
					],
					[
						103.7377792,
						1.3469083
					],
					[
						103.7379237,
						1.3471787
					],
					[
						103.7380525,
						1.3474195
					],
					[
						103.7382478,
						1.347967
					],
					[
						103.7383184,
						1.3483999
					],
					[
						103.738327,
						1.3487843
					],
					[
						103.7382767,
						1.3492538
					],
					[
						103.7381701,
						1.3496633
					],
					[
						103.7381469,
						1.3497525
					],
					[
						103.7387004,
						1.3497737
					],
					[
						103.7395602,
						1.3497924
					],
					[
						103.7395675,
						1.3507792
					],
					[
						103.7395858,
						1.3516585
					],
					[
						103.7395663,
						1.3517628
					],
					[
						103.7395437,
						1.3518831
					],
					[
						103.7394171,
						1.3522643
					],
					[
						103.7391674,
						1.3527525
					],
					[
						103.7387823,
						1.3536067
					],
					[
						103.738768,
						1.353822
					],
					[
						103.7387894,
						1.354102
					],
					[
						103.7388607,
						1.3543317
					],
					[
						103.7389777,
						1.3545245
					],
					[
						103.738995,
						1.3545488
					],
					[
						103.7393314,
						1.3550208
					],
					[
						103.7395189,
						1.3552825
					],
					[
						103.7396467,
						1.3554585
					],
					[
						103.7400589,
						1.3560258
					],
					[
						103.740488,
						1.3565655
					],
					[
						103.7407703,
						1.3569204
					],
					[
						103.7409167,
						1.3571048
					],
					[
						103.741237,
						1.3575081
					],
					[
						103.7416873,
						1.358075
					],
					[
						103.7421729,
						1.3586864
					],
					[
						103.7429303,
						1.3597143
					],
					[
						103.7432431,
						1.3602339
					],
					[
						103.7434706,
						1.3607951
					],
					[
						103.7436022,
						1.3611219
					],
					[
						103.7437477,
						1.3616594
					],
					[
						103.7432933,
						1.3618426
					],
					[
						103.7429601,
						1.3620584
					],
					[
						103.7425493,
						1.362415
					],
					[
						103.7421778,
						1.3627601
					],
					[
						103.7425347,
						1.3632017
					],
					[
						103.7435835,
						1.3644958
					],
					[
						103.7438309,
						1.364801
					],
					[
						103.7441143,
						1.3651507
					],
					[
						103.7441574,
						1.365195
					],
					[
						103.7443599,
						1.3654036
					],
					[
						103.7446422,
						1.3656942
					],
					[
						103.7450782,
						1.3660714
					],
					[
						103.7453073,
						1.366268
					],
					[
						103.7454288,
						1.3663723
					],
					[
						103.7457372,
						1.3666307
					],
					[
						103.7463354,
						1.3671536
					],
					[
						103.7465044,
						1.3673013
					],
					[
						103.7482046,
						1.3687874
					],
					[
						103.7482465,
						1.3689569
					],
					[
						103.7482535,
						1.3690981
					],
					[
						103.7481413,
						1.3694186
					],
					[
						103.7463142,
						1.3710404
					],
					[
						103.7457013,
						1.3715771
					],
					[
						103.7453917,
						1.3717917
					],
					[
						103.7450684,
						1.3719025
					],
					[
						103.7439195,
						1.3721517
					],
					[
						103.7438372,
						1.3721689
					],
					[
						103.7417388,
						1.3726085
					],
					[
						103.7413521,
						1.372723
					],
					[
						103.7419111,
						1.3746736
					],
					[
						103.7424466,
						1.3745165
					],
					[
						103.7425849,
						1.3744759
					],
					[
						103.742854,
						1.3743969
					],
					[
						103.7431662,
						1.3743053
					],
					[
						103.7432371,
						1.3743106
					],
					[
						103.7432949,
						1.3742475
					],
					[
						103.7432806,
						1.3741787
					],
					[
						103.7432042,
						1.3741331
					],
					[
						103.7431347,
						1.3741743
					],
					[
						103.7431241,
						1.3742481
					],
					[
						103.7431662,
						1.3743053
					],
					[
						103.742889,
						1.3743866
					],
					[
						103.7425849,
						1.3744759
					],
					[
						103.7424466,
						1.3745165
					],
					[
						103.7419111,
						1.3746736
					],
					[
						103.7421173,
						1.3753933
					],
					[
						103.7423548,
						1.3762221
					],
					[
						103.7424726,
						1.3762196
					],
					[
						103.7442231,
						1.3764045
					],
					[
						103.7443449,
						1.3764174
					],
					[
						103.7446454,
						1.3764491
					],
					[
						103.7448686,
						1.3765135
					],
					[
						103.7452724,
						1.3766299
					],
					[
						103.7457536,
						1.3767687
					],
					[
						103.7460494,
						1.376854
					],
					[
						103.7462487,
						1.3761876
					],
					[
						103.7462797,
						1.3760839
					],
					[
						103.7465621,
						1.3751508
					],
					[
						103.7484352,
						1.3756785
					]
				]
			},
			"properties": {
				"styleUrl": "#busroute",
				"styleHash": "-2257368b",
				"stroke-opacity": 0.6039215686274509,
				"stroke": "#DA0FB1",
				"stroke-width": 4
			}
		}
	]
}