{
	"type": "FeatureCollection",
	"features": [
		{
			"type": "Feature",
			"geometry": {
				"type": "LineString",
				"coordinates": [
					[
						103.861906,
						1.2908194
					],
					[
						103.8619556,
						1.2912561
					],
					[
						103.8623662,
						1.2912311
					],
					[
						103.8624585,
						1.2912119
					],
					[
						103.8626747,
						1.2911669
					],
					[
						103.8628912,
						1.291075
					],
					[
						103.8629942,
						1.2909713
					],
					[
						103.8630054,
						1.2908319
					],
					[
						103.8629514,
						1.2906248
					],
					[
						103.8627753,
						1.2901424
					],
					[
						103.8626241,
						1.2897284
					],
					[
						103.8625266,
						1.2895856
					],
					[
						103.8624327,
						1.2895063
					],
					[
						103.8622174,
						1.2894531
					],
					[
						103.8620205,
						1.289464
					],
					[
						103.8608976,
						1.2895302
					],
					[
						103.8604223,
						1.2895611
					],
					[
						103.8568996,
						1.2897994
					],
					[
						103.8564528,
						1.2900529
					],
					[
						103.8561625,
						1.2903037
					],
					[
						103.8557555,
						1.2906588
					],
					[
						103.8557446,
						1.2909502
					],
					[
						103.8560029,
						1.2917422
					],
					[
						103.8562147,
						1.2923917
					],
					[
						103.856381,
						1.2925227
					],
					[
						103.8566009,
						1.2925743
					],
					[
						103.8568442,
						1.2925386
					],
					[
						103.8578348,
						1.2919596
					],
					[
						103.8584471,
						1.2916044
					],
					[
						103.858753,
						1.2914975
					],
					[
						103.8588455,
						1.2914652
					],
					[
						103.8591954,
						1.2914359
					],
					[
						103.8591985,
						1.2914357
					],
					[
						103.8596195,
						1.2914005
					],
					[
						103.8600636,
						1.2913633
					],
					[
						103.8602959,
						1.2913439
					],
					[
						103.8604933,
						1.2914092
					],
					[
						103.8606774,
						1.2915343
					],
					[
						103.8607883,
						1.2916795
					],
					[
						103.860877,
						1.2918907
					],
					[
						103.8608459,
						1.292686
					],
					[
						103.8608234,
						1.2932637
					],
					[
						103.8608039,
						1.2933582
					],
					[
						103.8608034,
						1.2933606
					],
					[
						103.8607749,
						1.2934996
					],
					[
						103.8606699,
						1.293654
					],
					[
						103.8605781,
						1.2937202
					],
					[
						103.8605163,
						1.2937796
					],
					[
						103.8604855,
						1.2938093
					],
					[
						103.8602434,
						1.2939702
					],
					[
						103.8592586,
						1.2945662
					],
					[
						103.8591519,
						1.2944307
					],
					[
						103.8590192,
						1.2943586
					],
					[
						103.8588694,
						1.2943411
					],
					[
						103.8587498,
						1.2943665
					],
					[
						103.8586454,
						1.294419
					],
					[
						103.8585656,
						1.2945208
					],
					[
						103.8585088,
						1.2946604
					],
					[
						103.8585076,
						1.2948113
					],
					[
						103.8585277,
						1.2948884
					],
					[
						103.8585911,
						1.2950032
					],
					[
						103.8586771,
						1.2950958
					],
					[
						103.8588081,
						1.2951268
					],
					[
						103.8589209,
						1.2951413
					],
					[
						103.8590372,
						1.2950996
					],
					[
						103.8593735,
						1.2956739
					],
					[
						103.8594039,
						1.2957282
					],
					[
						103.8595828,
						1.2960467
					],
					[
						103.859675,
						1.2962117
					],
					[
						103.859704,
						1.2963286
					],
					[
						103.8596967,
						1.2964527
					],
					[
						103.8596605,
						1.2965768
					],
					[
						103.8595971,
						1.2966752
					],
					[
						103.8593344,
						1.2969351
					],
					[
						103.8589698,
						1.2972823
					],
					[
						103.8585066,
						1.2977353
					],
					[
						103.8583107,
						1.2979565
					],
					[
						103.857971,
						1.2983402
					],
					[
						103.8580396,
						1.2984082
					],
					[
						103.8587389,
						1.2991025
					],
					[
						103.8593702,
						1.2997291
					],
					[
						103.8594234,
						1.2997818
					],
					[
						103.8596636,
						1.3000136
					],
					[
						103.859729,
						1.3000611
					],
					[
						103.8599605,
						1.3002294
					],
					[
						103.8603677,
						1.3005307
					],
					[
						103.860736,
						1.3007617
					],
					[
						103.8609789,
						1.3009141
					],
					[
						103.8610775,
						1.3009759
					],
					[
						103.8613284,
						1.3011035
					],
					[
						103.8613733,
						1.3011264
					],
					[
						103.8616489,
						1.3012665
					],
					[
						103.8618399,
						1.3013565
					],
					[
						103.8622778,
						1.3015627
					],
					[
						103.8622058,
						1.3016868
					],
					[
						103.8617729,
						1.3024328
					],
					[
						103.8617402,
						1.3024892
					],
					[
						103.8616984,
						1.302557
					],
					[
						103.8612189,
						1.3033348
					],
					[
						103.8607239,
						1.3041376
					],
					[
						103.860703,
						1.3041716
					],
					[
						103.8606738,
						1.3042198
					],
					[
						103.8602216,
						1.3049663
					],
					[
						103.8601877,
						1.3050222
					],
					[
						103.8602412,
						1.3050711
					],
					[
						103.8606288,
						1.3054249
					],
					[
						103.8614782,
						1.3062004
					],
					[
						103.8623082,
						1.30697
					],
					[
						103.8626893,
						1.3073232
					],
					[
						103.8630976,
						1.3077594
					],
					[
						103.8633797,
						1.3080114
					],
					[
						103.8639314,
						1.3085664
					],
					[
						103.8639903,
						1.3086255
					],
					[
						103.8639682,
						1.3087107
					],
					[
						103.8638827,
						1.3090415
					],
					[
						103.8638526,
						1.3091336
					],
					[
						103.8637177,
						1.3093796
					],
					[
						103.8636867,
						1.3094224
					],
					[
						103.8636794,
						1.3094325
					],
					[
						103.8633557,
						1.3098787
					],
					[
						103.8632262,
						1.3100551
					],
					[
						103.8627305,
						1.3107301
					],
					[
						103.8626539,
						1.3108341
					],
					[
						103.8623832,
						1.3112016
					],
					[
						103.8622289,
						1.311411
					],
					[
						103.8619556,
						1.3117813
					],
					[
						103.8618354,
						1.3119425
					],
					[
						103.861785,
						1.3120101
					],
					[
						103.8618307,
						1.3120651
					],
					[
						103.8620338,
						1.3123098
					],
					[
						103.8623033,
						1.3126524
					],
					[
						103.8627249,
						1.3132196
					],
					[
						103.8631394,
						1.3137357
					],
					[
						103.8636521,
						1.3143741
					],
					[
						103.8639299,
						1.3147123
					],
					[
						103.8641745,
						1.3150428
					],
					[
						103.8643706,
						1.315373
					],
					[
						103.8644206,
						1.3154484
					],
					[
						103.8644424,
						1.315476
					],
					[
						103.8647772,
						1.3158037
					],
					[
						103.865034,
						1.3161232
					],
					[
						103.8654206,
						1.3166166
					],
					[
						103.865796,
						1.3170979
					],
					[
						103.8662132,
						1.3176278
					],
					[
						103.8662593,
						1.3176863
					],
					[
						103.8663084,
						1.3177448
					],
					[
						103.8664218,
						1.3178797
					],
					[
						103.8667324,
						1.3181504
					],
					[
						103.8667694,
						1.318174
					],
					[
						103.8689985,
						1.3196
					],
					[
						103.8695291,
						1.3199341
					],
					[
						103.8695889,
						1.3199717
					],
					[
						103.8698508,
						1.3201367
					],
					[
						103.8701362,
						1.3203164
					],
					[
						103.8707543,
						1.3207056
					],
					[
						103.8712283,
						1.3210041
					],
					[
						103.8712896,
						1.3210426
					],
					[
						103.8712533,
						1.3211012
					],
					[
						103.8708461,
						1.3217595
					],
					[
						103.8703102,
						1.322625
					],
					[
						103.870095,
						1.3229726
					],
					[
						103.8697471,
						1.3235342
					],
					[
						103.8697063,
						1.3236
					],
					[
						103.8695187,
						1.3238738
					],
					[
						103.8695055,
						1.323887
					],
					[
						103.8694396,
						1.3239527
					],
					[
						103.8693726,
						1.3240214
					],
					[
						103.8683911,
						1.3246581
					],
					[
						103.8681887,
						1.3247177
					],
					[
						103.868059,
						1.3247167
					],
					[
						103.8678824,
						1.3246444
					],
					[
						103.86778,
						1.3245357
					],
					[
						103.8676084,
						1.324225
					],
					[
						103.8675591,
						1.3241495
					],
					[
						103.8668782,
						1.3231068
					],
					[
						103.86665,
						1.3227594
					],
					[
						103.8662155,
						1.322098
					],
					[
						103.8660171,
						1.321796
					],
					[
						103.8654394,
						1.3209167
					],
					[
						103.8651827,
						1.3207945
					],
					[
						103.8650896,
						1.3207878
					],
					[
						103.8649702,
						1.3208184
					],
					[
						103.8637261,
						1.3215729
					],
					[
						103.8636354,
						1.3216553
					],
					[
						103.863584,
						1.3217481
					],
					[
						103.8635994,
						1.3219875
					],
					[
						103.8636696,
						1.3222555
					],
					[
						103.8637706,
						1.3223783
					],
					[
						103.8639046,
						1.3225496
					],
					[
						103.8640094,
						1.3226836
					],
					[
						103.8650268,
						1.3239658
					],
					[
						103.8654361,
						1.3244703
					],
					[
						103.8656314,
						1.3247226
					],
					[
						103.8657405,
						1.3248636
					],
					[
						103.8658921,
						1.3250593
					],
					[
						103.8666392,
						1.3259658
					],
					[
						103.8670806,
						1.3265494
					],
					[
						103.8674482,
						1.3270089
					],
					[
						103.8677326,
						1.3273643
					],
					[
						103.8679006,
						1.3276094
					],
					[
						103.8679781,
						1.3277696
					],
					[
						103.8680396,
						1.327918
					],
					[
						103.8681054,
						1.3282573
					],
					[
						103.8681936,
						1.3285528
					],
					[
						103.868309,
						1.3288072
					],
					[
						103.8683735,
						1.3289935
					],
					[
						103.8684123,
						1.3291321
					],
					[
						103.8684512,
						1.3293256
					],
					[
						103.8687125,
						1.3306236
					],
					[
						103.8690628,
						1.3312071
					],
					[
						103.8690823,
						1.3312805
					],
					[
						103.8692595,
						1.3319491
					],
					[
						103.8693269,
						1.3322033
					],
					[
						103.8693548,
						1.3323129
					],
					[
						103.8694341,
						1.3326876
					],
					[
						103.8695929,
						1.3333375
					],
					[
						103.8697745,
						1.3337885
					],
					[
						103.8699896,
						1.3343489
					],
					[
						103.8700623,
						1.334561
					],
					[
						103.8701194,
						1.3346854
					],
					[
						103.8705236,
						1.3346088
					],
					[
						103.8708184,
						1.3346136
					],
					[
						103.8710817,
						1.3346781
					],
					[
						103.8711892,
						1.3347045
					],
					[
						103.8712581,
						1.3347429
					],
					[
						103.8714555,
						1.3348529
					],
					[
						103.87166,
						1.3350347
					],
					[
						103.8718264,
						1.33525
					],
					[
						103.8719465,
						1.3354936
					],
					[
						103.8719817,
						1.3356126
					],
					[
						103.8720071,
						1.3356982
					],
					[
						103.8720683,
						1.3360584
					],
					[
						103.8721248,
						1.3363622
					],
					[
						103.8721569,
						1.3365812
					],
					[
						103.8721711,
						1.3366709
					],
					[
						103.8722054,
						1.3368552
					],
					[
						103.8722817,
						1.3372667
					],
					[
						103.872353,
						1.3376495
					],
					[
						103.8727133,
						1.3398133
					],
					[
						103.8728028,
						1.3403713
					],
					[
						103.8728664,
						1.3406114
					],
					[
						103.8729603,
						1.340808
					],
					[
						103.8730257,
						1.3409337
					],
					[
						103.8731297,
						1.3410682
					],
					[
						103.8732308,
						1.3411729
					],
					[
						103.8733496,
						1.3412686
					],
					[
						103.8734626,
						1.3413434
					],
					[
						103.8735755,
						1.3414062
					],
					[
						103.8736884,
						1.3414541
					],
					[
						103.87384,
						1.3414959
					],
					[
						103.8752831,
						1.3418428
					],
					[
						103.875944,
						1.3419894
					],
					[
						103.8762552,
						1.3421478
					],
					[
						103.8764076,
						1.3422586
					],
					[
						103.8765533,
						1.3424111
					],
					[
						103.8767197,
						1.3426564
					],
					[
						103.8772103,
						1.3440986
					],
					[
						103.8771676,
						1.3441973
					],
					[
						103.8771191,
						1.3442605
					],
					[
						103.8770605,
						1.3443209
					],
					[
						103.8769305,
						1.3443523
					],
					[
						103.8766142,
						1.3443581
					],
					[
						103.876401,
						1.34432
					],
					[
						103.8746115,
						1.3435867
					],
					[
						103.8741957,
						1.3433937
					],
					[
						103.873613,
						1.3433183
					],
					[
						103.8724976,
						1.3433853
					],
					[
						103.8719028,
						1.343348
					],
					[
						103.8716134,
						1.3432738
					],
					[
						103.8713297,
						1.3431539
					],
					[
						103.87083,
						1.3429315
					],
					[
						103.8706885,
						1.3428455
					],
					[
						103.8706061,
						1.3428617
					],
					[
						103.8705503,
						1.3428999
					],
					[
						103.8705173,
						1.3430161
					],
					[
						103.870512,
						1.3432206
					],
					[
						103.870519,
						1.3433889
					],
					[
						103.8705186,
						1.3435935
					],
					[
						103.8705549,
						1.3439773
					],
					[
						103.8706021,
						1.3442843
					],
					[
						103.8707256,
						1.3447851
					],
					[
						103.8708308,
						1.3450769
					],
					[
						103.87086,
						1.3451579
					],
					[
						103.8709653,
						1.3454028
					],
					[
						103.8713608,
						1.346262
					],
					[
						103.8716211,
						1.3468018
					],
					[
						103.8719386,
						1.3474605
					],
					[
						103.8722067,
						1.348024
					],
					[
						103.8723741,
						1.3483417
					],
					[
						103.8725629,
						1.3486158
					],
					[
						103.8728313,
						1.3489295
					],
					[
						103.8730099,
						1.3491382
					],
					[
						103.8734203,
						1.3496425
					],
					[
						103.8736124,
						1.3498585
					],
					[
						103.8737701,
						1.3500581
					],
					[
						103.8739542,
						1.3502273
					],
					[
						103.874967,
						1.3512328
					],
					[
						103.875195,
						1.351444
					],
					[
						103.8754246,
						1.3516568
					],
					[
						103.8758931,
						1.3521063
					],
					[
						103.876151,
						1.3523695
					],
					[
						103.8763761,
						1.3525778
					],
					[
						103.8766158,
						1.3528337
					],
					[
						103.8767487,
						1.3529524
					],
					[
						103.8772986,
						1.353444
					],
					[
						103.8778218,
						1.3538896
					],
					[
						103.8780685,
						1.3540763
					],
					[
						103.8782895,
						1.3542529
					],
					[
						103.8786157,
						1.3545135
					],
					[
						103.8788877,
						1.3546936
					],
					[
						103.8793172,
						1.3549097
					],
					[
						103.879539,
						1.3550952
					],
					[
						103.8798678,
						1.3553704
					],
					[
						103.8799017,
						1.3553987
					],
					[
						103.8799371,
						1.3554294
					],
					[
						103.8801589,
						1.3556222
					],
					[
						103.8805768,
						1.3559592
					],
					[
						103.8806626,
						1.3560434
					],
					[
						103.8807187,
						1.3560985
					],
					[
						103.8807613,
						1.3561415
					],
					[
						103.8809101,
						1.3562918
					],
					[
						103.8813587,
						1.356667
					],
					[
						103.8816924,
						1.3569741
					],
					[
						103.8824363,
						1.3576589
					],
					[
						103.8829455,
						1.3581513
					],
					[
						103.8830172,
						1.3582182
					],
					[
						103.883263,
						1.3584475
					],
					[
						103.8848272,
						1.3599412
					],
					[
						103.8854127,
						1.3604307
					],
					[
						103.8856644,
						1.3606412
					],
					[
						103.8861639,
						1.3610831
					],
					[
						103.8862246,
						1.3611367
					],
					[
						103.8862677,
						1.3611767
					],
					[
						103.8865825,
						1.3614684
					],
					[
						103.8867254,
						1.3616113
					],
					[
						103.8869948,
						1.3618998
					],
					[
						103.887261,
						1.3621446
					],
					[
						103.887633,
						1.362502
					],
					[
						103.8879107,
						1.3627688
					],
					[
						103.8879588,
						1.362815
					],
					[
						103.8880014,
						1.3628568
					],
					[
						103.8881653,
						1.3630174
					],
					[
						103.8882069,
						1.3630582
					],
					[
						103.8887033,
						1.3635447
					],
					[
						103.8887379,
						1.3635787
					],
					[
						103.8887687,
						1.3636088
					],
					[
						103.8892257,
						1.3640569
					],
					[
						103.8896204,
						1.3643856
					],
					[
						103.8896874,
						1.3644408
					],
					[
						103.8906461,
						1.3653831
					],
					[
						103.8906914,
						1.3657002
					],
					[
						103.8906863,
						1.3659149
					],
					[
						103.8898968,
						1.3667256
					],
					[
						103.8897502,
						1.3668387
					],
					[
						103.8897277,
						1.3668561
					],
					[
						103.8897265,
						1.366857
					],
					[
						103.8895576,
						1.3669549
					],
					[
						103.8894873,
						1.3669957
					],
					[
						103.8894775,
						1.3670014
					],
					[
						103.8893257,
						1.3670722
					],
					[
						103.8890868,
						1.3671836
					],
					[
						103.8887566,
						1.3673031
					],
					[
						103.8886813,
						1.3673298
					],
					[
						103.8875134,
						1.3676466
					],
					[
						103.8871791,
						1.3677379
					],
					[
						103.8869251,
						1.3677936
					],
					[
						103.8868214,
						1.3678163
					],
					[
						103.8868957,
						1.3681829
					],
					[
						103.887063,
						1.3686108
					],
					[
						103.8872241,
						1.3688241
					],
					[
						103.8873988,
						1.3689816
					],
					[
						103.8878334,
						1.3693134
					],
					[
						103.8883027,
						1.3696717
					],
					[
						103.8887606,
						1.3703141
					],
					[
						103.8889616,
						1.3705826
					],
					[
						103.8892496,
						1.3702951
					],
					[
						103.8892567,
						1.3702796
					],
					[
						103.8897508,
						1.3693434
					],
					[
						103.8899422,
						1.3695549
					],
					[
						103.8904915,
						1.3701811
					],
					[
						103.8906975,
						1.3704027
					],
					[
						103.8911474,
						1.3708866
					],
					[
						103.8913798,
						1.3711207
					],
					[
						103.8916606,
						1.371262
					],
					[
						103.8919877,
						1.371337
					],
					[
						103.8920775,
						1.3713384
					],
					[
						103.8920797,
						1.3710707
					]
				]
			},
			"properties": {
				"styleUrl": "#busroute",
				"styleHash": "-2257368b",
				"stroke-opacity": 0.6039215686274509,
				"stroke": "#DA0FB1",
				"stroke-width": 4
			}
		}
	]
}