{
	"type": "FeatureCollection",
	"features": [
		{
			"type": "Feature",
			"geometry": {
				"type": "LineString",
				"coordinates": [
					[
						103.7359212,
						1.3626572
					],
					[
						103.7363523,
						1.362252
					],
					[
						103.73584,
						1.3617294
					],
					[
						103.7348809,
						1.360751
					],
					[
						103.73412,
						1.3599596
					],
					[
						103.7324553,
						1.3582281
					],
					[
						103.7317083,
						1.3574999
					],
					[
						103.730414,
						1.3562382
					],
					[
						103.7289468,
						1.3547122
					],
					[
						103.7288864,
						1.3545784
					],
					[
						103.7288615,
						1.3544923
					],
					[
						103.7288415,
						1.35436
					],
					[
						103.7288567,
						1.3542489
					],
					[
						103.7289112,
						1.3541394
					],
					[
						103.7289611,
						1.3540066
					],
					[
						103.7303017,
						1.3531685
					],
					[
						103.7305656,
						1.3529747
					],
					[
						103.7308795,
						1.3526948
					],
					[
						103.7315071,
						1.3519483
					],
					[
						103.7319779,
						1.3514099
					],
					[
						103.7322345,
						1.3510694
					],
					[
						103.7347032,
						1.3485471
					],
					[
						103.7353807,
						1.3480206
					],
					[
						103.7360861,
						1.3473196
					],
					[
						103.7368766,
						1.3466057
					],
					[
						103.737133,
						1.3462057
					],
					[
						103.737303,
						1.3459605
					],
					[
						103.7366291,
						1.3461164
					],
					[
						103.7358532,
						1.3467589
					],
					[
						103.7351537,
						1.347536
					],
					[
						103.7348209,
						1.3481036
					],
					[
						103.732688,
						1.3503801
					],
					[
						103.7320611,
						1.3509835
					],
					[
						103.7314125,
						1.3515109
					],
					[
						103.730849,
						1.351919
					],
					[
						103.7298012,
						1.35253
					],
					[
						103.7278008,
						1.3537402
					],
					[
						103.7269536,
						1.3541598
					],
					[
						103.7259644,
						1.3545757
					],
					[
						103.7250233,
						1.3549152
					],
					[
						103.7238425,
						1.355201
					],
					[
						103.7229138,
						1.3553343
					],
					[
						103.7214694,
						1.3554316
					],
					[
						103.7192222,
						1.3551874
					],
					[
						103.7183467,
						1.3550087
					],
					[
						103.7173416,
						1.3547197
					],
					[
						103.7169938,
						1.3545808
					],
					[
						103.7159172,
						1.3542065
					],
					[
						103.7155097,
						1.3539956
					],
					[
						103.7147415,
						1.3535627
					],
					[
						103.7136619,
						1.3528298
					],
					[
						103.7132631,
						1.3525993
					],
					[
						103.7126356,
						1.3521637
					],
					[
						103.7124907,
						1.3520631
					],
					[
						103.7123408,
						1.3519591
					],
					[
						103.7122906,
						1.3519243
					],
					[
						103.7120078,
						1.3517434
					],
					[
						103.7119424,
						1.3517016
					],
					[
						103.7118995,
						1.3517629
					],
					[
						103.7117403,
						1.3519903
					],
					[
						103.7115721,
						1.3522291
					],
					[
						103.7115024,
						1.352328
					],
					[
						103.7099508,
						1.3546109
					],
					[
						103.7084806,
						1.3568106
					],
					[
						103.7083243,
						1.3570445
					],
					[
						103.7080509,
						1.356889
					],
					[
						103.7072426,
						1.3563625
					],
					[
						103.7069935,
						1.3561846
					],
					[
						103.7056796,
						1.3576386
					],
					[
						103.7049355,
						1.358462
					],
					[
						103.7038785,
						1.3573021
					],
					[
						103.7027607,
						1.3560756
					],
					[
						103.7035356,
						1.3553804
					],
					[
						103.7044973,
						1.3546568
					],
					[
						103.7048096,
						1.3540421
					],
					[
						103.7048341,
						1.3539379
					],
					[
						103.7048775,
						1.3537525
					],
					[
						103.7049597,
						1.3532114
					],
					[
						103.7050077,
						1.3528959
					],
					[
						103.7050348,
						1.3527431
					],
					[
						103.7050185,
						1.3524866
					],
					[
						103.7049535,
						1.352252
					],
					[
						103.7048052,
						1.3519909
					],
					[
						103.7047003,
						1.3518546
					],
					[
						103.7046107,
						1.3517382
					],
					[
						103.7045313,
						1.3516823
					],
					[
						103.7040906,
						1.3513723
					],
					[
						103.7034539,
						1.3509244
					],
					[
						103.7032814,
						1.3508041
					],
					[
						103.7031754,
						1.3507301
					],
					[
						103.7030447,
						1.3507099
					],
					[
						103.7028807,
						1.3506845
					],
					[
						103.7025402,
						1.3506192
					],
					[
						103.7018048,
						1.3504856
					],
					[
						103.7015784,
						1.3504445
					],
					[
						103.7007953,
						1.3504573
					],
					[
						103.7006542,
						1.3504597
					],
					[
						103.6994744,
						1.3504752
					],
					[
						103.6993671,
						1.3504766
					],
					[
						103.6992437,
						1.3504824
					],
					[
						103.6984515,
						1.3505191
					],
					[
						103.6982278,
						1.3505048
					],
					[
						103.6979067,
						1.3504063
					],
					[
						103.697625,
						1.3502226
					],
					[
						103.6974044,
						1.349968
					],
					[
						103.6972619,
						1.3496622
					],
					[
						103.6972263,
						1.3494905
					],
					[
						103.6972161,
						1.3494413
					],
					[
						103.6971196,
						1.348586
					],
					[
						103.6971077,
						1.3484802
					],
					[
						103.6970941,
						1.3483586
					],
					[
						103.6969391,
						1.3469755
					],
					[
						103.6969246,
						1.3468457
					],
					[
						103.6978104,
						1.346742
					],
					[
						103.6984737,
						1.3466643
					],
					[
						103.6986308,
						1.3465987
					],
					[
						103.6987794,
						1.3464823
					],
					[
						103.6989705,
						1.3462207
					],
					[
						103.6996406,
						1.3467626
					],
					[
						103.6997355,
						1.3468799
					],
					[
						103.6997587,
						1.3469085
					],
					[
						103.6998014,
						1.3470458
					],
					[
						103.6998126,
						1.3470819
					],
					[
						103.6998268,
						1.3472072
					],
					[
						103.6998471,
						1.3473881
					],
					[
						103.6999313,
						1.3481365
					],
					[
						103.7005908,
						1.3480561
					],
					[
						103.7007195,
						1.3480109
					],
					[
						103.7008153,
						1.3479527
					],
					[
						103.7008362,
						1.34794
					],
					[
						103.7009954,
						1.3477973
					],
					[
						103.7013734,
						1.3472218
					],
					[
						103.7014445,
						1.3471193
					],
					[
						103.7015024,
						1.3470326
					],
					[
						103.7016432,
						1.3468218
					],
					[
						103.7021901,
						1.346049
					],
					[
						103.7023074,
						1.3458751
					],
					[
						103.7023824,
						1.3457639
					],
					[
						103.7024708,
						1.3456268
					],
					[
						103.7026738,
						1.3453122
					],
					[
						103.7030217,
						1.3448088
					],
					[
						103.7030607,
						1.3447524
					],
					[
						103.703177,
						1.3445841
					],
					[
						103.70336,
						1.3442778
					],
					[
						103.7034126,
						1.3441464
					],
					[
						103.7034813,
						1.343975
					],
					[
						103.703559,
						1.3437811
					],
					[
						103.7035994,
						1.3435743
					],
					[
						103.7036616,
						1.3432555
					],
					[
						103.7037112,
						1.3427516
					],
					[
						103.7037924,
						1.3419277
					],
					[
						103.7038257,
						1.3415228
					],
					[
						103.7038653,
						1.3411783
					],
					[
						103.7038816,
						1.3410367
					],
					[
						103.7039067,
						1.3408514
					],
					[
						103.7039404,
						1.3406028
					],
					[
						103.7039509,
						1.3405242
					],
					[
						103.7039853,
						1.3402879
					],
					[
						103.7041003,
						1.3400877
					],
					[
						103.7043054,
						1.3399533
					],
					[
						103.7044825,
						1.3399315
					],
					[
						103.7054805,
						1.3403033
					],
					[
						103.7055481,
						1.3401286
					]
				]
			},
			"properties": {
				"styleUrl": "#busroute",
				"styleHash": "-2257368b",
				"stroke-opacity": 0.6039215686274509,
				"stroke": "#DA0FB1",
				"stroke-width": 4
			}
		}
	]
}