{
	"type": "FeatureCollection",
	"features": [
		{
			"type": "Feature",
			"geometry": {
				"type": "GeometryCollection",
				"geometries": [
					{
						"type": "LineString",
						"coordinates": [
							[
								103.9395336,
								1.3675656
							],
							[
								103.939496,
								1.367499
							],
							[
								103.9390324,
								1.3667692
							],
							[
								103.9386638,
								1.3662906
							],
							[
								103.9382418,
								1.365848
							],
							[
								103.9378852,
								1.3655369
							],
							[
								103.9373443,
								1.3651541
							],
							[
								103.9368038,
								1.3658478
							]
						]
					},
					{
						"type": "LineString",
						"coordinates": [
							[
								103.9368038,
								1.3658478
							],
							[
								103.9362085,
								1.3666118
							],
							[
								103.9361015,
								1.3666549
							],
							[
								103.935966,
								1.3666693
							],
							[
								103.9358376,
								1.3666406
							],
							[
								103.9355737,
								1.3664827
							],
							[
								103.9351243,
								1.3663032
							],
							[
								103.9343255,
								1.3661166
							],
							[
								103.9344753,
								1.3656141
							],
							[
								103.934568,
								1.3652049
							],
							[
								103.9346393,
								1.3647168
							],
							[
								103.9346534,
								1.3642608
							]
						]
					},
					{
						"type": "LineString",
						"coordinates": [
							[
								103.9346534,
								1.3642608
							],
							[
								103.9346724,
								1.3636488
							],
							[
								103.9347,
								1.3627591
							],
							[
								103.9346942,
								1.3615625
							]
						]
					},
					{
						"type": "LineString",
						"coordinates": [
							[
								103.9346942,
								1.3615625
							],
							[
								103.9346884,
								1.3603533
							],
							[
								103.9362044,
								1.3603596
							]
						]
					},
					{
						"type": "LineString",
						"coordinates": [
							[
								103.9362044,
								1.3603596
							],
							[
								103.9370422,
								1.3603631
							],
							[
								103.9380737,
								1.3603673
							],
							[
								103.9388868,
								1.3603641
							],
							[
								103.939188,
								1.3603629
							],
							[
								103.9393246,
								1.3603624
							],
							[
								103.9397235,
								1.3603608
							],
							[
								103.9406126,
								1.3603503
							]
						]
					},
					{
						"type": "LineString",
						"coordinates": [
							[
								103.9406126,
								1.3603503
							],
							[
								103.9419867,
								1.3603341
							],
							[
								103.9421342,
								1.3603498
							],
							[
								103.9427412,
								1.3603642
							],
							[
								103.9441923,
								1.3603322
							],
							[
								103.9445915,
								1.360334
							],
							[
								103.9475386,
								1.3603473
							],
							[
								103.9479399,
								1.3602514
							],
							[
								103.9483468,
								1.3601022
							],
							[
								103.9484348,
								1.36007
							],
							[
								103.9488741,
								1.359909
							],
							[
								103.9493314,
								1.3598306
							],
							[
								103.9498087,
								1.3599093
							],
							[
								103.9502058,
								1.3600847
							],
							[
								103.9502965,
								1.3601463
							]
						]
					},
					{
						"type": "LineString",
						"coordinates": [
							[
								103.9502965,
								1.3601463
							],
							[
								103.950356,
								1.3601866
							],
							[
								103.9505525,
								1.3603602
							],
							[
								103.9511259,
								1.3609418
							],
							[
								103.9515893,
								1.361412
							],
							[
								103.9519946,
								1.3618205
							],
							[
								103.9522237,
								1.3620047
							]
						]
					},
					{
						"type": "LineString",
						"coordinates": [
							[
								103.9522237,
								1.3620047
							],
							[
								103.9525544,
								1.3621723
							],
							[
								103.9526594,
								1.3622036
							],
							[
								103.9527667,
								1.3622356
							],
							[
								103.9530063,
								1.3622732
							],
							[
								103.9532222,
								1.3622726
							],
							[
								103.9534743,
								1.3622371
							],
							[
								103.9535866,
								1.3622045
							],
							[
								103.9537071,
								1.3621694
							],
							[
								103.9539244,
								1.3620689
							],
							[
								103.9542045,
								1.3618717
							],
							[
								103.954667,
								1.3614159
							],
							[
								103.955327,
								1.3607367
							],
							[
								103.955432,
								1.3605422
							],
							[
								103.9554641,
								1.3603663
							]
						]
					},
					{
						"type": "LineString",
						"coordinates": [
							[
								103.9554641,
								1.3603663
							],
							[
								103.9554679,
								1.3603456
							],
							[
								103.9554682,
								1.359683
							],
							[
								103.9554684,
								1.3591806
							],
							[
								103.9554687,
								1.3586006
							],
							[
								103.9554705,
								1.3582498
							],
							[
								103.9554736,
								1.3576491
							]
						]
					}
				]
			},
			"properties": {
				"styleUrl": "#busroute",
				"styleHash": "-2257368b",
				"stroke-opacity": 0.6039215686274509,
				"stroke": "#DA0FB1",
				"stroke-width": 4
			}
		}
	]
}