{
	"type": "FeatureCollection",
	"features": [
		{
			"type": "Feature",
			"geometry": {
				"type": "GeometryCollection",
				"geometries": [
					{
						"type": "LineString",
						"coordinates": [
							[
								103.7055481,
								1.3401286
							],
							[
								103.7054805,
								1.3403033
							],
							[
								103.7044825,
								1.3399315
							],
							[
								103.7040475,
								1.3397718
							],
							[
								103.7039853,
								1.3402879
							],
							[
								103.7039509,
								1.3405242
							],
							[
								103.7039404,
								1.3406028
							],
							[
								103.7037646,
								1.3407883
							],
							[
								103.7035626,
								1.3408914
							],
							[
								103.7033711,
								1.3409379
							],
							[
								103.7026435,
								1.3408077
							]
						]
					},
					{
						"type": "LineString",
						"coordinates": [
							[
								103.7026435,
								1.3408077
							],
							[
								103.7010721,
								1.3405265
							],
							[
								103.7009409,
								1.340503
							],
							[
								103.7008084,
								1.3404781
							],
							[
								103.699908,
								1.3403093
							],
							[
								103.6993681,
								1.340208
							]
						]
					},
					{
						"type": "LineString",
						"coordinates": [
							[
								103.6993681,
								1.340208
							],
							[
								103.6982282,
								1.3399943
							],
							[
								103.6980928,
								1.3399689
							],
							[
								103.6979473,
								1.3399416
							],
							[
								103.6978874,
								1.3400375
							],
							[
								103.6978272,
								1.3401339
							],
							[
								103.6977097,
								1.340322
							],
							[
								103.697611,
								1.3404801
							],
							[
								103.6975956,
								1.3405048
							],
							[
								103.6975281,
								1.3405696
							],
							[
								103.6972338,
								1.3408526
							]
						]
					},
					{
						"type": "LineString",
						"coordinates": [
							[
								103.6972338,
								1.3408526
							],
							[
								103.6968541,
								1.3412176
							],
							[
								103.6967283,
								1.3413385
							],
							[
								103.6965287,
								1.3414246
							],
							[
								103.6964527,
								1.3414411
							],
							[
								103.6963912,
								1.3414328
							],
							[
								103.6961282,
								1.3413298
							],
							[
								103.6957454,
								1.3408825
							]
						]
					},
					{
						"type": "LineString",
						"coordinates": [
							[
								103.6957454,
								1.3408825
							],
							[
								103.6956405,
								1.34076
							],
							[
								103.6952097,
								1.3401597
							],
							[
								103.6951064,
								1.3400152
							],
							[
								103.6949889,
								1.3398509
							],
							[
								103.6948771,
								1.3400066
							],
							[
								103.6947499,
								1.3401839
							],
							[
								103.6944977,
								1.3405271
							]
						]
					},
					{
						"type": "LineString",
						"coordinates": [
							[
								103.6944977,
								1.3405271
							],
							[
								103.6941269,
								1.3410318
							],
							[
								103.6934598,
								1.3418814
							],
							[
								103.6933571,
								1.342013
							],
							[
								103.6932954,
								1.342092
							],
							[
								103.693387,
								1.3421656
							],
							[
								103.6935041,
								1.3422597
							],
							[
								103.6941586,
								1.3427846
							]
						]
					},
					{
						"type": "LineString",
						"coordinates": [
							[
								103.6941586,
								1.3427846
							],
							[
								103.6948057,
								1.3433035
							],
							[
								103.6949427,
								1.3434133
							],
							[
								103.6946085,
								1.3438648
							],
							[
								103.6943431,
								1.3441918
							],
							[
								103.6940605,
								1.3445399
							],
							[
								103.6939199,
								1.3447132
							],
							[
								103.6937884,
								1.3447529
							],
							[
								103.6931928,
								1.3448253
							],
							[
								103.6930344,
								1.3448446
							],
							[
								103.6929092,
								1.3448923
							],
							[
								103.6928076,
								1.3449826
							],
							[
								103.6927518,
								1.3451118
							],
							[
								103.6927478,
								1.3452271
							],
							[
								103.6927638,
								1.3453688
							],
							[
								103.6928235,
								1.3458985
							]
						]
					},
					{
						"type": "LineString",
						"coordinates": [
							[
								103.6928235,
								1.3458985
							],
							[
								103.6928891,
								1.346481
							],
							[
								103.6929541,
								1.3466344
							],
							[
								103.6929833,
								1.3466678
							],
							[
								103.6931539,
								1.3468637
							],
							[
								103.6932063,
								1.3469218
							],
							[
								103.6934757,
								1.3472202
							],
							[
								103.6936233,
								1.3473142
							],
							[
								103.693782,
								1.3473297
							],
							[
								103.6941295,
								1.3472903
							]
						]
					},
					{
						"type": "LineString",
						"coordinates": [
							[
								103.6941295,
								1.3472903
							],
							[
								103.6947002,
								1.3472257
							],
							[
								103.6951309,
								1.3471769
							],
							[
								103.695233,
								1.3471653
							],
							[
								103.6953422,
								1.3471763
							],
							[
								103.6954615,
								1.3472322
							],
							[
								103.6955389,
								1.347319
							],
							[
								103.6955911,
								1.3474509
							],
							[
								103.6956723,
								1.3480775
							],
							[
								103.6957463,
								1.348649
							],
							[
								103.6958797,
								1.3486324
							],
							[
								103.6963919,
								1.348569
							]
						]
					},
					{
						"type": "LineString",
						"coordinates": [
							[
								103.6963919,
								1.348569
							],
							[
								103.6970019,
								1.3484933
							],
							[
								103.6971077,
								1.3484802
							],
							[
								103.6972188,
								1.3484629
							],
							[
								103.6976166,
								1.3484009
							],
							[
								103.6980225,
								1.348378
							],
							[
								103.6980897,
								1.3483663
							]
						]
					},
					{
						"type": "LineString",
						"coordinates": [
							[
								103.6980897,
								1.3483663
							],
							[
								103.6984167,
								1.3483096
							],
							[
								103.698516,
								1.3482982
							],
							[
								103.6989525,
								1.3482479
							],
							[
								103.6991019,
								1.3482308
							],
							[
								103.6992905,
								1.3482093
							],
							[
								103.6999313,
								1.3481365
							],
							[
								103.7005908,
								1.3480561
							],
							[
								103.7007195,
								1.3480109
							],
							[
								103.7008153,
								1.3479527
							]
						]
					},
					{
						"type": "LineString",
						"coordinates": [
							[
								103.7008153,
								1.3479527
							],
							[
								103.7008362,
								1.34794
							],
							[
								103.7009954,
								1.3477973
							],
							[
								103.7013734,
								1.3472218
							],
							[
								103.7014445,
								1.3471193
							],
							[
								103.7015024,
								1.3470326
							],
							[
								103.7016432,
								1.3468218
							],
							[
								103.7021901,
								1.346049
							],
							[
								103.7023074,
								1.3458751
							],
							[
								103.7023824,
								1.3457639
							],
							[
								103.7024708,
								1.3456268
							],
							[
								103.7026738,
								1.3453122
							],
							[
								103.703025,
								1.344804
							]
						]
					},
					{
						"type": "LineString",
						"coordinates": [
							[
								103.703025,
								1.344804
							],
							[
								103.7030607,
								1.3447524
							],
							[
								103.703177,
								1.3445841
							],
							[
								103.70336,
								1.3442778
							],
							[
								103.7034126,
								1.3441464
							],
							[
								103.7034813,
								1.343975
							],
							[
								103.703559,
								1.3437811
							],
							[
								103.7035994,
								1.3435743
							],
							[
								103.7036616,
								1.3432555
							],
							[
								103.703711,
								1.3427541
							]
						]
					},
					{
						"type": "LineString",
						"coordinates": [
							[
								103.703711,
								1.3427541
							],
							[
								103.7037924,
								1.3419277
							],
							[
								103.7038257,
								1.3415228
							],
							[
								103.7038653,
								1.3411783
							],
							[
								103.7038816,
								1.3410367
							],
							[
								103.7039067,
								1.3408514
							],
							[
								103.7039404,
								1.3406028
							],
							[
								103.7039509,
								1.3405242
							],
							[
								103.7039853,
								1.3402879
							],
							[
								103.7041003,
								1.3400877
							],
							[
								103.7043054,
								1.3399533
							],
							[
								103.7044825,
								1.3399315
							],
							[
								103.7054805,
								1.3403033
							],
							[
								103.7055481,
								1.3401286
							]
						]
					}
				]
			},
			"properties": {
				"styleUrl": "#busroute",
				"styleHash": "-2257368b",
				"stroke-opacity": 0.6039215686274509,
				"stroke": "#DA0FB1",
				"stroke-width": 4
			}
		}
	]
}