{
	"type": "FeatureCollection",
	"features": [
		{
			"type": "Feature",
			"geometry": {
				"type": "LineString",
				"coordinates": [
					[
						103.9022803,
						1.403755
					],
					[
						103.9023385,
						1.403489
					],
					[
						103.9030206,
						1.4031051
					],
					[
						103.902625,
						1.4024485
					],
					[
						103.9025516,
						1.4023266
					],
					[
						103.9022845,
						1.4018834
					],
					[
						103.902046,
						1.40147
					],
					[
						103.9018659,
						1.4015577
					],
					[
						103.9014738,
						1.4017486
					],
					[
						103.9009441,
						1.4019931
					],
					[
						103.9007117,
						1.4021004
					],
					[
						103.8998329,
						1.4024298
					],
					[
						103.8995708,
						1.402528
					],
					[
						103.8994589,
						1.40257
					],
					[
						103.899341,
						1.4026118
					],
					[
						103.8990054,
						1.402731
					],
					[
						103.8985951,
						1.4028767
					],
					[
						103.8985302,
						1.4028998
					],
					[
						103.8978836,
						1.4031294
					],
					[
						103.8972673,
						1.4032548
					],
					[
						103.8968007,
						1.4033497
					],
					[
						103.8968148,
						1.4034315
					],
					[
						103.8968493,
						1.4036317
					],
					[
						103.8969226,
						1.4040575
					],
					[
						103.8969505,
						1.4042193
					],
					[
						103.8970107,
						1.4044134
					],
					[
						103.8973209,
						1.4054143
					],
					[
						103.8974101,
						1.4057021
					],
					[
						103.8974968,
						1.4059817
					],
					[
						103.8976293,
						1.4064091
					],
					[
						103.8983198,
						1.4064117
					],
					[
						103.8987122,
						1.4064132
					],
					[
						103.8988927,
						1.4064139
					],
					[
						103.8995301,
						1.4064163
					],
					[
						103.9002239,
						1.4062977
					],
					[
						103.9004454,
						1.406216
					],
					[
						103.9006144,
						1.4061537
					],
					[
						103.9008559,
						1.4060647
					],
					[
						103.9010064,
						1.4059816
					],
					[
						103.9012316,
						1.4058572
					],
					[
						103.9013241,
						1.4058061
					],
					[
						103.9015255,
						1.4056937
					],
					[
						103.9017257,
						1.4055869
					],
					[
						103.9028112,
						1.404995
					],
					[
						103.9029604,
						1.4049354
					],
					[
						103.9030291,
						1.404908
					],
					[
						103.9031157,
						1.4049051
					],
					[
						103.9032448,
						1.4049345
					],
					[
						103.9035373,
						1.4051406
					],
					[
						103.9037026,
						1.4052012
					],
					[
						103.9039478,
						1.4052008
					],
					[
						103.9042485,
						1.4051226
					],
					[
						103.9041188,
						1.4049052
					],
					[
						103.904065,
						1.404664
					],
					[
						103.9040846,
						1.4044572
					],
					[
						103.904158,
						1.4042799
					],
					[
						103.9042743,
						1.4041431
					],
					[
						103.9047199,
						1.4038663
					],
					[
						103.9053057,
						1.4035024
					],
					[
						103.9054243,
						1.4034287
					],
					[
						103.9057797,
						1.4032078
					],
					[
						103.9061551,
						1.4029693
					],
					[
						103.9062918,
						1.4028825
					],
					[
						103.9064002,
						1.4028034
					],
					[
						103.9067528,
						1.4025463
					],
					[
						103.9070226,
						1.4024364
					],
					[
						103.9071816,
						1.4023239
					],
					[
						103.9077748,
						1.4019241
					],
					[
						103.9079572,
						1.4018012
					],
					[
						103.9083695,
						1.4015098
					],
					[
						103.908612,
						1.4012195
					],
					[
						103.9088644,
						1.4010341
					],
					[
						103.9090361,
						1.4009081
					],
					[
						103.9089236,
						1.4007422
					],
					[
						103.9088236,
						1.400595
					],
					[
						103.9083677,
						1.3999754
					],
					[
						103.9082465,
						1.3998085
					],
					[
						103.9081666,
						1.3996986
					],
					[
						103.9081098,
						1.3996204
					],
					[
						103.9079369,
						1.3993825
					],
					[
						103.9074388,
						1.3986969
					],
					[
						103.9074083,
						1.3984506
					],
					[
						103.9074142,
						1.3983186
					],
					[
						103.9074918,
						1.3980905
					],
					[
						103.9080507,
						1.3976222
					],
					[
						103.9084899,
						1.3972541
					],
					[
						103.9085873,
						1.3971747
					],
					[
						103.9096818,
						1.3962821
					],
					[
						103.9099536,
						1.3960604
					],
					[
						103.9105901,
						1.3955414
					],
					[
						103.9108415,
						1.3953485
					],
					[
						103.9109256,
						1.3952839
					],
					[
						103.9110694,
						1.3951684
					],
					[
						103.9112058,
						1.3950589
					],
					[
						103.9116554,
						1.3946992
					],
					[
						103.9119636,
						1.3944336
					],
					[
						103.9124134,
						1.3940461
					],
					[
						103.9133847,
						1.3932486
					],
					[
						103.9134587,
						1.3931878
					],
					[
						103.9136791,
						1.393007
					],
					[
						103.9141661,
						1.3926073
					],
					[
						103.9144131,
						1.3925565
					],
					[
						103.914589,
						1.3925746
					],
					[
						103.9147827,
						1.3926556
					],
					[
						103.9150751,
						1.3930508
					],
					[
						103.9154228,
						1.3935297
					],
					[
						103.9154554,
						1.3935745
					],
					[
						103.9158964,
						1.3941769
					],
					[
						103.9162013,
						1.3945934
					],
					[
						103.9162367,
						1.3946417
					],
					[
						103.9163962,
						1.394877
					],
					[
						103.9165842,
						1.3951339
					],
					[
						103.9166696,
						1.3952598
					],
					[
						103.9166742,
						1.3952665
					],
					[
						103.9167827,
						1.3954266
					],
					[
						103.9168069,
						1.3954623
					],
					[
						103.9168558,
						1.3955344
					],
					[
						103.9168793,
						1.395569
					],
					[
						103.9169126,
						1.3956197
					],
					[
						103.9169218,
						1.3956338
					],
					[
						103.9169334,
						1.3956514
					],
					[
						103.9169475,
						1.3956729
					],
					[
						103.9170545,
						1.3958357
					],
					[
						103.9170594,
						1.3958431
					],
					[
						103.9171534,
						1.3959862
					],
					[
						103.9176134,
						1.3965742
					],
					[
						103.9176602,
						1.3966334
					],
					[
						103.917705,
						1.3966926
					],
					[
						103.9186969,
						1.3980032
					],
					[
						103.9191923,
						1.3987301
					],
					[
						103.9200648,
						1.4000106
					],
					[
						103.9203159,
						1.4003622
					],
					[
						103.9205334,
						1.4006667
					],
					[
						103.9206025,
						1.4009297
					],
					[
						103.9205818,
						1.4010787
					],
					[
						103.9205154,
						1.4012663
					],
					[
						103.9188724,
						1.4025443
					],
					[
						103.9183825,
						1.4029022
					],
					[
						103.917042,
						1.4038818
					],
					[
						103.9166399,
						1.4033177
					],
					[
						103.9166099,
						1.4032761
					],
					[
						103.9162952,
						1.4028386
					],
					[
						103.9162128,
						1.402724
					],
					[
						103.9161748,
						1.4026712
					],
					[
						103.9159871,
						1.4024104
					],
					[
						103.9154396,
						1.4016352
					],
					[
						103.9153669,
						1.4015322
					],
					[
						103.9150948,
						1.4011469
					],
					[
						103.9149184,
						1.4008972
					],
					[
						103.9148193,
						1.4007569
					],
					[
						103.9146472,
						1.4008817
					],
					[
						103.9145045,
						1.4009851
					],
					[
						103.9140246,
						1.4013329
					],
					[
						103.9137232,
						1.4015513
					],
					[
						103.9129393,
						1.4021195
					],
					[
						103.9118797,
						1.4028874
					],
					[
						103.9112586,
						1.4033376
					],
					[
						103.9110049,
						1.4035215
					],
					[
						103.9109294,
						1.4035762
					],
					[
						103.9114495,
						1.4043348
					],
					[
						103.9114931,
						1.4043984
					],
					[
						103.9123054,
						1.4054773
					],
					[
						103.9123309,
						1.4055111
					],
					[
						103.912575,
						1.4058353
					],
					[
						103.9128159,
						1.4061553
					],
					[
						103.9128409,
						1.4061885
					],
					[
						103.9132679,
						1.4067456
					],
					[
						103.9116305,
						1.4080544
					],
					[
						103.9103752,
						1.4090917
					],
					[
						103.9097269,
						1.4095285
					],
					[
						103.9099478,
						1.4099279
					],
					[
						103.9106559,
						1.411228
					],
					[
						103.9108443,
						1.4115738
					],
					[
						103.9113335,
						1.4131946
					],
					[
						103.9114468,
						1.4140924
					],
					[
						103.9114839,
						1.4146671
					],
					[
						103.9115764,
						1.4161008
					],
					[
						103.910576,
						1.4161956
					],
					[
						103.9091525,
						1.4163305
					],
					[
						103.9080619,
						1.416439
					],
					[
						103.9078403,
						1.4155087
					],
					[
						103.9088221,
						1.4153801
					],
					[
						103.9087835,
						1.4148985
					]
				]
			},
			"properties": {
				"styleUrl": "#busroute",
				"styleHash": "-2257368b",
				"stroke-opacity": 0.6039215686274509,
				"stroke": "#DA0FB1",
				"stroke-width": 4
			}
		}
	]
}