{
	"type": "FeatureCollection",
	"features": [
		{
			"type": "Feature",
			"geometry": {
				"type": "LineString",
				"coordinates": [
					[
						103.9087835,
						1.4148985
					],
					[
						103.9088221,
						1.4153801
					],
					[
						103.9078403,
						1.4155087
					],
					[
						103.9080619,
						1.416439
					],
					[
						103.9091525,
						1.4163305
					],
					[
						103.910576,
						1.4161956
					],
					[
						103.9115764,
						1.4161008
					],
					[
						103.9115026,
						1.4149573
					],
					[
						103.9114468,
						1.4140924
					],
					[
						103.9113335,
						1.4131946
					],
					[
						103.9108977,
						1.4117507
					],
					[
						103.9108443,
						1.4115738
					],
					[
						103.9099478,
						1.4099279
					],
					[
						103.9097269,
						1.4095285
					],
					[
						103.9103752,
						1.4090917
					],
					[
						103.9116305,
						1.4080544
					],
					[
						103.9132679,
						1.4067456
					],
					[
						103.9128409,
						1.4061885
					],
					[
						103.9128159,
						1.4061553
					],
					[
						103.9125678,
						1.4058258
					],
					[
						103.9123309,
						1.4055111
					],
					[
						103.9123054,
						1.4054773
					],
					[
						103.9114931,
						1.4043984
					],
					[
						103.9114495,
						1.4043348
					],
					[
						103.9109294,
						1.4035762
					],
					[
						103.9110049,
						1.4035215
					],
					[
						103.9112586,
						1.4033376
					],
					[
						103.9118797,
						1.4028874
					],
					[
						103.9121131,
						1.4027183
					],
					[
						103.9137232,
						1.4015513
					],
					[
						103.9140246,
						1.4013329
					],
					[
						103.9145045,
						1.4009851
					],
					[
						103.9147221,
						1.4009897
					],
					[
						103.9149266,
						1.4010279
					],
					[
						103.9150948,
						1.4011469
					],
					[
						103.9153669,
						1.4015322
					],
					[
						103.9154396,
						1.4016352
					],
					[
						103.9159871,
						1.4024104
					],
					[
						103.9161748,
						1.4026712
					],
					[
						103.9162128,
						1.402724
					],
					[
						103.9163084,
						1.4028569
					],
					[
						103.9166099,
						1.4032761
					],
					[
						103.9166399,
						1.4033177
					],
					[
						103.917042,
						1.4038818
					],
					[
						103.9186999,
						1.4026704
					],
					[
						103.9188724,
						1.4025443
					],
					[
						103.9205154,
						1.4012663
					],
					[
						103.9208022,
						1.4010432
					],
					[
						103.9205334,
						1.4006667
					],
					[
						103.9202482,
						1.4002674
					],
					[
						103.9200648,
						1.4000106
					],
					[
						103.9191498,
						1.3986679
					],
					[
						103.9186969,
						1.3980032
					],
					[
						103.917853,
						1.3968882
					],
					[
						103.9176602,
						1.3966334
					],
					[
						103.9176134,
						1.3965742
					],
					[
						103.9171534,
						1.3959862
					],
					[
						103.9170594,
						1.3958431
					],
					[
						103.9170545,
						1.3958357
					],
					[
						103.9169475,
						1.3956729
					],
					[
						103.9169334,
						1.3956514
					],
					[
						103.9169218,
						1.3956338
					],
					[
						103.9169126,
						1.3956197
					],
					[
						103.9168793,
						1.395569
					],
					[
						103.9168558,
						1.3955344
					],
					[
						103.9168069,
						1.3954623
					],
					[
						103.9167827,
						1.3954266
					],
					[
						103.9166742,
						1.3952665
					],
					[
						103.9166696,
						1.3952598
					],
					[
						103.9165842,
						1.3951339
					],
					[
						103.9163962,
						1.394877
					],
					[
						103.9162367,
						1.3946417
					],
					[
						103.9162013,
						1.3945934
					],
					[
						103.9159108,
						1.3941965
					],
					[
						103.9154554,
						1.3935745
					],
					[
						103.9154228,
						1.3935297
					],
					[
						103.9150751,
						1.3930508
					],
					[
						103.9147827,
						1.3926556
					],
					[
						103.9146127,
						1.3923977
					],
					[
						103.9145473,
						1.3922985
					],
					[
						103.9144333,
						1.3923908
					],
					[
						103.9141661,
						1.3926073
					],
					[
						103.9136791,
						1.393007
					],
					[
						103.9134587,
						1.3931878
					],
					[
						103.9133847,
						1.3932486
					],
					[
						103.9124134,
						1.3940461
					],
					[
						103.9120001,
						1.3944022
					],
					[
						103.9116554,
						1.3946992
					],
					[
						103.9112058,
						1.3950589
					],
					[
						103.9110694,
						1.3951684
					],
					[
						103.9109256,
						1.3952839
					],
					[
						103.9108415,
						1.3953485
					],
					[
						103.9105901,
						1.3955414
					],
					[
						103.9099536,
						1.3960604
					],
					[
						103.9096818,
						1.3962821
					],
					[
						103.9093088,
						1.3965863
					],
					[
						103.9084899,
						1.3972541
					],
					[
						103.9080507,
						1.3976222
					],
					[
						103.9074918,
						1.3980905
					],
					[
						103.9072639,
						1.3982588
					],
					[
						103.907179,
						1.3983215
					],
					[
						103.9072652,
						1.3984461
					],
					[
						103.9074388,
						1.3986969
					],
					[
						103.9077412,
						1.3991132
					],
					[
						103.9079369,
						1.3993825
					],
					[
						103.9081098,
						1.3996204
					],
					[
						103.9082465,
						1.3998085
					],
					[
						103.9083677,
						1.3999754
					],
					[
						103.9088236,
						1.400595
					],
					[
						103.9088158,
						1.4007891
					],
					[
						103.9087724,
						1.4009595
					],
					[
						103.908612,
						1.4012195
					],
					[
						103.908242,
						1.4013574
					],
					[
						103.9077654,
						1.4016637
					],
					[
						103.9076378,
						1.4017496
					],
					[
						103.9076077,
						1.4017698
					],
					[
						103.907328,
						1.4020178
					],
					[
						103.9070046,
						1.4022227
					],
					[
						103.9069038,
						1.4023318
					],
					[
						103.9067528,
						1.4025463
					],
					[
						103.9064002,
						1.4028034
					],
					[
						103.9062918,
						1.4028825
					],
					[
						103.9061551,
						1.4029693
					],
					[
						103.9057797,
						1.4032078
					],
					[
						103.9055513,
						1.4033497
					],
					[
						103.9054243,
						1.4034287
					],
					[
						103.9053057,
						1.4035024
					],
					[
						103.9042743,
						1.4041431
					],
					[
						103.9039763,
						1.4043319
					],
					[
						103.9038169,
						1.4044328
					],
					[
						103.9038929,
						1.4045517
					],
					[
						103.9041188,
						1.4049052
					],
					[
						103.9041193,
						1.4050333
					],
					[
						103.9040637,
						1.4051173
					],
					[
						103.9039478,
						1.4052008
					],
					[
						103.9037026,
						1.4052012
					],
					[
						103.9035373,
						1.4051406
					],
					[
						103.9032448,
						1.4049345
					],
					[
						103.9031157,
						1.4049051
					],
					[
						103.9030291,
						1.404908
					],
					[
						103.9028112,
						1.404995
					],
					[
						103.9017257,
						1.4055869
					],
					[
						103.9016128,
						1.4056471
					],
					[
						103.9015255,
						1.4056937
					],
					[
						103.9013241,
						1.4058061
					],
					[
						103.9012316,
						1.4058572
					],
					[
						103.9010064,
						1.4059816
					],
					[
						103.9008559,
						1.4060647
					],
					[
						103.9006144,
						1.4061537
					],
					[
						103.9004454,
						1.406216
					],
					[
						103.9002239,
						1.4062977
					],
					[
						103.8996014,
						1.4064042
					],
					[
						103.8995301,
						1.4064163
					],
					[
						103.8988927,
						1.4064139
					],
					[
						103.8983198,
						1.4064117
					],
					[
						103.8980247,
						1.4063588
					],
					[
						103.8977656,
						1.4062334
					],
					[
						103.8976049,
						1.4060948
					],
					[
						103.8974968,
						1.4059817
					],
					[
						103.8974101,
						1.4057021
					],
					[
						103.8973209,
						1.4054143
					],
					[
						103.8970623,
						1.4045799
					],
					[
						103.8969505,
						1.4042193
					],
					[
						103.8969226,
						1.4040575
					],
					[
						103.8968493,
						1.4036317
					],
					[
						103.8968148,
						1.4034315
					],
					[
						103.8968007,
						1.4033497
					],
					[
						103.8972673,
						1.4032548
					],
					[
						103.8978836,
						1.4031294
					],
					[
						103.898025,
						1.4030792
					],
					[
						103.8985951,
						1.4028767
					],
					[
						103.8990054,
						1.402731
					],
					[
						103.899341,
						1.4026118
					],
					[
						103.8994589,
						1.40257
					],
					[
						103.8995708,
						1.402528
					],
					[
						103.8998329,
						1.4024298
					],
					[
						103.9007117,
						1.4021004
					],
					[
						103.9007224,
						1.4020954
					],
					[
						103.9014738,
						1.4017486
					],
					[
						103.9018309,
						1.401665
					],
					[
						103.9020063,
						1.4016867
					],
					[
						103.9021288,
						1.4017334
					],
					[
						103.9022845,
						1.4018834
					],
					[
						103.9025516,
						1.4023266
					],
					[
						103.902625,
						1.4024485
					],
					[
						103.9030206,
						1.4031051
					],
					[
						103.9023385,
						1.403489
					],
					[
						103.9022803,
						1.403755
					]
				]
			},
			"properties": {
				"styleUrl": "#busroute",
				"styleHash": "-2257368b",
				"stroke-opacity": 0.6039215686274509,
				"stroke": "#DA0FB1",
				"stroke-width": 4
			}
		}
	]
}