{
	"type": "FeatureCollection",
	"features": [
		{
			"type": "Feature",
			"geometry": {
				"type": "LineString",
				"coordinates": [
					[
						103.9029604,
						1.4049354
					],
					[
						103.9030291,
						1.404908
					],
					[
						103.9031157,
						1.4049051
					],
					[
						103.9032448,
						1.4049345
					],
					[
						103.9035373,
						1.4051406
					],
					[
						103.9037026,
						1.4052012
					],
					[
						103.9039478,
						1.4052008
					],
					[
						103.9042485,
						1.4051226
					],
					[
						103.9041188,
						1.4049052
					],
					[
						103.904065,
						1.404664
					],
					[
						103.9040846,
						1.4044572
					],
					[
						103.904158,
						1.4042799
					],
					[
						103.9042743,
						1.4041431
					],
					[
						103.9047149,
						1.4038694
					],
					[
						103.9053057,
						1.4035024
					],
					[
						103.9054243,
						1.4034287
					],
					[
						103.9057797,
						1.4032078
					],
					[
						103.9061551,
						1.4029693
					],
					[
						103.9062918,
						1.4028825
					],
					[
						103.9064002,
						1.4028034
					],
					[
						103.9067528,
						1.4025463
					],
					[
						103.9070226,
						1.4024364
					],
					[
						103.9071816,
						1.4023239
					],
					[
						103.9077748,
						1.4019241
					],
					[
						103.9079572,
						1.4018012
					],
					[
						103.9083695,
						1.4015098
					],
					[
						103.908612,
						1.4012195
					],
					[
						103.9088644,
						1.4010341
					],
					[
						103.9090361,
						1.4009081
					],
					[
						103.9092549,
						1.4008492
					],
					[
						103.9093448,
						1.4008161
					],
					[
						103.9095416,
						1.4006721
					],
					[
						103.9097884,
						1.4004558
					],
					[
						103.9099549,
						1.4003385
					],
					[
						103.9105344,
						1.3999303
					],
					[
						103.9106023,
						1.3998886
					],
					[
						103.9108711,
						1.3997235
					],
					[
						103.910988,
						1.3996374
					],
					[
						103.9113941,
						1.3992207
					],
					[
						103.9126182,
						1.3983366
					],
					[
						103.9128108,
						1.3982024
					],
					[
						103.9129244,
						1.3981232
					],
					[
						103.9130245,
						1.3980524
					],
					[
						103.9131496,
						1.397964
					],
					[
						103.9131578,
						1.3979582
					],
					[
						103.9132332,
						1.3979113
					],
					[
						103.9145795,
						1.3970622
					],
					[
						103.9146587,
						1.3970123
					],
					[
						103.9147318,
						1.3969596
					],
					[
						103.914773,
						1.3969299
					],
					[
						103.9154906,
						1.3964125
					],
					[
						103.9155638,
						1.3964011
					],
					[
						103.9156952,
						1.3963729
					],
					[
						103.9159521,
						1.3963265
					],
					[
						103.9160179,
						1.3962791
					],
					[
						103.9162992,
						1.3960716
					],
					[
						103.916456,
						1.3958481
					],
					[
						103.9165732,
						1.3957708
					],
					[
						103.9165831,
						1.3957643
					],
					[
						103.9167108,
						1.3956801
					],
					[
						103.9167576,
						1.3956492
					],
					[
						103.9167623,
						1.3956461
					],
					[
						103.9167737,
						1.3956386
					],
					[
						103.9168793,
						1.395569
					],
					[
						103.9169171,
						1.3955402
					],
					[
						103.9169473,
						1.3955172
					],
					[
						103.9170242,
						1.3954586
					],
					[
						103.9170943,
						1.3954053
					],
					[
						103.9171024,
						1.3953991
					],
					[
						103.917222,
						1.395308
					],
					[
						103.9177929,
						1.3949024
					],
					[
						103.9185839,
						1.3940905
					],
					[
						103.9209679,
						1.3924091
					],
					[
						103.9212294,
						1.3922057
					],
					[
						103.9214909,
						1.3919904
					],
					[
						103.9218713,
						1.3916075
					],
					[
						103.9221923,
						1.3912486
					],
					[
						103.9224419,
						1.3909255
					],
					[
						103.9226915,
						1.3905307
					],
					[
						103.9229174,
						1.3901
					],
					[
						103.9231798,
						1.3895126
					],
					[
						103.9234173,
						1.3889808
					],
					[
						103.9237013,
						1.3885318
					],
					[
						103.9234649,
						1.3881075
					],
					[
						103.9229418,
						1.3873657
					],
					[
						103.9225019,
						1.3867915
					],
					[
						103.9221096,
						1.3863368
					],
					[
						103.9217143,
						1.3859391
					],
					[
						103.9212983,
						1.3855802
					],
					[
						103.9208703,
						1.385317
					],
					[
						103.9204067,
						1.3850897
					],
					[
						103.9197529,
						1.3848384
					],
					[
						103.9193963,
						1.3847786
					],
					[
						103.9190515,
						1.384647
					],
					[
						103.9188019,
						1.3845035
					],
					[
						103.9185998,
						1.3843121
					],
					[
						103.9184244,
						1.3840509
					],
					[
						103.9181625,
						1.3834541
					],
					[
						103.9180863,
						1.3831302
					],
					[
						103.9178881,
						1.3827468
					],
					[
						103.9175358,
						1.3823108
					],
					[
						103.9167214,
						1.3814447
					],
					[
						103.9164922,
						1.381114
					],
					[
						103.9162062,
						1.3806023
					],
					[
						103.9160134,
						1.3803549
					],
					[
						103.9154912,
						1.3798247
					],
					[
						103.9152206,
						1.3795718
					],
					[
						103.9116261,
						1.3773547
					],
					[
						103.9110366,
						1.3769073
					],
					[
						103.9106598,
						1.3765573
					],
					[
						103.9103312,
						1.3761585
					],
					[
						103.9100413,
						1.3757015
					],
					[
						103.9097418,
						1.3751374
					],
					[
						103.9088778,
						1.3726125
					],
					[
						103.9068278,
						1.3662454
					],
					[
						103.9063146,
						1.3650189
					],
					[
						103.9048271,
						1.3621129
					],
					[
						103.9037745,
						1.3601427
					],
					[
						103.9027215,
						1.3582117
					],
					[
						103.9009425,
						1.3550441
					],
					[
						103.8988978,
						1.3500925
					],
					[
						103.8988371,
						1.3498929
					],
					[
						103.8986526,
						1.3490064
					],
					[
						103.8985958,
						1.3482052
					],
					[
						103.8986242,
						1.3475046
					],
					[
						103.8987294,
						1.3467881
					],
					[
						103.8988774,
						1.3461953
					],
					[
						103.8990424,
						1.3456267
					],
					[
						103.8990962,
						1.3453335
					],
					[
						103.8992522,
						1.3443678
					],
					[
						103.8991946,
						1.3433024
					],
					[
						103.8992118,
						1.3430216
					],
					[
						103.8991428,
						1.3425005
					],
					[
						103.8988839,
						1.3417999
					],
					[
						103.898182,
						1.340665
					],
					[
						103.8979604,
						1.3403644
					],
					[
						103.8978866,
						1.3401317
					],
					[
						103.8977838,
						1.3399496
					],
					[
						103.8975062,
						1.3394163
					],
					[
						103.8970921,
						1.3388237
					],
					[
						103.8966814,
						1.3382796
					],
					[
						103.896361,
						1.3379111
					],
					[
						103.8962278,
						1.3377579
					],
					[
						103.8957918,
						1.3373132
					],
					[
						103.8951143,
						1.3367025
					],
					[
						103.8942752,
						1.3360123
					],
					[
						103.89389,
						1.3357362
					],
					[
						103.8934787,
						1.3354369
					],
					[
						103.8927242,
						1.3350192
					],
					[
						103.8913499,
						1.334345
					],
					[
						103.8908761,
						1.3341591
					],
					[
						103.8905103,
						1.3340155
					],
					[
						103.8901513,
						1.3338986
					],
					[
						103.8897447,
						1.3337923
					],
					[
						103.8891004,
						1.3336044
					],
					[
						103.88897,
						1.3335663
					],
					[
						103.8889273,
						1.3337395
					],
					[
						103.8888908,
						1.3338914
					],
					[
						103.8887134,
						1.3339798
					],
					[
						103.8886073,
						1.3340466
					],
					[
						103.8885314,
						1.3341428
					],
					[
						103.8884933,
						1.3342709
					],
					[
						103.8883872,
						1.3345955
					],
					[
						103.8881708,
						1.3350182
					],
					[
						103.8880573,
						1.3353276
					]
				]
			},
			"properties": {
				"styleUrl": "#busroute",
				"styleHash": "-2257368b",
				"stroke-opacity": 0.6039215686274509,
				"stroke": "#DA0FB1",
				"stroke-width": 4
			}
		}
	]
}