{
	"type": "FeatureCollection",
	"features": [
		{
			"type": "Feature",
			"geometry": {
				"type": "LineString",
				"coordinates": [
					[
						103.888523,
						1.3349841
					],
					[
						103.88868,
						1.3346083
					],
					[
						103.8887691,
						1.3343179
					],
					[
						103.8888598,
						1.3341857
					],
					[
						103.8890301,
						1.3339654
					],
					[
						103.8891301,
						1.3338701
					],
					[
						103.8892193,
						1.3338157
					],
					[
						103.8893382,
						1.3337749
					],
					[
						103.8897447,
						1.3337923
					],
					[
						103.889811,
						1.3338097
					],
					[
						103.8901513,
						1.3338986
					],
					[
						103.8905103,
						1.3340155
					],
					[
						103.8908761,
						1.3341591
					],
					[
						103.8913499,
						1.334345
					],
					[
						103.8927242,
						1.3350192
					],
					[
						103.8934787,
						1.3354369
					],
					[
						103.89389,
						1.3357362
					],
					[
						103.8942752,
						1.3360123
					],
					[
						103.8951143,
						1.3367025
					],
					[
						103.8957918,
						1.3373132
					],
					[
						103.8962278,
						1.3377579
					],
					[
						103.8961402,
						1.3379504
					],
					[
						103.8961454,
						1.3380801
					],
					[
						103.8962536,
						1.338272
					],
					[
						103.8966042,
						1.3387234
					],
					[
						103.8971352,
						1.3394809
					],
					[
						103.8975444,
						1.3401371
					],
					[
						103.8976757,
						1.3403476
					],
					[
						103.8978297,
						1.3405405
					],
					[
						103.897944,
						1.3406622
					],
					[
						103.8980323,
						1.3408135
					],
					[
						103.8988258,
						1.3423825
					],
					[
						103.8988438,
						1.3424568
					],
					[
						103.898979,
						1.3430169
					],
					[
						103.899058,
						1.3435005
					],
					[
						103.8990039,
						1.3439312
					],
					[
						103.8989719,
						1.3443589
					],
					[
						103.8989478,
						1.3446898
					],
					[
						103.8988035,
						1.3451015
					],
					[
						103.898619,
						1.3455373
					],
					[
						103.8985629,
						1.3457068
					],
					[
						103.8984988,
						1.3458763
					],
					[
						103.8984827,
						1.3460781
					],
					[
						103.8984908,
						1.3463202
					],
					[
						103.8984736,
						1.3463603
					],
					[
						103.8984569,
						1.3464006
					],
					[
						103.8984405,
						1.3464411
					],
					[
						103.8984246,
						1.3464817
					],
					[
						103.898409,
						1.3465225
					],
					[
						103.8983939,
						1.3465634
					],
					[
						103.8983791,
						1.3466045
					],
					[
						103.8983647,
						1.3466457
					],
					[
						103.8983508,
						1.346687
					],
					[
						103.8983372,
						1.3467285
					],
					[
						103.8983241,
						1.3467701
					],
					[
						103.8983113,
						1.3468119
					],
					[
						103.898299,
						1.3468538
					],
					[
						103.898287,
						1.3468957
					],
					[
						103.8982755,
						1.3469378
					],
					[
						103.8982644,
						1.3469801
					],
					[
						103.8982537,
						1.3470224
					],
					[
						103.8982434,
						1.3470648
					],
					[
						103.8982335,
						1.3471073
					],
					[
						103.898224,
						1.34715
					],
					[
						103.898215,
						1.3471927
					],
					[
						103.8982063,
						1.3472355
					],
					[
						103.8981981,
						1.3472784
					],
					[
						103.8981903,
						1.3473213
					],
					[
						103.8981829,
						1.3473644
					],
					[
						103.8981759,
						1.3474075
					],
					[
						103.8981694,
						1.3474507
					],
					[
						103.8981633,
						1.3474939
					],
					[
						103.8981575,
						1.3475372
					],
					[
						103.8981523,
						1.3475805
					],
					[
						103.8981474,
						1.3476239
					],
					[
						103.8981429,
						1.3476674
					],
					[
						103.8981389,
						1.3477109
					],
					[
						103.8981353,
						1.3477544
					],
					[
						103.8981322,
						1.3477979
					],
					[
						103.8981294,
						1.3478415
					],
					[
						103.8981271,
						1.3478851
					],
					[
						103.8981252,
						1.3479288
					],
					[
						103.8981237,
						1.3479724
					],
					[
						103.8981226,
						1.3480161
					],
					[
						103.898122,
						1.3480598
					],
					[
						103.8981218,
						1.3481034
					],
					[
						103.898122,
						1.3481471
					],
					[
						103.8981226,
						1.3481908
					],
					[
						103.8981237,
						1.3482344
					],
					[
						103.8981252,
						1.3482781
					],
					[
						103.8981271,
						1.3483217
					],
					[
						103.8981295,
						1.3483653
					],
					[
						103.8981322,
						1.3484089
					],
					[
						103.8981354,
						1.3484525
					],
					[
						103.898139,
						1.348496
					],
					[
						103.898143,
						1.3485395
					],
					[
						103.8981475,
						1.3485829
					],
					[
						103.8981524,
						1.3486263
					],
					[
						103.8981577,
						1.3486697
					],
					[
						103.8981634,
						1.348713
					],
					[
						103.8981695,
						1.3487562
					],
					[
						103.8981761,
						1.3487994
					],
					[
						103.8981831,
						1.3488425
					],
					[
						103.8981905,
						1.3488855
					],
					[
						103.8981983,
						1.3489285
					],
					[
						103.8982065,
						1.3489714
					],
					[
						103.8982151,
						1.3490142
					],
					[
						103.8982242,
						1.3490569
					],
					[
						103.8982337,
						1.3490995
					],
					[
						103.8982436,
						1.349142
					],
					[
						103.8982539,
						1.3491845
					],
					[
						103.8982646,
						1.3492268
					],
					[
						103.8982757,
						1.349269
					],
					[
						103.8982873,
						1.3493111
					],
					[
						103.8982992,
						1.3493531
					],
					[
						103.8983116,
						1.349395
					],
					[
						103.8983243,
						1.3494367
					],
					[
						103.8983375,
						1.3494783
					],
					[
						103.8983511,
						1.3495198
					],
					[
						103.898365,
						1.3495612
					],
					[
						103.8983794,
						1.3496024
					],
					[
						103.8983942,
						1.3496434
					],
					[
						103.8997707,
						1.353144
					],
					[
						103.9007379,
						1.3553342
					],
					[
						103.9024865,
						1.3583407
					],
					[
						103.9033431,
						1.3598245
					],
					[
						103.9046489,
						1.3621098
					],
					[
						103.9061048,
						1.3649522
					],
					[
						103.9065617,
						1.366216
					],
					[
						103.9071361,
						1.3679746
					],
					[
						103.9085712,
						1.372457
					],
					[
						103.9091206,
						1.3739748
					],
					[
						103.9095318,
						1.3751109
					],
					[
						103.9097515,
						1.3755653
					],
					[
						103.9099544,
						1.375896
					],
					[
						103.9104569,
						1.3765864
					],
					[
						103.9109768,
						1.3770907
					],
					[
						103.9115971,
						1.3775589
					],
					[
						103.9129156,
						1.378479
					],
					[
						103.9135813,
						1.3789576
					],
					[
						103.9139237,
						1.3793213
					],
					[
						103.9140949,
						1.3796658
					],
					[
						103.9142851,
						1.3801252
					],
					[
						103.9143232,
						1.3805655
					],
					[
						103.9143993,
						1.3816375
					],
					[
						103.9144563,
						1.3819437
					],
					[
						103.9146466,
						1.382384
					],
					[
						103.9148938,
						1.3828051
					],
					[
						103.9151601,
						1.3830348
					],
					[
						103.9163964,
						1.3840493
					],
					[
						103.9173284,
						1.3846044
					],
					[
						103.9178039,
						1.3847767
					],
					[
						103.9186218,
						1.3849489
					],
					[
						103.9197059,
						1.3851403
					],
					[
						103.9203469,
						1.3853736
					],
					[
						103.9205999,
						1.3854657
					],
					[
						103.9211705,
						1.385772
					],
					[
						103.921684,
						1.3861931
					],
					[
						103.9223831,
						1.3868981
					],
					[
						103.9229061,
						1.387616
					],
					[
						103.9232865,
						1.3881424
					],
					[
						103.9233935,
						1.3884903
					],
					[
						103.9234411,
						1.3887296
					],
					[
						103.9234173,
						1.3889808
					],
					[
						103.9229237,
						1.3900858
					],
					[
						103.9229174,
						1.3901
					],
					[
						103.9226915,
						1.3905307
					],
					[
						103.9224419,
						1.3909255
					],
					[
						103.9221923,
						1.3912486
					],
					[
						103.9218713,
						1.3916075
					],
					[
						103.9214909,
						1.3919904
					],
					[
						103.9212294,
						1.3922057
					],
					[
						103.9209679,
						1.3924091
					],
					[
						103.9185839,
						1.3940905
					],
					[
						103.9177929,
						1.3949024
					],
					[
						103.917222,
						1.395308
					],
					[
						103.9171024,
						1.3953991
					],
					[
						103.9170943,
						1.3954053
					],
					[
						103.9170242,
						1.3954586
					],
					[
						103.9169473,
						1.3955172
					],
					[
						103.9169171,
						1.3955402
					],
					[
						103.9168793,
						1.395569
					],
					[
						103.9167737,
						1.3956386
					],
					[
						103.9167623,
						1.3956461
					],
					[
						103.9167576,
						1.3956492
					],
					[
						103.9167108,
						1.3956801
					],
					[
						103.9165831,
						1.3957643
					],
					[
						103.9165732,
						1.3957708
					],
					[
						103.916456,
						1.3958481
					],
					[
						103.9162992,
						1.3960716
					],
					[
						103.9160179,
						1.3962791
					],
					[
						103.9159521,
						1.3963265
					],
					[
						103.9156952,
						1.3963729
					],
					[
						103.9155638,
						1.3964011
					],
					[
						103.9154906,
						1.3964125
					],
					[
						103.9149047,
						1.3968349
					],
					[
						103.9147318,
						1.3969596
					],
					[
						103.9146587,
						1.3970123
					],
					[
						103.9145795,
						1.3970622
					],
					[
						103.9132332,
						1.3979113
					],
					[
						103.9131578,
						1.3979582
					],
					[
						103.9131496,
						1.397964
					],
					[
						103.9130245,
						1.3980524
					],
					[
						103.9129244,
						1.3981232
					],
					[
						103.9128108,
						1.3982024
					],
					[
						103.9126182,
						1.3983366
					],
					[
						103.9113941,
						1.3992207
					],
					[
						103.9111829,
						1.3992677
					],
					[
						103.9110444,
						1.3993234
					],
					[
						103.9110331,
						1.399328
					],
					[
						103.9108655,
						1.3994414
					],
					[
						103.9106822,
						1.3995785
					],
					[
						103.9106375,
						1.3996322
					],
					[
						103.9105823,
						1.3996726
					],
					[
						103.9099013,
						1.4001715
					],
					[
						103.9095685,
						1.4003845
					],
					[
						103.9094532,
						1.4004728
					],
					[
						103.9090361,
						1.4009081
					],
					[
						103.9088644,
						1.4010341
					],
					[
						103.908612,
						1.4012195
					],
					[
						103.9082047,
						1.4013734
					],
					[
						103.9077411,
						1.4016881
					],
					[
						103.9076437,
						1.4017572
					],
					[
						103.9075878,
						1.4017969
					],
					[
						103.9073622,
						1.4020408
					],
					[
						103.9069365,
						1.4023439
					],
					[
						103.9067528,
						1.4025463
					],
					[
						103.9064002,
						1.4028034
					],
					[
						103.9062918,
						1.4028825
					],
					[
						103.9061551,
						1.4029693
					],
					[
						103.9057797,
						1.4032078
					],
					[
						103.9055496,
						1.4033508
					],
					[
						103.9054243,
						1.4034287
					],
					[
						103.9053057,
						1.4035024
					],
					[
						103.9042743,
						1.4041431
					],
					[
						103.9039763,
						1.4043319
					],
					[
						103.9038169,
						1.4044328
					],
					[
						103.9038929,
						1.4045517
					],
					[
						103.9041188,
						1.4049052
					],
					[
						103.9041193,
						1.4050333
					],
					[
						103.9040637,
						1.4051173
					],
					[
						103.9039478,
						1.4052008
					],
					[
						103.9037026,
						1.4052012
					],
					[
						103.9035373,
						1.4051406
					],
					[
						103.9032448,
						1.4049345
					],
					[
						103.9031157,
						1.4049051
					],
					[
						103.9030291,
						1.404908
					],
					[
						103.9028112,
						1.404995
					],
					[
						103.9017257,
						1.4055869
					],
					[
						103.9016128,
						1.4056471
					]
				]
			},
			"properties": {
				"styleUrl": "#busroute",
				"styleHash": "-2257368b",
				"stroke-opacity": 0.6039215686274509,
				"stroke": "#DA0FB1",
				"stroke-width": 4
			}
		}
	]
}