{
	"type": "FeatureCollection",
	"features": [
		{
			"type": "Feature",
			"geometry": {
				"type": "LineString",
				"coordinates": [
					[
						103.9432469,
						1.3542058
					],
					[
						103.943024,
						1.3540015
					],
					[
						103.9429404,
						1.3541278
					],
					[
						103.9429683,
						1.3545418
					],
					[
						103.9430007,
						1.3546845
					],
					[
						103.9431879,
						1.3548789
					],
					[
						103.9431315,
						1.3550315
					],
					[
						103.9428873,
						1.3552516
					],
					[
						103.9427121,
						1.3554251
					],
					[
						103.942279,
						1.3558515
					],
					[
						103.9419904,
						1.3561391
					],
					[
						103.9415432,
						1.3565909
					],
					[
						103.9411149,
						1.3570236
					],
					[
						103.9410012,
						1.3571385
					],
					[
						103.9408832,
						1.3572576
					],
					[
						103.9403424,
						1.357804
					],
					[
						103.9401554,
						1.3579929
					],
					[
						103.9400572,
						1.3580922
					],
					[
						103.9399761,
						1.358173
					],
					[
						103.9397938,
						1.3583549
					],
					[
						103.9396193,
						1.3585289
					],
					[
						103.9394762,
						1.3586717
					],
					[
						103.9393482,
						1.3589346
					],
					[
						103.9393109,
						1.3593048
					],
					[
						103.9393199,
						1.360003
					],
					[
						103.939254,
						1.3601182
					],
					[
						103.9391835,
						1.360199
					],
					[
						103.9391081,
						1.360265
					],
					[
						103.9390303,
						1.3603067
					],
					[
						103.9388868,
						1.3603641
					],
					[
						103.9380737,
						1.3603673
					],
					[
						103.9380277,
						1.3627972
					],
					[
						103.9380337,
						1.3636107
					],
					[
						103.9380159,
						1.3638979
					],
					[
						103.9379683,
						1.3641551
					],
					[
						103.9378495,
						1.3644422
					],
					[
						103.937689,
						1.3647174
					],
					[
						103.9373443,
						1.3651541
					],
					[
						103.9360892,
						1.3668163
					],
					[
						103.9355737,
						1.3664827
					],
					[
						103.9351243,
						1.3663032
					],
					[
						103.9343255,
						1.3661166
					],
					[
						103.934161,
						1.3666224
					],
					[
						103.9338678,
						1.3671765
					],
					[
						103.9334123,
						1.3680375
					],
					[
						103.9333196,
						1.3685187
					],
					[
						103.9341696,
						1.3688379
					],
					[
						103.9350336,
						1.3691624
					],
					[
						103.9351296,
						1.3691984
					],
					[
						103.9355895,
						1.3694636
					],
					[
						103.9365483,
						1.3700165
					],
					[
						103.936648,
						1.3702115
					],
					[
						103.9366671,
						1.3704328
					],
					[
						103.936286,
						1.3711873
					],
					[
						103.9361285,
						1.3714242
					],
					[
						103.9359798,
						1.3715883
					],
					[
						103.9357658,
						1.3718036
					],
					[
						103.935395,
						1.372019
					],
					[
						103.9350455,
						1.3721913
					],
					[
						103.9346677,
						1.3723362
					],
					[
						103.9340571,
						1.3725705
					],
					[
						103.9338387,
						1.3726577
					],
					[
						103.9337367,
						1.3726984
					],
					[
						103.9335123,
						1.3727879
					],
					[
						103.933403,
						1.3728316
					],
					[
						103.9332947,
						1.3728772
					],
					[
						103.9331553,
						1.3729381
					],
					[
						103.9320355,
						1.3734271
					],
					[
						103.9316179,
						1.3736094
					],
					[
						103.9315121,
						1.3736094
					],
					[
						103.9314421,
						1.3735965
					],
					[
						103.9313263,
						1.3735519
					],
					[
						103.931272,
						1.3735548
					],
					[
						103.9312334,
						1.3735821
					],
					[
						103.9312119,
						1.3736224
					],
					[
						103.9312365,
						1.373681
					],
					[
						103.9312864,
						1.3737348
					],
					[
						103.9313589,
						1.3737439
					],
					[
						103.931445,
						1.3737165
					],
					[
						103.9316179,
						1.3736094
					],
					[
						103.9319604,
						1.3734599
					],
					[
						103.9331553,
						1.3729381
					],
					[
						103.9332947,
						1.3728772
					],
					[
						103.933403,
						1.3728316
					],
					[
						103.9335123,
						1.3727879
					],
					[
						103.9337367,
						1.3726984
					],
					[
						103.9338387,
						1.3726577
					],
					[
						103.9340571,
						1.3725705
					],
					[
						103.9342371,
						1.3725014
					],
					[
						103.9350455,
						1.3721913
					],
					[
						103.935395,
						1.372019
					],
					[
						103.9357658,
						1.3718036
					],
					[
						103.9359798,
						1.3715883
					],
					[
						103.9361285,
						1.3714242
					],
					[
						103.936286,
						1.3711873
					],
					[
						103.9366671,
						1.3704328
					],
					[
						103.936648,
						1.3702115
					],
					[
						103.9365483,
						1.3700165
					],
					[
						103.9355895,
						1.3694636
					],
					[
						103.9351296,
						1.3691984
					],
					[
						103.9349981,
						1.369149
					],
					[
						103.9341696,
						1.3688379
					],
					[
						103.9333196,
						1.3685187
					],
					[
						103.9334123,
						1.3680375
					],
					[
						103.9335958,
						1.3676907
					],
					[
						103.934161,
						1.3666224
					],
					[
						103.9343255,
						1.3661166
					],
					[
						103.9351243,
						1.3663032
					],
					[
						103.9355737,
						1.3664827
					],
					[
						103.9360892,
						1.3668163
					],
					[
						103.9373443,
						1.3651541
					],
					[
						103.937689,
						1.3647174
					],
					[
						103.9378495,
						1.3644422
					],
					[
						103.9379683,
						1.3641551
					],
					[
						103.9380159,
						1.3638979
					],
					[
						103.9380337,
						1.3636107
					],
					[
						103.9380277,
						1.3627972
					],
					[
						103.9380737,
						1.3603673
					],
					[
						103.9388868,
						1.3603641
					],
					[
						103.939188,
						1.3603629
					],
					[
						103.9393246,
						1.3603624
					],
					[
						103.9393227,
						1.3602136
					],
					[
						103.9393199,
						1.360003
					],
					[
						103.9393109,
						1.3593048
					],
					[
						103.9393482,
						1.3589346
					],
					[
						103.9394762,
						1.3586717
					],
					[
						103.9396193,
						1.3585289
					],
					[
						103.9397938,
						1.3583549
					],
					[
						103.9399761,
						1.358173
					],
					[
						103.9400572,
						1.3580922
					],
					[
						103.9401554,
						1.3579929
					],
					[
						103.9403424,
						1.357804
					],
					[
						103.9408832,
						1.3572576
					],
					[
						103.9410012,
						1.3571385
					],
					[
						103.9411149,
						1.3570236
					],
					[
						103.9415432,
						1.3565909
					],
					[
						103.9419904,
						1.3561391
					],
					[
						103.942279,
						1.3558515
					],
					[
						103.9427121,
						1.3554251
					],
					[
						103.9428873,
						1.3552516
					],
					[
						103.9431315,
						1.3550315
					],
					[
						103.9432504,
						1.3550554
					],
					[
						103.9433425,
						1.3550494
					],
					[
						103.9433989,
						1.3549716
					],
					[
						103.9434911,
						1.3548071
					],
					[
						103.9435862,
						1.3546725
					],
					[
						103.9436159,
						1.3545439
					],
					[
						103.9432436,
						1.3542027
					]
				]
			},
			"properties": {
				"styleUrl": "#busroute",
				"styleHash": "-2257368b",
				"stroke-opacity": 0.6039215686274509,
				"stroke": "#DA0FB1",
				"stroke-width": 4
			}
		}
	]
}