{
	"type": "FeatureCollection",
	"features": [
		{
			"type": "Feature",
			"geometry": {
				"type": "LineString",
				"coordinates": [
					[
						103.8332021,
						1.4171096
					],
					[
						103.8316075,
						1.4139047
					],
					[
						103.830023,
						1.41072
					],
					[
						103.8300264,
						1.410455
					],
					[
						103.8300589,
						1.410343
					],
					[
						103.8301176,
						1.4102423
					],
					[
						103.8302468,
						1.4101259
					],
					[
						103.8305117,
						1.4100201
					],
					[
						103.8308485,
						1.4100377
					],
					[
						103.8308846,
						1.4100396
					],
					[
						103.8309324,
						1.410047
					],
					[
						103.8311037,
						1.4100735
					],
					[
						103.831368,
						1.4101144
					],
					[
						103.8319284,
						1.4102881
					],
					[
						103.8322336,
						1.410433
					],
					[
						103.8325173,
						1.4105973
					],
					[
						103.8330536,
						1.4110098
					],
					[
						103.8331729,
						1.4111015
					],
					[
						103.8335669,
						1.4113567
					],
					[
						103.8337137,
						1.4114519
					],
					[
						103.8341099,
						1.4116435
					],
					[
						103.8344247,
						1.4117629
					],
					[
						103.8346443,
						1.4118248
					],
					[
						103.8347426,
						1.4118525
					],
					[
						103.8360585,
						1.4121794
					],
					[
						103.8361323,
						1.4121978
					],
					[
						103.8362087,
						1.4122168
					],
					[
						103.836656,
						1.4123279
					],
					[
						103.8366576,
						1.4123283
					],
					[
						103.8371461,
						1.4124496
					],
					[
						103.8371506,
						1.412451
					],
					[
						103.8374291,
						1.4125311
					],
					[
						103.8378236,
						1.4126447
					],
					[
						103.8387686,
						1.4129601
					],
					[
						103.8389528,
						1.4130216
					],
					[
						103.8390372,
						1.4130498
					],
					[
						103.8391081,
						1.4130734
					],
					[
						103.8391704,
						1.4130948
					],
					[
						103.8392434,
						1.4131198
					],
					[
						103.8394595,
						1.4131937
					],
					[
						103.8403332,
						1.4134928
					],
					[
						103.8408218,
						1.4136823
					],
					[
						103.8426627,
						1.4144716
					],
					[
						103.8427273,
						1.4144993
					],
					[
						103.8431267,
						1.4146706
					],
					[
						103.8434322,
						1.4148016
					],
					[
						103.8434943,
						1.4148282
					],
					[
						103.8439207,
						1.4150119
					],
					[
						103.8444545,
						1.415242
					],
					[
						103.8451775,
						1.4158147
					],
					[
						103.8454875,
						1.4162375
					],
					[
						103.8456723,
						1.4165726
					],
					[
						103.8460074,
						1.4174113
					],
					[
						103.8463146,
						1.4179757
					],
					[
						103.8463544,
						1.4180396
					],
					[
						103.8464757,
						1.4182032
					],
					[
						103.8465978,
						1.4183682
					],
					[
						103.8467237,
						1.4184829
					],
					[
						103.8467789,
						1.4185432
					],
					[
						103.8470574,
						1.4188471
					],
					[
						103.8471373,
						1.418921
					],
					[
						103.8475805,
						1.4193304
					],
					[
						103.8477772,
						1.4195507
					],
					[
						103.8480865,
						1.419897
					],
					[
						103.8481298,
						1.4199455
					],
					[
						103.8481798,
						1.4200015
					],
					[
						103.8482684,
						1.4201006
					],
					[
						103.8484721,
						1.4203288
					],
					[
						103.8493563,
						1.4213097
					],
					[
						103.8494032,
						1.4213616
					],
					[
						103.8498891,
						1.4219007
					],
					[
						103.8500163,
						1.4220418
					],
					[
						103.8500669,
						1.422098
					],
					[
						103.8501711,
						1.4221797
					],
					[
						103.8503211,
						1.4222973
					],
					[
						103.8510339,
						1.4228563
					],
					[
						103.851675,
						1.4234148
					],
					[
						103.8518752,
						1.4235892
					],
					[
						103.852142,
						1.4238662
					],
					[
						103.8525606,
						1.4243008
					],
					[
						103.8527523,
						1.4245481
					],
					[
						103.8527748,
						1.4247234
					],
					[
						103.8527883,
						1.424798
					],
					[
						103.8527973,
						1.4248839
					],
					[
						103.8527849,
						1.424971
					],
					[
						103.8527636,
						1.4251257
					],
					[
						103.8525215,
						1.4252908
					],
					[
						103.8523379,
						1.4254161
					],
					[
						103.8520565,
						1.4256486
					],
					[
						103.8518154,
						1.4258208
					],
					[
						103.8519394,
						1.4260372
					],
					[
						103.8519809,
						1.4261316
					],
					[
						103.8520428,
						1.4263246
					],
					[
						103.8520761,
						1.4265017
					],
					[
						103.8520108,
						1.4267848
					],
					[
						103.8520177,
						1.4269579
					],
					[
						103.8520308,
						1.4272838
					],
					[
						103.8520118,
						1.4275422
					],
					[
						103.8519262,
						1.4277528
					],
					[
						103.8515955,
						1.4280749
					],
					[
						103.8513332,
						1.4283304
					],
					[
						103.8511029,
						1.4285547
					],
					[
						103.850909,
						1.4287435
					],
					[
						103.850747,
						1.4289013
					],
					[
						103.8505092,
						1.4290545
					],
					[
						103.8502429,
						1.4291215
					],
					[
						103.85007,
						1.429113
					],
					[
						103.849857,
						1.4291026
					],
					[
						103.8496342,
						1.4289765
					],
					[
						103.8495324,
						1.4288578
					],
					[
						103.8494706,
						1.4287286
					],
					[
						103.849487,
						1.4283141
					],
					[
						103.8495036,
						1.4278974
					],
					[
						103.8495236,
						1.4273933
					],
					[
						103.8495296,
						1.4272419
					],
					[
						103.8495628,
						1.4264049
					]
				]
			},
			"properties": {
				"styleUrl": "#busroute",
				"styleHash": "-2257368b",
				"stroke-opacity": 0.6039215686274509,
				"stroke": "#DA0FB1",
				"stroke-width": 4
			}
		}
	]
}