{
	"type": "FeatureCollection",
	"features": [
		{
			"type": "Feature",
			"geometry": {
				"type": "GeometryCollection",
				"geometries": [
					{
						"type": "LineString",
						"coordinates": [
							[
								103.8328964,
								1.4186274
							],
							[
								103.8337423,
								1.4181954
							],
							[
								103.8347459,
								1.4176938
							],
							[
								103.8350832,
								1.4175253
							]
						]
					},
					{
						"type": "LineString",
						"coordinates": [
							[
								103.8350832,
								1.4175253
							],
							[
								103.8357598,
								1.4171872
							],
							[
								103.8357764,
								1.4171804
							],
							[
								103.8359171,
								1.4171229
							],
							[
								103.8360861,
								1.417094
							],
							[
								103.8362573,
								1.4171037
							],
							[
								103.8364224,
								1.4171513
							],
							[
								103.8372108,
								1.4174733
							],
							[
								103.8377284,
								1.4176846
							]
						]
					},
					{
						"type": "LineString",
						"coordinates": [
							[
								103.8377284,
								1.4176846
							],
							[
								103.8379994,
								1.4177953
							],
							[
								103.8387242,
								1.4180912
							],
							[
								103.8388244,
								1.4181319
							],
							[
								103.8392035,
								1.4182859
							],
							[
								103.8393602,
								1.4183164
							],
							[
								103.8395198,
								1.4183143
							],
							[
								103.8397509,
								1.4182539
							],
							[
								103.840438,
								1.4179612
							],
							[
								103.8408208,
								1.4177969
							],
							[
								103.8410175,
								1.4177125
							],
							[
								103.8413068,
								1.4176122
							],
							[
								103.8416637,
								1.4175781
							],
							[
								103.8419239,
								1.4176132
							],
							[
								103.842288,
								1.4177589
							],
							[
								103.8427107,
								1.4180559
							],
							[
								103.8427837,
								1.4181275
							]
						]
					},
					{
						"type": "LineString",
						"coordinates": [
							[
								103.8427837,
								1.4181275
							],
							[
								103.8430668,
								1.418405
							],
							[
								103.8433457,
								1.4187316
							],
							[
								103.8434637,
								1.4189162
							],
							[
								103.843626,
								1.4192374
							],
							[
								103.8436591,
								1.419337
							],
							[
								103.8437438,
								1.4195916
							],
							[
								103.8437604,
								1.4196858
							],
							[
								103.8438198,
								1.4200226
							],
							[
								103.8438286,
								1.4203239
							],
							[
								103.8438139,
								1.4207285
							]
						]
					},
					{
						"type": "LineString",
						"coordinates": [
							[
								103.8438139,
								1.4207285
							],
							[
								103.8437943,
								1.4212682
							],
							[
								103.8437744,
								1.4218158
							],
							[
								103.8437606,
								1.4221958
							],
							[
								103.8437553,
								1.4223434
							],
							[
								103.8437801,
								1.4225017
							],
							[
								103.8438206,
								1.4227589
							],
							[
								103.8439137,
								1.4230214
							],
							[
								103.8440155,
								1.4231987
							]
						]
					}
				]
			},
			"properties": {
				"styleUrl": "#busroute",
				"styleHash": "-2257368b",
				"stroke-opacity": 0.6039215686274509,
				"stroke": "#DA0FB1",
				"stroke-width": 4
			}
		}
	]
}