{
	"type": "FeatureCollection",
	"features": [
		{
			"type": "Feature",
			"geometry": {
				"type": "LineString",
				"coordinates": [
					[
						103.785836,
						1.436543
					],
					[
						103.7865379,
						1.4367991
					],
					[
						103.7866782,
						1.4367441
					],
					[
						103.7867971,
						1.4367656
					],
					[
						103.7873843,
						1.436981
					],
					[
						103.7874152,
						1.4370264
					],
					[
						103.7874025,
						1.4370946
					],
					[
						103.7872646,
						1.4374512
					],
					[
						103.787141,
						1.4377549
					],
					[
						103.7878458,
						1.4380099
					],
					[
						103.7883468,
						1.4381974
					],
					[
						103.7886572,
						1.4382417
					],
					[
						103.7888949,
						1.4381583
					],
					[
						103.7889362,
						1.4380145
					],
					[
						103.7890028,
						1.4377827
					],
					[
						103.789015,
						1.4376652
					],
					[
						103.7890342,
						1.4373642
					],
					[
						103.789008,
						1.4370011
					],
					[
						103.7886661,
						1.435578
					],
					[
						103.7886115,
						1.4353589
					],
					[
						103.7885351,
						1.4351023
					],
					[
						103.7884733,
						1.4348945
					],
					[
						103.788342,
						1.434864
					],
					[
						103.787929,
						1.4347682
					],
					[
						103.7877978,
						1.4347339
					],
					[
						103.7875675,
						1.4346718
					],
					[
						103.7868454,
						1.4344772
					],
					[
						103.7864219,
						1.4343927
					],
					[
						103.7863667,
						1.4343895
					],
					[
						103.7859919,
						1.4343548
					],
					[
						103.78555,
						1.4343729
					],
					[
						103.7852469,
						1.4344028
					],
					[
						103.7851875,
						1.4344148
					],
					[
						103.7849081,
						1.4344686
					],
					[
						103.7848259,
						1.434492
					],
					[
						103.7847122,
						1.4345194
					],
					[
						103.7846564,
						1.4345393
					],
					[
						103.7843055,
						1.4346649
					],
					[
						103.7841797,
						1.4347278
					],
					[
						103.7837932,
						1.4349211
					],
					[
						103.7833107,
						1.4350592
					],
					[
						103.7832143,
						1.4350568
					],
					[
						103.7828839,
						1.4349622
					],
					[
						103.7824386,
						1.4345148
					],
					[
						103.7823905,
						1.4344664
					],
					[
						103.781562,
						1.4353013
					],
					[
						103.781275,
						1.4355906
					],
					[
						103.781001,
						1.4358667
					],
					[
						103.7807813,
						1.4360629
					],
					[
						103.7805639,
						1.4361793
					],
					[
						103.7803664,
						1.4362205
					],
					[
						103.7800799,
						1.4361848
					],
					[
						103.7798186,
						1.4360526
					],
					[
						103.7792507,
						1.4356309
					],
					[
						103.7790623,
						1.4355323
					],
					[
						103.7788597,
						1.4354676
					],
					[
						103.7782916,
						1.4353821
					],
					[
						103.7781083,
						1.4353245
					],
					[
						103.77799,
						1.4352647
					],
					[
						103.7779369,
						1.4352378
					],
					[
						103.7777507,
						1.4350899
					],
					[
						103.7777105,
						1.4350579
					],
					[
						103.7774568,
						1.4348047
					],
					[
						103.7770813,
						1.4344299
					],
					[
						103.7768676,
						1.4343067
					],
					[
						103.7766671,
						1.4342569
					],
					[
						103.776396,
						1.4342728
					],
					[
						103.7762253,
						1.4343342
					],
					[
						103.7760452,
						1.4344625
					],
					[
						103.7755767,
						1.4349397
					],
					[
						103.7752828,
						1.435239
					],
					[
						103.7752635,
						1.4352587
					],
					[
						103.7752174,
						1.435374
					],
					[
						103.7751772,
						1.4356158
					],
					[
						103.7751312,
						1.4358934
					],
					[
						103.7750817,
						1.4360506
					],
					[
						103.774975,
						1.4362054
					],
					[
						103.7748306,
						1.4363024
					],
					[
						103.774772,
						1.4363418
					],
					[
						103.7745556,
						1.4363848
					],
					[
						103.7741085,
						1.4363842
					],
					[
						103.7734041,
						1.4363832
					],
					[
						103.7727495,
						1.4363822
					],
					[
						103.7726176,
						1.4363478
					],
					[
						103.7720492,
						1.4360966
					],
					[
						103.7718637,
						1.436442
					],
					[
						103.7713735,
						1.4371157
					],
					[
						103.7711827,
						1.4373924
					],
					[
						103.7710914,
						1.4376993
					],
					[
						103.7710843,
						1.4380463
					],
					[
						103.7710742,
						1.4385438
					],
					[
						103.771058,
						1.4393356
					],
					[
						103.770999,
						1.4394707
					],
					[
						103.7709047,
						1.4395917
					],
					[
						103.7708105,
						1.4396549
					],
					[
						103.7706086,
						1.4397259
					],
					[
						103.7699225,
						1.4397047
					],
					[
						103.769273,
						1.4396908
					],
					[
						103.7691624,
						1.4398289
					],
					[
						103.7690881,
						1.4400203
					],
					[
						103.7690554,
						1.4401639
					],
					[
						103.768993,
						1.4402386
					],
					[
						103.768886,
						1.4403194
					],
					[
						103.7687137,
						1.440457
					],
					[
						103.7686423,
						1.4405587
					],
					[
						103.7686156,
						1.4407322
					],
					[
						103.7686516,
						1.4409371
					],
					[
						103.7687675,
						1.441228
					],
					[
						103.768916,
						1.4416007
					],
					[
						103.7689389,
						1.4416617
					],
					[
						103.7693445,
						1.4427452
					],
					[
						103.7694103,
						1.4428373
					],
					[
						103.7695601,
						1.4430472
					],
					[
						103.7696683,
						1.4431432
					],
					[
						103.7698036,
						1.4432633
					],
					[
						103.7700211,
						1.4433568
					],
					[
						103.770245,
						1.4433675
					],
					[
						103.7704864,
						1.4432968
					],
					[
						103.7706927,
						1.4431476
					],
					[
						103.770795,
						1.4430115
					],
					[
						103.7709709,
						1.4426171
					],
					[
						103.7709403,
						1.4418147
					],
					[
						103.7709231,
						1.4413639
					],
					[
						103.7709457,
						1.4411506
					],
					[
						103.7709478,
						1.4411284
					],
					[
						103.7710055,
						1.4409979
					],
					[
						103.7710549,
						1.4405318
					],
					[
						103.7710644,
						1.4401221
					],
					[
						103.7710253,
						1.4397442
					],
					[
						103.771058,
						1.4393356
					],
					[
						103.7710742,
						1.4385438
					],
					[
						103.771086,
						1.4379672
					],
					[
						103.7710914,
						1.4376993
					],
					[
						103.7711827,
						1.4373924
					],
					[
						103.7713735,
						1.4371157
					],
					[
						103.7718637,
						1.436442
					],
					[
						103.7720492,
						1.4360966
					],
					[
						103.7726176,
						1.4363478
					],
					[
						103.7727495,
						1.4363822
					],
					[
						103.7734041,
						1.4363832
					],
					[
						103.7737964,
						1.4363837
					],
					[
						103.7745556,
						1.4363848
					],
					[
						103.774772,
						1.4363418
					],
					[
						103.7748306,
						1.4363024
					],
					[
						103.774975,
						1.4362054
					],
					[
						103.7750817,
						1.4360506
					],
					[
						103.7751312,
						1.4358934
					],
					[
						103.7751772,
						1.4356158
					],
					[
						103.7752174,
						1.435374
					],
					[
						103.7752635,
						1.4352587
					],
					[
						103.7752828,
						1.435239
					],
					[
						103.7758056,
						1.4347065
					],
					[
						103.7760452,
						1.4344625
					],
					[
						103.7762253,
						1.4343342
					],
					[
						103.776396,
						1.4342728
					],
					[
						103.7766671,
						1.4342569
					],
					[
						103.7768676,
						1.4343067
					],
					[
						103.7770813,
						1.4344299
					],
					[
						103.7772265,
						1.4345748
					],
					[
						103.7777105,
						1.4350579
					],
					[
						103.7777507,
						1.4350899
					],
					[
						103.7779369,
						1.4352378
					],
					[
						103.77799,
						1.4352647
					],
					[
						103.7781083,
						1.4353245
					],
					[
						103.7782916,
						1.4353821
					],
					[
						103.7788597,
						1.4354676
					],
					[
						103.7790623,
						1.4355323
					],
					[
						103.7792507,
						1.4356309
					],
					[
						103.7798186,
						1.4360526
					],
					[
						103.7800799,
						1.4361848
					],
					[
						103.7803664,
						1.4362205
					],
					[
						103.7805639,
						1.4361793
					],
					[
						103.7807813,
						1.4360629
					],
					[
						103.781001,
						1.4358667
					],
					[
						103.781275,
						1.4355906
					],
					[
						103.7815798,
						1.4352835
					],
					[
						103.7823905,
						1.4344664
					],
					[
						103.7824386,
						1.4345148
					],
					[
						103.7828839,
						1.4349622
					],
					[
						103.782922,
						1.4350004
					],
					[
						103.7832502,
						1.4352378
					],
					[
						103.783268,
						1.4352506
					],
					[
						103.7833104,
						1.4352813
					],
					[
						103.7834936,
						1.4355085
					],
					[
						103.7839702,
						1.4357083
					],
					[
						103.7850144,
						1.4361218
					],
					[
						103.7850277,
						1.4361716
					],
					[
						103.7850163,
						1.4362439
					],
					[
						103.7865379,
						1.4367991
					],
					[
						103.7866782,
						1.4367441
					],
					[
						103.7867971,
						1.4367656
					],
					[
						103.7873843,
						1.436981
					],
					[
						103.7874152,
						1.4370264
					],
					[
						103.7874025,
						1.4370946
					],
					[
						103.7872646,
						1.4374512
					],
					[
						103.7868704,
						1.4373058
					]
				]
			},
			"properties": {
				"styleUrl": "#busroute",
				"styleHash": "-2257368b",
				"stroke-opacity": 0.6039215686274509,
				"stroke": "#DA0FB1",
				"stroke-width": 4
			}
		}
	]
}