{
	"type": "FeatureCollection",
	"features": [
		{
			"type": "Feature",
			"geometry": {
				"type": "LineString",
				"coordinates": [
					[
						103.8921378,
						1.3837398
					],
					[
						103.8922183,
						1.3840302
					],
					[
						103.8925642,
						1.3842383
					],
					[
						103.8932251,
						1.3843957
					],
					[
						103.8933611,
						1.385086
					],
					[
						103.8935231,
						1.3856018
					],
					[
						103.8935955,
						1.3858323
					],
					[
						103.8937458,
						1.3863106
					],
					[
						103.8936848,
						1.3864357
					],
					[
						103.8935687,
						1.3865847
					],
					[
						103.8934613,
						1.3866788
					],
					[
						103.8928503,
						1.3866586
					],
					[
						103.8926876,
						1.3866365
					],
					[
						103.8923808,
						1.3865948
					],
					[
						103.8921972,
						1.3865806
					],
					[
						103.8918258,
						1.3865632
					],
					[
						103.8915531,
						1.3865695
					],
					[
						103.891439,
						1.3865662
					],
					[
						103.8913308,
						1.3865629
					],
					[
						103.891365,
						1.3866717
					],
					[
						103.8915063,
						1.3871217
					],
					[
						103.8916287,
						1.3874606
					],
					[
						103.8918828,
						1.3881874
					],
					[
						103.8919852,
						1.3884803
					],
					[
						103.8922137,
						1.3891678
					],
					[
						103.8922927,
						1.3894043
					],
					[
						103.8923289,
						1.3895124
					],
					[
						103.8923452,
						1.3895615
					],
					[
						103.8923629,
						1.3896127
					],
					[
						103.8924577,
						1.3898874
					],
					[
						103.8928464,
						1.3909419
					],
					[
						103.8929011,
						1.3911383
					],
					[
						103.8929495,
						1.3913126
					],
					[
						103.8931138,
						1.3917706
					],
					[
						103.8931911,
						1.3919984
					],
					[
						103.8935201,
						1.3929677
					],
					[
						103.8935821,
						1.3931475
					],
					[
						103.8936496,
						1.3933433
					],
					[
						103.8938166,
						1.3932853
					],
					[
						103.8941006,
						1.3931867
					],
					[
						103.8943995,
						1.3930865
					],
					[
						103.8951462,
						1.3928231
					],
					[
						103.895273,
						1.3927791
					],
					[
						103.8966675,
						1.3922943
					],
					[
						103.8972364,
						1.3920964
					],
					[
						103.8974513,
						1.3920254
					],
					[
						103.8978361,
						1.3920832
					],
					[
						103.8980808,
						1.3921955
					],
					[
						103.8984236,
						1.3931529
					],
					[
						103.8986269,
						1.3937212
					],
					[
						103.8986806,
						1.3938713
					],
					[
						103.8989422,
						1.3946018
					],
					[
						103.8990257,
						1.394829
					],
					[
						103.8990705,
						1.3949509
					],
					[
						103.8992301,
						1.3949183
					],
					[
						103.8994588,
						1.3948716
					],
					[
						103.9001599,
						1.394627
					],
					[
						103.900429,
						1.3945267
					],
					[
						103.9010312,
						1.3943023
					],
					[
						103.9012719,
						1.3943037
					],
					[
						103.9014335,
						1.394356
					],
					[
						103.9017294,
						1.3946078
					],
					[
						103.9019991,
						1.3948656
					],
					[
						103.9021636,
						1.3950228
					],
					[
						103.9022896,
						1.3951484
					],
					[
						103.9024889,
						1.3953464
					],
					[
						103.9029047,
						1.3957856
					],
					[
						103.9030619,
						1.39602
					],
					[
						103.9031027,
						1.3962533
					],
					[
						103.9031027,
						1.3963905
					],
					[
						103.9030686,
						1.396562
					],
					[
						103.9029254,
						1.396809
					],
					[
						103.9023927,
						1.3971886
					],
					[
						103.902236,
						1.3973003
					],
					[
						103.9009807,
						1.3980319
					],
					[
						103.8998142,
						1.3984757
					],
					[
						103.8989016,
						1.3988273
					],
					[
						103.8967414,
						1.3992919
					],
					[
						103.8957883,
						1.3994208
					],
					[
						103.8951766,
						1.399564
					],
					[
						103.8926373,
						1.40033
					],
					[
						103.891144,
						1.4005681
					],
					[
						103.888905,
						1.400868
					],
					[
						103.8872034,
						1.4010489
					],
					[
						103.8860962,
						1.4011393
					],
					[
						103.8858659,
						1.4011581
					],
					[
						103.8849114,
						1.4012089
					],
					[
						103.8837872,
						1.4012505
					],
					[
						103.8834142,
						1.4012523
					],
					[
						103.8823888,
						1.4012453
					],
					[
						103.8759864,
						1.4011164
					],
					[
						103.8740025,
						1.4010731
					],
					[
						103.8713087,
						1.4010142
					],
					[
						103.8633315,
						1.4008398
					],
					[
						103.8602931,
						1.4007788
					],
					[
						103.8595662,
						1.4006982
					],
					[
						103.8591126,
						1.4006288
					],
					[
						103.8585007,
						1.4004977
					],
					[
						103.8576362,
						1.4002196
					],
					[
						103.8571152,
						1.4000051
					],
					[
						103.8566612,
						1.399731
					],
					[
						103.8557375,
						1.399143
					],
					[
						103.8549559,
						1.3985431
					],
					[
						103.8547447,
						1.3983752
					],
					[
						103.8545374,
						1.3981537
					],
					[
						103.8536684,
						1.3972337
					],
					[
						103.8532617,
						1.3969165
					],
					[
						103.8528575,
						1.3966772
					],
					[
						103.8523583,
						1.3964738
					],
					[
						103.8518787,
						1.3963589
					],
					[
						103.8506874,
						1.3962727
					],
					[
						103.8496661,
						1.3962811
					],
					[
						103.8483952,
						1.396414
					],
					[
						103.8456443,
						1.396527
					],
					[
						103.8445656,
						1.3964918
					],
					[
						103.8434892,
						1.3964055
					],
					[
						103.8423403,
						1.3962507
					],
					[
						103.8413317,
						1.3960631
					],
					[
						103.840134,
						1.3958051
					],
					[
						103.8373128,
						1.3950985
					],
					[
						103.8358729,
						1.3945645
					],
					[
						103.8352407,
						1.3942984
					],
					[
						103.8348873,
						1.3940671
					],
					[
						103.8342256,
						1.3935246
					],
					[
						103.8339925,
						1.393393
					],
					[
						103.8336603,
						1.3933028
					],
					[
						103.8335172,
						1.3932924
					],
					[
						103.8332315,
						1.3933151
					],
					[
						103.8330136,
						1.3933856
					],
					[
						103.8327495,
						1.393534
					],
					[
						103.8326292,
						1.3936264
					],
					[
						103.8324173,
						1.3938435
					],
					[
						103.8322416,
						1.3942476
					],
					[
						103.8321247,
						1.3947123
					],
					[
						103.8309262,
						1.3959876
					],
					[
						103.8304589,
						1.3964741
					],
					[
						103.8301467,
						1.3967992
					],
					[
						103.8291649,
						1.3978791
					],
					[
						103.8286197,
						1.398737
					],
					[
						103.8285168,
						1.3989597
					],
					[
						103.8283272,
						1.3993697
					],
					[
						103.8280183,
						1.400038
					],
					[
						103.8277224,
						1.4009197
					],
					[
						103.8276343,
						1.4014663
					],
					[
						103.8274408,
						1.4026663
					],
					[
						103.8274543,
						1.4041567
					],
					[
						103.8274945,
						1.4045653
					],
					[
						103.8277557,
						1.4059081
					],
					[
						103.8278356,
						1.4061948
					],
					[
						103.8281677,
						1.4069614
					],
					[
						103.8285161,
						1.4076634
					],
					[
						103.8288533,
						1.4089132
					],
					[
						103.8290312,
						1.4092557
					],
					[
						103.829059,
						1.4093092
					],
					[
						103.8292492,
						1.4095198
					],
					[
						103.8294796,
						1.4096042
					],
					[
						103.829678,
						1.410004
					],
					[
						103.8297137,
						1.4100758
					],
					[
						103.8297487,
						1.4101488
					],
					[
						103.830023,
						1.41072
					],
					[
						103.8310051,
						1.412694
					],
					[
						103.8316075,
						1.4139047
					],
					[
						103.8327394,
						1.4161797
					],
					[
						103.8337014,
						1.4181133
					],
					[
						103.8337423,
						1.4181954
					],
					[
						103.8344314,
						1.4195915
					],
					[
						103.8345444,
						1.4198204
					],
					[
						103.8347803,
						1.4204911
					],
					[
						103.8348571,
						1.42084
					],
					[
						103.8349043,
						1.4211938
					],
					[
						103.8349075,
						1.4212538
					],
					[
						103.8349727,
						1.4224644
					],
					[
						103.8349958,
						1.4227707
					],
					[
						103.8350057,
						1.4229013
					],
					[
						103.835015,
						1.4230353
					],
					[
						103.8350327,
						1.4232893
					],
					[
						103.8350813,
						1.4244482
					],
					[
						103.8350897,
						1.4246571
					],
					[
						103.8350941,
						1.4247663
					],
					[
						103.8350985,
						1.4248671
					],
					[
						103.8351137,
						1.4252175
					],
					[
						103.8351313,
						1.4255548
					],
					[
						103.8351933,
						1.4267463
					],
					[
						103.8352529,
						1.4278893
					],
					[
						103.8352617,
						1.4280599
					],
					[
						103.8352663,
						1.4281482
					],
					[
						103.8352999,
						1.4287935
					],
					[
						103.8353171,
						1.4291221
					],
					[
						103.8353241,
						1.4292575
					],
					[
						103.8353646,
						1.4300353
					],
					[
						103.835365,
						1.4302716
					],
					[
						103.8353651,
						1.4303982
					],
					[
						103.8353646,
						1.4305147
					],
					[
						103.8353633,
						1.4307801
					],
					[
						103.8353178,
						1.4313473
					],
					[
						103.8352648,
						1.4316779
					],
					[
						103.8351994,
						1.4320854
					],
					[
						103.8346149,
						1.43458
					],
					[
						103.8345818,
						1.4347213
					],
					[
						103.8345545,
						1.434834
					],
					[
						103.834393,
						1.4354988
					],
					[
						103.8341279,
						1.4362088
					],
					[
						103.8338715,
						1.436716
					],
					[
						103.8338315,
						1.4367822
					],
					[
						103.8330942,
						1.4379994
					],
					[
						103.8329473,
						1.438075
					],
					[
						103.8327864,
						1.4381257
					],
					[
						103.8325345,
						1.4381492
					],
					[
						103.8315233,
						1.4377205
					],
					[
						103.8311014,
						1.4375417
					],
					[
						103.830795,
						1.4374118
					],
					[
						103.8307093,
						1.4373755
					],
					[
						103.8305094,
						1.4372907
					],
					[
						103.830435,
						1.4372592
					],
					[
						103.8296951,
						1.4369455
					],
					[
						103.8294409,
						1.4368377
					],
					[
						103.8287368,
						1.4365392
					],
					[
						103.8284883,
						1.4364332
					],
					[
						103.8278624,
						1.436166
					],
					[
						103.8266553,
						1.4356508
					],
					[
						103.8260087,
						1.4353994
					],
					[
						103.8258972,
						1.435356
					],
					[
						103.8257996,
						1.4353286
					],
					[
						103.8254336,
						1.4352256
					],
					[
						103.8251049,
						1.4351471
					],
					[
						103.824752,
						1.4350902
					],
					[
						103.8244826,
						1.4350794
					],
					[
						103.8241567,
						1.4351012
					],
					[
						103.8238657,
						1.435169
					],
					[
						103.823529,
						1.4352829
					],
					[
						103.8232732,
						1.435431
					],
					[
						103.823008,
						1.435605
					],
					[
						103.8227991,
						1.4357786
					],
					[
						103.8225822,
						1.4360086
					],
					[
						103.8213826,
						1.4375833
					],
					[
						103.8210367,
						1.4379963
					],
					[
						103.8203123,
						1.4387952
					],
					[
						103.8201525,
						1.4389539
					],
					[
						103.8195467,
						1.4395553
					],
					[
						103.8187224,
						1.4403111
					],
					[
						103.8183056,
						1.4406477
					],
					[
						103.8179991,
						1.440892
					],
					[
						103.8178481,
						1.4410123
					],
					[
						103.8177285,
						1.4410988
					],
					[
						103.8173407,
						1.4413794
					],
					[
						103.8170598,
						1.4415725
					],
					[
						103.8165783,
						1.4419034
					],
					[
						103.815823,
						1.4423661
					],
					[
						103.8156574,
						1.4424676
					],
					[
						103.8155174,
						1.4425414
					],
					[
						103.8153012,
						1.4426555
					],
					[
						103.8149885,
						1.4428205
					],
					[
						103.8144362,
						1.4431077
					],
					[
						103.8141557,
						1.4432357
					],
					[
						103.8132284,
						1.4436621
					],
					[
						103.813159,
						1.443694
					],
					[
						103.8122428,
						1.4440623
					],
					[
						103.8118325,
						1.4442185
					],
					[
						103.8116931,
						1.4442716
					],
					[
						103.81171,
						1.4444406
					],
					[
						103.8117489,
						1.4448304
					],
					[
						103.8119734,
						1.4467306
					],
					[
						103.8118841,
						1.4471299
					],
					[
						103.8118038,
						1.4472486
					],
					[
						103.8116839,
						1.4473462
					],
					[
						103.8115568,
						1.4474138
					],
					[
						103.8105988,
						1.4471287
					],
					[
						103.8103579,
						1.4470192
					],
					[
						103.8102329,
						1.4469625
					],
					[
						103.8100449,
						1.4468771
					],
					[
						103.8095605,
						1.4466246
					],
					[
						103.8095291,
						1.4466082
					],
					[
						103.8092434,
						1.4464178
					],
					[
						103.8089704,
						1.4462447
					],
					[
						103.8086884,
						1.4460387
					],
					[
						103.8083435,
						1.445753
					],
					[
						103.8082314,
						1.4456602
					],
					[
						103.8081108,
						1.4455327
					],
					[
						103.8077766,
						1.4451793
					],
					[
						103.8070211,
						1.4444254
					],
					[
						103.8066371,
						1.4440421
					],
					[
						103.8062584,
						1.4436998
					],
					[
						103.8061304,
						1.4435841
					],
					[
						103.8054283,
						1.4430725
					],
					[
						103.8048921,
						1.4427687
					],
					[
						103.8047842,
						1.4427075
					],
					[
						103.8046536,
						1.442647
					],
					[
						103.80382,
						1.4422612
					],
					[
						103.8032799,
						1.4420692
					],
					[
						103.8030441,
						1.4419626
					],
					[
						103.8022575,
						1.4416069
					],
					[
						103.8019778,
						1.441487
					],
					[
						103.8018799,
						1.4414451
					],
					[
						103.8017744,
						1.4413998
					],
					[
						103.8014342,
						1.4412538
					],
					[
						103.8006292,
						1.4408883
					],
					[
						103.8000742,
						1.4406363
					],
					[
						103.7994881,
						1.4403789
					],
					[
						103.7988579,
						1.4401028
					],
					[
						103.7983417,
						1.439875
					],
					[
						103.7980025,
						1.4397275
					],
					[
						103.7979705,
						1.4397136
					],
					[
						103.7978475,
						1.4396601
					],
					[
						103.7978269,
						1.439653
					],
					[
						103.7973248,
						1.4394782
					],
					[
						103.7966602,
						1.4393219
					],
					[
						103.7961367,
						1.4392578
					],
					[
						103.7960881,
						1.4392541
					],
					[
						103.7958263,
						1.4392367
					],
					[
						103.7956831,
						1.4392271
					],
					[
						103.7956651,
						1.4395107
					],
					[
						103.7956533,
						1.4396749
					],
					[
						103.7955745,
						1.4408906
					],
					[
						103.7955556,
						1.4411814
					],
					[
						103.795451,
						1.4414683
					],
					[
						103.795338,
						1.441642
					],
					[
						103.7945183,
						1.4427783
					],
					[
						103.7940629,
						1.4434095
					],
					[
						103.7933308,
						1.4444246
					],
					[
						103.7929966,
						1.44418
					],
					[
						103.7928341,
						1.4440935
					],
					[
						103.7922503,
						1.4440502
					],
					[
						103.792208,
						1.4440471
					],
					[
						103.7918967,
						1.4440241
					],
					[
						103.7917311,
						1.4440118
					],
					[
						103.7916102,
						1.4439707
					],
					[
						103.7915049,
						1.443883
					],
					[
						103.7914513,
						1.4437811
					],
					[
						103.7914294,
						1.4436727
					],
					[
						103.7914395,
						1.4434384
					],
					[
						103.7914815,
						1.4426844
					],
					[
						103.7914417,
						1.4425485
					],
					[
						103.7913322,
						1.4424321
					],
					[
						103.791321,
						1.4424202
					],
					[
						103.7911341,
						1.4423654
					],
					[
						103.7906416,
						1.4423326
					],
					[
						103.7902537,
						1.4423068
					],
					[
						103.789732,
						1.4422721
					],
					[
						103.7895553,
						1.4422603
					],
					[
						103.7893735,
						1.4422227
					],
					[
						103.7891035,
						1.4421171
					],
					[
						103.7889345,
						1.4424522
					],
					[
						103.7886821,
						1.442845
					],
					[
						103.7885164,
						1.4430949
					],
					[
						103.7881764,
						1.4436078
					],
					[
						103.7880604,
						1.4435294
					],
					[
						103.7868468,
						1.4427096
					],
					[
						103.7858586,
						1.442042
					],
					[
						103.7856168,
						1.4418328
					],
					[
						103.7853579,
						1.4415264
					],
					[
						103.7851602,
						1.4412769
					],
					[
						103.7850524,
						1.4411409
					],
					[
						103.7849563,
						1.4410025
					],
					[
						103.7847701,
						1.4407343
					],
					[
						103.7844386,
						1.440243
					],
					[
						103.7835273,
						1.438943
					],
					[
						103.7834172,
						1.4387847
					],
					[
						103.78306,
						1.438271
					],
					[
						103.7828733,
						1.4379653
					],
					[
						103.782841,
						1.437896
					],
					[
						103.7827938,
						1.4377947
					],
					[
						103.782753,
						1.4376989
					],
					[
						103.7827325,
						1.4376508
					],
					[
						103.7826539,
						1.4373568
					],
					[
						103.7826128,
						1.4370553
					],
					[
						103.7826127,
						1.4369271
					],
					[
						103.7826126,
						1.4367509
					],
					[
						103.7826555,
						1.4364496
					],
					[
						103.7827371,
						1.4361566
					],
					[
						103.7828589,
						1.435878
					],
					[
						103.7830139,
						1.4356218
					],
					[
						103.7832623,
						1.4353366
					],
					[
						103.7833104,
						1.4352813
					],
					[
						103.7832945,
						1.4352289
					],
					[
						103.7832502,
						1.4352378
					],
					[
						103.7833104,
						1.4352813
					],
					[
						103.7834012,
						1.4353138
					],
					[
						103.7838746,
						1.4354835
					],
					[
						103.7840642,
						1.4355577
					],
					[
						103.7851,
						1.4359627
					],
					[
						103.7845529,
						1.437446
					],
					[
						103.784648,
						1.4377385
					],
					[
						103.7855984,
						1.4381115
					],
					[
						103.7857052,
						1.4378292
					]
				]
			},
			"properties": {
				"styleUrl": "#busroute",
				"styleHash": "-2257368b",
				"stroke-opacity": 0.6039215686274509,
				"stroke": "#DA0FB1",
				"stroke-width": 4
			}
		}
	]
}