{
	"type": "FeatureCollection",
	"features": [
		{
			"type": "Feature",
			"geometry": {
				"type": "LineString",
				"coordinates": [
					[
						103.7857052,
						1.4378292
					],
					[
						103.7855984,
						1.4381115
					],
					[
						103.784648,
						1.4377385
					],
					[
						103.7845529,
						1.437446
					],
					[
						103.7851,
						1.4359627
					],
					[
						103.7838746,
						1.4354835
					],
					[
						103.7834012,
						1.4353138
					],
					[
						103.7833104,
						1.4352813
					],
					[
						103.7832623,
						1.4353366
					],
					[
						103.7830139,
						1.4356218
					],
					[
						103.7828589,
						1.435878
					],
					[
						103.7827371,
						1.4361566
					],
					[
						103.782656,
						1.4364479
					],
					[
						103.7826126,
						1.4367509
					],
					[
						103.7826128,
						1.4370553
					],
					[
						103.7826539,
						1.4373568
					],
					[
						103.7827325,
						1.4376508
					],
					[
						103.782753,
						1.4376989
					],
					[
						103.7827938,
						1.4377947
					],
					[
						103.782841,
						1.437896
					],
					[
						103.7828733,
						1.4379653
					],
					[
						103.78306,
						1.438271
					],
					[
						103.7834172,
						1.4387847
					],
					[
						103.7835273,
						1.438943
					],
					[
						103.7844386,
						1.440243
					],
					[
						103.7847701,
						1.4407343
					],
					[
						103.7849563,
						1.4410025
					],
					[
						103.7850524,
						1.4411409
					],
					[
						103.7851602,
						1.4412769
					],
					[
						103.7853579,
						1.4415264
					],
					[
						103.7856168,
						1.4418328
					],
					[
						103.7858586,
						1.442042
					],
					[
						103.7859371,
						1.4420951
					],
					[
						103.7880604,
						1.4435294
					],
					[
						103.7881764,
						1.4436078
					],
					[
						103.7885164,
						1.4430949
					],
					[
						103.7886821,
						1.442845
					],
					[
						103.7889345,
						1.4424522
					],
					[
						103.7891035,
						1.4421171
					],
					[
						103.7893735,
						1.4422227
					],
					[
						103.7895553,
						1.4422603
					],
					[
						103.7900413,
						1.4422927
					],
					[
						103.7902537,
						1.4423068
					],
					[
						103.7906416,
						1.4423326
					],
					[
						103.7911341,
						1.4423654
					],
					[
						103.791321,
						1.4424202
					],
					[
						103.7913322,
						1.4424321
					],
					[
						103.7914417,
						1.4425485
					],
					[
						103.7914815,
						1.4426844
					],
					[
						103.7914395,
						1.4434384
					],
					[
						103.7914294,
						1.4436727
					],
					[
						103.7914513,
						1.4437811
					],
					[
						103.7915049,
						1.443883
					],
					[
						103.7916102,
						1.4439707
					],
					[
						103.7917311,
						1.4440118
					],
					[
						103.7918967,
						1.4440241
					],
					[
						103.792208,
						1.4440471
					],
					[
						103.7926541,
						1.4440801
					],
					[
						103.7928341,
						1.4440935
					],
					[
						103.7929966,
						1.44418
					],
					[
						103.7933308,
						1.4444246
					],
					[
						103.7940034,
						1.443492
					],
					[
						103.7940629,
						1.4434095
					],
					[
						103.795338,
						1.441642
					],
					[
						103.795451,
						1.4414683
					],
					[
						103.7955556,
						1.4411814
					],
					[
						103.7955917,
						1.4406257
					],
					[
						103.7956533,
						1.4396749
					],
					[
						103.795788,
						1.4394637
					],
					[
						103.7959017,
						1.4393677
					],
					[
						103.7960881,
						1.4392541
					],
					[
						103.7961367,
						1.4392578
					],
					[
						103.7966602,
						1.4393219
					],
					[
						103.7972869,
						1.4394692
					],
					[
						103.7973248,
						1.4394782
					],
					[
						103.7978269,
						1.439653
					],
					[
						103.7978475,
						1.4396601
					],
					[
						103.7980025,
						1.4397275
					],
					[
						103.7983417,
						1.439875
					],
					[
						103.7988579,
						1.4401028
					],
					[
						103.7994881,
						1.4403789
					],
					[
						103.8000742,
						1.4406363
					],
					[
						103.8002614,
						1.4407213
					],
					[
						103.8014342,
						1.4412538
					],
					[
						103.8017744,
						1.4413998
					],
					[
						103.8018799,
						1.4414451
					],
					[
						103.8019778,
						1.441487
					],
					[
						103.8022575,
						1.4416069
					],
					[
						103.8031062,
						1.4419907
					],
					[
						103.8032799,
						1.4420692
					],
					[
						103.80382,
						1.4422612
					],
					[
						103.8046536,
						1.442647
					],
					[
						103.8047842,
						1.4427075
					],
					[
						103.8048921,
						1.4427687
					],
					[
						103.8054283,
						1.4430725
					],
					[
						103.8061304,
						1.4435841
					],
					[
						103.8062584,
						1.4436998
					],
					[
						103.8063238,
						1.4437589
					],
					[
						103.8066371,
						1.4440421
					],
					[
						103.8077766,
						1.4451793
					],
					[
						103.8081108,
						1.4455327
					],
					[
						103.8082314,
						1.4456602
					],
					[
						103.8083435,
						1.445753
					],
					[
						103.8086884,
						1.4460387
					],
					[
						103.8089704,
						1.4462447
					],
					[
						103.8092434,
						1.4464178
					],
					[
						103.8095291,
						1.4466082
					],
					[
						103.8095605,
						1.4466246
					],
					[
						103.8100449,
						1.4468771
					],
					[
						103.8102329,
						1.4469625
					],
					[
						103.8103579,
						1.4470192
					],
					[
						103.8105988,
						1.4471287
					],
					[
						103.8115568,
						1.4474138
					],
					[
						103.8119153,
						1.4475112
					],
					[
						103.8120776,
						1.4475552
					],
					[
						103.8119734,
						1.4467306
					],
					[
						103.8117489,
						1.4448304
					],
					[
						103.8118701,
						1.4444823
					],
					[
						103.8119932,
						1.444293
					],
					[
						103.8122428,
						1.4440623
					],
					[
						103.8130682,
						1.4437305
					],
					[
						103.813159,
						1.443694
					],
					[
						103.8141557,
						1.4432357
					],
					[
						103.8144362,
						1.4431077
					],
					[
						103.8149885,
						1.4428205
					],
					[
						103.8153012,
						1.4426555
					],
					[
						103.8155174,
						1.4425414
					],
					[
						103.8156574,
						1.4424676
					],
					[
						103.815823,
						1.4423661
					],
					[
						103.8165783,
						1.4419034
					],
					[
						103.816814,
						1.4417414
					],
					[
						103.8173407,
						1.4413794
					],
					[
						103.8177285,
						1.4410988
					],
					[
						103.8178481,
						1.4410123
					],
					[
						103.8179991,
						1.440892
					],
					[
						103.8183056,
						1.4406477
					],
					[
						103.8187224,
						1.4403111
					],
					[
						103.8195467,
						1.4395553
					],
					[
						103.8201525,
						1.4389539
					],
					[
						103.8203123,
						1.4387952
					],
					[
						103.8210367,
						1.4379963
					],
					[
						103.8213826,
						1.4375833
					],
					[
						103.8225822,
						1.4360086
					],
					[
						103.8227991,
						1.4357786
					],
					[
						103.823008,
						1.435605
					],
					[
						103.8232732,
						1.435431
					],
					[
						103.823529,
						1.4352829
					],
					[
						103.8238657,
						1.435169
					],
					[
						103.8241567,
						1.4351012
					],
					[
						103.8244826,
						1.4350794
					],
					[
						103.824752,
						1.4350902
					],
					[
						103.8251049,
						1.4351471
					],
					[
						103.8254336,
						1.4352256
					],
					[
						103.8257996,
						1.4353286
					],
					[
						103.8258972,
						1.435356
					],
					[
						103.8260087,
						1.4353994
					],
					[
						103.8266553,
						1.4356508
					],
					[
						103.8278624,
						1.436166
					],
					[
						103.8287368,
						1.4365392
					],
					[
						103.8290034,
						1.4366522
					],
					[
						103.8294409,
						1.4368377
					],
					[
						103.8296951,
						1.4369455
					],
					[
						103.830435,
						1.4372592
					],
					[
						103.8305094,
						1.4372907
					],
					[
						103.8307093,
						1.4373755
					],
					[
						103.830795,
						1.4374118
					],
					[
						103.8311014,
						1.4375417
					],
					[
						103.8313039,
						1.4376275
					],
					[
						103.8325345,
						1.4381492
					],
					[
						103.8328108,
						1.438268
					],
					[
						103.8329049,
						1.4383084
					],
					[
						103.8329647,
						1.4382107
					],
					[
						103.8330942,
						1.4379994
					],
					[
						103.8336521,
						1.4370783
					],
					[
						103.8338715,
						1.436716
					],
					[
						103.8341279,
						1.4362088
					],
					[
						103.834393,
						1.4354988
					],
					[
						103.8345545,
						1.434834
					],
					[
						103.8345818,
						1.4347213
					],
					[
						103.8346149,
						1.43458
					],
					[
						103.8350581,
						1.4326886
					],
					[
						103.8351994,
						1.4320854
					],
					[
						103.8353178,
						1.4313473
					],
					[
						103.8353633,
						1.4307801
					],
					[
						103.8353646,
						1.4305147
					],
					[
						103.8353651,
						1.4303982
					],
					[
						103.835365,
						1.4302716
					],
					[
						103.8353646,
						1.4300353
					],
					[
						103.8353171,
						1.4291221
					],
					[
						103.8352999,
						1.4287935
					],
					[
						103.8352946,
						1.4286906
					]
				]
			},
			"properties": {
				"styleUrl": "#busroute",
				"styleHash": "-2257368b",
				"stroke-opacity": 0.6039215686274509,
				"stroke": "#DA0FB1",
				"stroke-width": 4
			}
		}
	]
}