{
	"type": "FeatureCollection",
	"features": [
		{
			"type": "Feature",
			"geometry": {
				"type": "LineString",
				"coordinates": [
					[
						103.8500116,
						1.3511768
					],
					[
						103.8499788,
						1.3511834
					],
					[
						103.8497732,
						1.3512107
					],
					[
						103.8492853,
						1.3511613
					],
					[
						103.8497686,
						1.3533357
					],
					[
						103.8489803,
						1.3534922
					],
					[
						103.8487822,
						1.3534957
					],
					[
						103.8485217,
						1.3534062
					],
					[
						103.8483757,
						1.3532696
					],
					[
						103.8482741,
						1.3530968
					],
					[
						103.8481867,
						1.3526625
					],
					[
						103.8480867,
						1.3522028
					],
					[
						103.8473452,
						1.3488913
					],
					[
						103.8473047,
						1.3486397
					],
					[
						103.8472883,
						1.3485374
					],
					[
						103.8471514,
						1.3485693
					],
					[
						103.8467522,
						1.3486624
					],
					[
						103.8465775,
						1.3487122
					],
					[
						103.8463974,
						1.3487227
					],
					[
						103.8460496,
						1.3486963
					],
					[
						103.8458385,
						1.3486391
					],
					[
						103.8455189,
						1.3485067
					],
					[
						103.8440102,
						1.3478874
					],
					[
						103.8433584,
						1.3474873
					],
					[
						103.842614,
						1.3470179
					],
					[
						103.8423969,
						1.3469197
					],
					[
						103.8421366,
						1.3468715
					],
					[
						103.8419685,
						1.3468775
					],
					[
						103.8416441,
						1.3469443
					],
					[
						103.841483,
						1.3469775
					],
					[
						103.8413866,
						1.3470238
					],
					[
						103.8412395,
						1.3471327
					],
					[
						103.8407401,
						1.3476583
					],
					[
						103.8406379,
						1.3477622
					],
					[
						103.8405602,
						1.3478411
					],
					[
						103.8403379,
						1.3479845
					],
					[
						103.8400827,
						1.3480851
					],
					[
						103.8398336,
						1.348098
					],
					[
						103.839652,
						1.348049
					],
					[
						103.8395283,
						1.3479504
					],
					[
						103.8393104,
						1.3476573
					],
					[
						103.839123,
						1.3461083
					],
					[
						103.8391978,
						1.3459247
					],
					[
						103.8393372,
						1.3458089
					],
					[
						103.8394977,
						1.3457479
					],
					[
						103.8396704,
						1.3457357
					],
					[
						103.8398127,
						1.3457174
					],
					[
						103.8399157,
						1.3456656
					],
					[
						103.8400308,
						1.345565
					],
					[
						103.8400914,
						1.3454491
					],
					[
						103.8401065,
						1.3453333
					],
					[
						103.8400708,
						1.3450082
					],
					[
						103.8400808,
						1.3448877
					],
					[
						103.8401256,
						1.344758
					],
					[
						103.8401685,
						1.3445737
					],
					[
						103.8401774,
						1.3444013
					],
					[
						103.840178,
						1.3442268
					],
					[
						103.8401159,
						1.3439718
					],
					[
						103.8400297,
						1.3437654
					],
					[
						103.8398886,
						1.343568
					],
					[
						103.8396359,
						1.343236
					],
					[
						103.8394368,
						1.3431044
					],
					[
						103.8392199,
						1.3430206
					],
					[
						103.8391456,
						1.3429548
					],
					[
						103.8391023,
						1.3428648
					],
					[
						103.8391023,
						1.3427508
					],
					[
						103.839213,
						1.3422546
					],
					[
						103.839242,
						1.3421671
					],
					[
						103.8394205,
						1.341864
					],
					[
						103.8394751,
						1.3415436
					],
					[
						103.839481,
						1.341466
					],
					[
						103.8394291,
						1.3410794
					],
					[
						103.839305,
						1.3408043
					],
					[
						103.8391805,
						1.3406372
					],
					[
						103.8389863,
						1.3404463
					],
					[
						103.8389552,
						1.3404158
					],
					[
						103.8387171,
						1.3402185
					],
					[
						103.8379463,
						1.3396697
					],
					[
						103.8378237,
						1.3395489
					],
					[
						103.8375428,
						1.3391653
					],
					[
						103.8374233,
						1.3389542
					],
					[
						103.837336,
						1.3386365
					],
					[
						103.8372808,
						1.3383036
					],
					[
						103.8372688,
						1.338231
					],
					[
						103.8372564,
						1.3380649
					],
					[
						103.8374731,
						1.3380399
					],
					[
						103.8376334,
						1.3379938
					],
					[
						103.8378405,
						1.337943
					],
					[
						103.837965,
						1.3378795
					],
					[
						103.8382936,
						1.3376476
					],
					[
						103.8384686,
						1.3375396
					],
					[
						103.8386295,
						1.3375043
					],
					[
						103.8387975,
						1.3375114
					],
					[
						103.8389795,
						1.3375748
					],
					[
						103.8392338,
						1.3377837
					],
					[
						103.8394017,
						1.3379246
					],
					[
						103.8395972,
						1.3379917
					],
					[
						103.8396411,
						1.3369972
					],
					[
						103.8397942,
						1.3363273
					],
					[
						103.8398992,
						1.3358677
					],
					[
						103.8399439,
						1.3356719
					],
					[
						103.8399648,
						1.3357789
					],
					[
						103.8398992,
						1.3358677
					],
					[
						103.8396411,
						1.3369972
					],
					[
						103.8395972,
						1.3379917
					],
					[
						103.8394017,
						1.3379246
					],
					[
						103.8392338,
						1.3377837
					],
					[
						103.8389795,
						1.3375748
					],
					[
						103.8387975,
						1.3375114
					],
					[
						103.8386295,
						1.3375043
					],
					[
						103.8384686,
						1.3375396
					],
					[
						103.8382936,
						1.3376476
					],
					[
						103.837965,
						1.3378795
					],
					[
						103.8378405,
						1.337943
					],
					[
						103.8376334,
						1.3379938
					],
					[
						103.8374731,
						1.3380399
					],
					[
						103.8373736,
						1.3379998
					],
					[
						103.8373167,
						1.337954
					],
					[
						103.8372537,
						1.3378968
					],
					[
						103.837285,
						1.3373498
					],
					[
						103.8372607,
						1.3370223
					],
					[
						103.8371539,
						1.3364064
					],
					[
						103.8370382,
						1.3356257
					],
					[
						103.8370053,
						1.3353798
					],
					[
						103.8370057,
						1.3351108
					],
					[
						103.8371758,
						1.3345938
					],
					[
						103.8373159,
						1.3343583
					],
					[
						103.8375862,
						1.3340429
					],
					[
						103.8378254,
						1.3337638
					],
					[
						103.8379727,
						1.3335212
					],
					[
						103.8382334,
						1.3328475
					],
					[
						103.8384707,
						1.3322552
					],
					[
						103.8386951,
						1.3316949
					],
					[
						103.838921,
						1.3311254
					],
					[
						103.8389823,
						1.3309709
					],
					[
						103.8390496,
						1.3308013
					],
					[
						103.8395123,
						1.3306167
					],
					[
						103.8399535,
						1.329987
					],
					[
						103.8402001,
						1.3297832
					],
					[
						103.8404821,
						1.3295179
					],
					[
						103.8405772,
						1.329403
					],
					[
						103.8406628,
						1.3292575
					],
					[
						103.8407843,
						1.3290012
					],
					[
						103.840896,
						1.3287308
					],
					[
						103.8409983,
						1.3284346
					],
					[
						103.841067,
						1.3281863
					],
					[
						103.8410907,
						1.3281169
					],
					[
						103.8411668,
						1.3279483
					],
					[
						103.8412726,
						1.3277305
					],
					[
						103.8413514,
						1.3275859
					],
					[
						103.8411243,
						1.3275304
					],
					[
						103.8410463,
						1.3275495
					],
					[
						103.8409657,
						1.3275518
					],
					[
						103.8408877,
						1.327541
					],
					[
						103.8408364,
						1.3275259
					],
					[
						103.84078,
						1.3274969
					],
					[
						103.8407018,
						1.3274486
					],
					[
						103.8405295,
						1.327255
					],
					[
						103.840409,
						1.3271761
					],
					[
						103.8403256,
						1.3271366
					],
					[
						103.8402542,
						1.3271165
					],
					[
						103.84019,
						1.3271072
					],
					[
						103.8401194,
						1.3271064
					],
					[
						103.8398092,
						1.3271299
					],
					[
						103.8395908,
						1.3271452
					],
					[
						103.8395227,
						1.3271557
					],
					[
						103.8394254,
						1.3271781
					],
					[
						103.8393603,
						1.327208
					],
					[
						103.8393014,
						1.3272367
					],
					[
						103.8392671,
						1.3272553
					],
					[
						103.8391875,
						1.3273091
					],
					[
						103.8391225,
						1.3273413
					],
					[
						103.8389878,
						1.3274009
					],
					[
						103.8389307,
						1.3274129
					],
					[
						103.838863,
						1.3274284
					],
					[
						103.8388035,
						1.3274272
					],
					[
						103.8386942,
						1.3274213
					],
					[
						103.8385587,
						1.3273937
					],
					[
						103.8383946,
						1.3273255
					],
					[
						103.8382744,
						1.3272901
					],
					[
						103.8379082,
						1.3270534
					],
					[
						103.8369632,
						1.3267466
					],
					[
						103.836521,
						1.3265837
					],
					[
						103.836323,
						1.3265205
					],
					[
						103.8338996,
						1.3257457
					],
					[
						103.8336254,
						1.3256796
					],
					[
						103.8332296,
						1.3256129
					],
					[
						103.8328735,
						1.3255923
					],
					[
						103.8325711,
						1.3256128
					],
					[
						103.8321157,
						1.3257118
					],
					[
						103.8316081,
						1.325848
					],
					[
						103.8309428,
						1.3261952
					],
					[
						103.8303316,
						1.3265433
					],
					[
						103.8300042,
						1.3266805
					],
					[
						103.8296679,
						1.3267501
					],
					[
						103.8290939,
						1.3267671
					],
					[
						103.8286539,
						1.3266115
					],
					[
						103.8283735,
						1.3264803
					],
					[
						103.8281119,
						1.3263233
					],
					[
						103.827938,
						1.3261761
					],
					[
						103.8277302,
						1.3259304
					],
					[
						103.827109,
						1.324628
					],
					[
						103.8267656,
						1.32403
					],
					[
						103.8267273,
						1.3239553
					],
					[
						103.8266164,
						1.3237386
					],
					[
						103.8265115,
						1.3235337
					],
					[
						103.8259658,
						1.3224277
					],
					[
						103.825677,
						1.3215594
					],
					[
						103.8255131,
						1.3210665
					],
					[
						103.8254346,
						1.3207812
					],
					[
						103.825433,
						1.3207757
					],
					[
						103.8254053,
						1.3204708
					],
					[
						103.8249011,
						1.3206428
					],
					[
						103.8238072,
						1.3210155
					],
					[
						103.8231119,
						1.321245
					],
					[
						103.8228817,
						1.3213331
					],
					[
						103.8220738,
						1.3215875
					],
					[
						103.8212345,
						1.3218279
					],
					[
						103.8197662,
						1.3222219
					],
					[
						103.8196239,
						1.3222559
					],
					[
						103.8189669,
						1.3224129
					],
					[
						103.8182699,
						1.3225548
					],
					[
						103.816844,
						1.3227004
					],
					[
						103.8162442,
						1.3227053
					],
					[
						103.8159743,
						1.3227017
					],
					[
						103.8151779,
						1.3227993
					],
					[
						103.8148807,
						1.3228357
					],
					[
						103.8146311,
						1.3228665
					],
					[
						103.8138037,
						1.3229606
					],
					[
						103.8135989,
						1.3229083
					],
					[
						103.8135035,
						1.3228602
					],
					[
						103.8134179,
						1.322792
					],
					[
						103.8133608,
						1.3226664
					],
					[
						103.8133359,
						1.3225049
					],
					[
						103.8133016,
						1.3222715
					],
					[
						103.8132253,
						1.3219414
					],
					[
						103.8131026,
						1.3216068
					],
					[
						103.8122232,
						1.3206134
					],
					[
						103.8116772,
						1.3200805
					],
					[
						103.811422,
						1.3198746
					],
					[
						103.811258,
						1.3197914
					],
					[
						103.8110921,
						1.3197773
					],
					[
						103.810248,
						1.31939
					],
					[
						103.8096002,
						1.319067
					],
					[
						103.8091603,
						1.3187679
					],
					[
						103.8087324,
						1.3183851
					],
					[
						103.808352,
						1.3180142
					],
					[
						103.8078135,
						1.3175258
					],
					[
						103.8072109,
						1.3169793
					],
					[
						103.806693,
						1.3165004
					],
					[
						103.8061795,
						1.3160122
					],
					[
						103.8058187,
						1.3157069
					],
					[
						103.8053266,
						1.3152618
					],
					[
						103.8050342,
						1.3149029
					],
					[
						103.8048773,
						1.3146588
					],
					[
						103.8047489,
						1.3144291
					],
					[
						103.8046348,
						1.3141348
					],
					[
						103.8042425,
						1.3129503
					],
					[
						103.8041592,
						1.3125765
					],
					[
						103.8038489,
						1.3113008
					],
					[
						103.8037482,
						1.3109204
					],
					[
						103.8036581,
						1.3105795
					],
					[
						103.8033609,
						1.310671
					],
					[
						103.8030964,
						1.3107526
					],
					[
						103.8027569,
						1.3108458
					],
					[
						103.8018955,
						1.3110823
					],
					[
						103.8013797,
						1.3112239
					],
					[
						103.8007184,
						1.3114457
					],
					[
						103.8003491,
						1.3116092
					],
					[
						103.8001987,
						1.3117427
					],
					[
						103.7996781,
						1.3120513
					],
					[
						103.79883,
						1.3125854
					],
					[
						103.7984834,
						1.3127689
					],
					[
						103.798273,
						1.3128406
					],
					[
						103.7980804,
						1.3128729
					],
					[
						103.7978807,
						1.3128765
					],
					[
						103.7976703,
						1.3128478
					],
					[
						103.7974528,
						1.312794
					],
					[
						103.7970284,
						1.312575
					],
					[
						103.7967075,
						1.3124315
					],
					[
						103.7964151,
						1.3122592
					],
					[
						103.7962368,
						1.3120546
					],
					[
						103.7961274,
						1.3118385
					],
					[
						103.7960439,
						1.3116988
					],
					[
						103.7959009,
						1.3112799
					],
					[
						103.7958834,
						1.3110418
					],
					[
						103.7958711,
						1.3108748
					],
					[
						103.7958272,
						1.3106508
					],
					[
						103.7957187,
						1.3103213
					],
					[
						103.7956551,
						1.3101885
					],
					[
						103.795515,
						1.309896
					],
					[
						103.7953731,
						1.3095996
					],
					[
						103.7949201,
						1.3086535
					],
					[
						103.7947146,
						1.3082962
					],
					[
						103.7940029,
						1.3074654
					],
					[
						103.7936852,
						1.3069232
					],
					[
						103.7936084,
						1.3068008
					],
					[
						103.7935244,
						1.3066676
					],
					[
						103.7934055,
						1.3065982
					],
					[
						103.79322,
						1.3065982
					],
					[
						103.7927137,
						1.3069858
					],
					[
						103.7925338,
						1.3072202
					],
					[
						103.7924556,
						1.3072757
					],
					[
						103.7923558,
						1.3073466
					],
					[
						103.7922782,
						1.3074016
					],
					[
						103.7919751,
						1.3075639
					],
					[
						103.7915977,
						1.3077071
					],
					[
						103.7914436,
						1.3076688
					],
					[
						103.7912967,
						1.3076326
					],
					[
						103.791171,
						1.3075423
					],
					[
						103.7910748,
						1.3074529
					],
					[
						103.7908957,
						1.3069169
					],
					[
						103.7908307,
						1.3067881
					],
					[
						103.7906626,
						1.3064532
					],
					[
						103.7906495,
						1.306427
					],
					[
						103.790649,
						1.3064261
					],
					[
						103.7905038,
						1.3061368
					],
					[
						103.7903792,
						1.305942
					],
					[
						103.7902153,
						1.3056891
					],
					[
						103.7900119,
						1.3054369
					],
					[
						103.7899534,
						1.3053923
					],
					[
						103.7895739,
						1.3051027
					],
					[
						103.7893903,
						1.3049818
					],
					[
						103.7887321,
						1.3045486
					],
					[
						103.7886697,
						1.3045075
					],
					[
						103.7886166,
						1.3044735
					],
					[
						103.7880187,
						1.3040912
					],
					[
						103.787809,
						1.3039192
					],
					[
						103.7876378,
						1.3037043
					],
					[
						103.7876496,
						1.3035974
					],
					[
						103.7876996,
						1.3035183
					],
					[
						103.7877638,
						1.3034465
					],
					[
						103.7878781,
						1.3033602
					],
					[
						103.7883351,
						1.3031877
					],
					[
						103.7887921,
						1.3028644
					],
					[
						103.789142,
						1.3024403
					],
					[
						103.789349,
						1.3019876
					],
					[
						103.7894633,
						1.3014055
					],
					[
						103.7893776,
						1.3009527
					],
					[
						103.7891991,
						1.3004424
					],
					[
						103.7886011,
						1.2993809
					],
					[
						103.7881271,
						1.2982184
					],
					[
						103.7872457,
						1.2985862
					],
					[
						103.7863156,
						1.2989743
					],
					[
						103.7859789,
						1.2991148
					],
					[
						103.7858328,
						1.2991209
					],
					[
						103.7856524,
						1.2990716
					],
					[
						103.7854984,
						1.2989639
					],
					[
						103.7853903,
						1.2988104
					],
					[
						103.7853861,
						1.2985415
					],
					[
						103.7854141,
						1.2982834
					],
					[
						103.7856119,
						1.2973747
					],
					[
						103.7856657,
						1.2970264
					],
					[
						103.7858002,
						1.2968219
					],
					[
						103.7859103,
						1.2963438
					],
					[
						103.7861384,
						1.2952985
					],
					[
						103.786178,
						1.2949258
					],
					[
						103.7861895,
						1.2948178
					],
					[
						103.7861467,
						1.2944242
					],
					[
						103.7860022,
						1.2939945
					],
					[
						103.7859166,
						1.2938277
					],
					[
						103.7858587,
						1.2937627
					],
					[
						103.7852746,
						1.2932551
					],
					[
						103.7851043,
						1.2934295
					],
					[
						103.7850342,
						1.293556
					],
					[
						103.7849847,
						1.2937245
					],
					[
						103.7849554,
						1.2940165
					],
					[
						103.7849374,
						1.2941952
					],
					[
						103.7849039,
						1.2943206
					],
					[
						103.7848773,
						1.2944065
					],
					[
						103.7844866,
						1.2949197
					],
					[
						103.7844196,
						1.2950077
					],
					[
						103.7840887,
						1.2954873
					],
					[
						103.7837295,
						1.296085
					],
					[
						103.7835615,
						1.2963218
					],
					[
						103.7832993,
						1.2965654
					],
					[
						103.7829329,
						1.2968611
					],
					[
						103.7825927,
						1.2969401
					],
					[
						103.7822264,
						1.2969923
					],
					[
						103.7821833,
						1.2969984
					],
					[
						103.7820026,
						1.2970963
					],
					[
						103.7818672,
						1.2971964
					],
					[
						103.781707,
						1.297327
					],
					[
						103.781614,
						1.2973808
					],
					[
						103.7815358,
						1.2974109
					],
					[
						103.7814662,
						1.2974339
					],
					[
						103.7813645,
						1.2974674
					],
					[
						103.7811261,
						1.2974734
					],
					[
						103.7807174,
						1.2974435
					],
					[
						103.7803765,
						1.2974281
					],
					[
						103.7799894,
						1.2973278
					],
					[
						103.7798247,
						1.297258
					],
					[
						103.7795385,
						1.297149
					],
					[
						103.7793184,
						1.2971085
					],
					[
						103.779084,
						1.2971085
					],
					[
						103.7784051,
						1.2973499
					],
					[
						103.7777873,
						1.2975682
					],
					[
						103.7774396,
						1.2977506
					],
					[
						103.7771662,
						1.297951
					],
					[
						103.7769463,
						1.2981454
					],
					[
						103.7766141,
						1.2985931
					],
					[
						103.7763636,
						1.2987766
					],
					[
						103.7761985,
						1.2988339
					],
					[
						103.7760562,
						1.2988568
					],
					[
						103.775595,
						1.2988339
					],
					[
						103.7753501,
						1.2988626
					],
					[
						103.7753014,
						1.298879
					],
					[
						103.7752172,
						1.2989073
					],
					[
						103.774878,
						1.2991135
					],
					[
						103.7747156,
						1.2992655
					],
					[
						103.7745979,
						1.2992351
					],
					[
						103.7744229,
						1.299292
					],
					[
						103.7743004,
						1.2989919
					],
					[
						103.7741609,
						1.2987741
					],
					[
						103.7739787,
						1.2985476
					],
					[
						103.7737623,
						1.2983355
					],
					[
						103.7733011,
						1.2980374
					],
					[
						103.7731672,
						1.2979342
					],
					[
						103.7730619,
						1.2977823
					],
					[
						103.7729479,
						1.2974714
					],
					[
						103.7728326,
						1.2971571
					],
					[
						103.772722,
						1.2969396
					],
					[
						103.7726309,
						1.2967991
					],
					[
						103.7726018,
						1.2967699
					],
					[
						103.772406,
						1.2965727
					],
					[
						103.7723567,
						1.2965406
					],
					[
						103.7721725,
						1.2964208
					],
					[
						103.7719825,
						1.2963624
					],
					[
						103.7719021,
						1.2963377
					],
					[
						103.7715636,
						1.2963118
					],
					[
						103.7709958,
						1.2963433
					],
					[
						103.7709285,
						1.296347
					],
					[
						103.7708556,
						1.2963408
					],
					[
						103.7705393,
						1.296314
					],
					[
						103.7703501,
						1.2962621
					],
					[
						103.7699946,
						1.2961727
					],
					[
						103.7698341,
						1.2960336
					],
					[
						103.7697395,
						1.2959214
					],
					[
						103.7696334,
						1.2957343
					],
					[
						103.7695962,
						1.2952271
					],
					[
						103.7695546,
						1.2949813
					],
					[
						103.7695246,
						1.2948041
					],
					[
						103.769367,
						1.2943337
					],
					[
						103.7691041,
						1.2938675
					],
					[
						103.7682547,
						1.2927537
					],
					[
						103.7681326,
						1.2925976
					],
					[
						103.7680203,
						1.2924543
					],
					[
						103.7679721,
						1.2923928
					],
					[
						103.7678834,
						1.2922797
					],
					[
						103.7677462,
						1.2921049
					],
					[
						103.7677248,
						1.29179
					],
					[
						103.7677411,
						1.2916177
					],
					[
						103.7678651,
						1.2913897
					],
					[
						103.7683139,
						1.2911617
					],
					[
						103.7689368,
						1.2909192
					],
					[
						103.76961,
						1.2906773
					],
					[
						103.7700854,
						1.2904192
					],
					[
						103.7706209,
						1.2902374
					],
					[
						103.7719303,
						1.2897928
					],
					[
						103.7720475,
						1.2897531
					],
					[
						103.7725571,
						1.2895802
					],
					[
						103.7743328,
						1.2889776
					],
					[
						103.7753052,
						1.2885949
					],
					[
						103.7763119,
						1.2881185
					],
					[
						103.7764922,
						1.2880266
					],
					[
						103.7765873,
						1.2879759
					],
					[
						103.7769945,
						1.2877588
					],
					[
						103.777268,
						1.2875938
					],
					[
						103.7777823,
						1.2883377
					],
					[
						103.7779393,
						1.2884993
					],
					[
						103.7780605,
						1.2885854
					],
					[
						103.7781861,
						1.288631
					],
					[
						103.7788652,
						1.2875454
					],
					[
						103.7790748,
						1.2872742
					],
					[
						103.7793911,
						1.286865
					],
					[
						103.7795023,
						1.2867212
					],
					[
						103.7798583,
						1.2863753
					],
					[
						103.78047,
						1.2857812
					],
					[
						103.7806613,
						1.2855701
					],
					[
						103.7808337,
						1.285295
					],
					[
						103.7809763,
						1.2850258
					],
					[
						103.7810239,
						1.2848523
					],
					[
						103.781012,
						1.2847387
					],
					[
						103.7808872,
						1.2845891
					],
					[
						103.7807333,
						1.2844349
					],
					[
						103.7807336,
						1.2842749
					],
					[
						103.7808024,
						1.2841573
					],
					[
						103.7810876,
						1.2838166
					],
					[
						103.781296,
						1.2835677
					],
					[
						103.781865,
						1.2828895
					],
					[
						103.7821228,
						1.2827052
					],
					[
						103.7823207,
						1.2825637
					],
					[
						103.7826092,
						1.282398
					],
					[
						103.7847723,
						1.2809474
					],
					[
						103.7848486,
						1.2808962
					],
					[
						103.7849452,
						1.2808057
					],
					[
						103.7850887,
						1.2806645
					],
					[
						103.7852633,
						1.2803735
					],
					[
						103.785518,
						1.2796728
					],
					[
						103.7855697,
						1.2795317
					],
					[
						103.7857066,
						1.2791584
					],
					[
						103.7858031,
						1.2788996
					],
					[
						103.7859041,
						1.2787232
					],
					[
						103.7859546,
						1.2785946
					],
					[
						103.7859873,
						1.2784959
					],
					[
						103.7860289,
						1.2783792
					],
					[
						103.7861686,
						1.2783433
					],
					[
						103.786539,
						1.2782309
					],
					[
						103.7873717,
						1.2779824
					],
					[
						103.7877849,
						1.277838
					],
					[
						103.7885017,
						1.2775875
					],
					[
						103.7898191,
						1.2771315
					],
					[
						103.790774,
						1.2768016
					],
					[
						103.7912796,
						1.2766322
					],
					[
						103.7921121,
						1.2763383
					],
					[
						103.7925497,
						1.2761951
					],
					[
						103.7931653,
						1.2759865
					],
					[
						103.7934699,
						1.2758832
					],
					[
						103.7944506,
						1.2755509
					],
					[
						103.7953175,
						1.2752571
					],
					[
						103.7956621,
						1.2751326
					],
					[
						103.7963197,
						1.2748949
					],
					[
						103.7965297,
						1.2748194
					],
					[
						103.7969736,
						1.2746842
					],
					[
						103.7974499,
						1.274521
					],
					[
						103.7980001,
						1.2743239
					],
					[
						103.8000475,
						1.2735903
					],
					[
						103.8005318,
						1.2733669
					],
					[
						103.8007966,
						1.2732447
					],
					[
						103.8014677,
						1.272935
					],
					[
						103.8016404,
						1.2728553
					],
					[
						103.8021902,
						1.2728246
					],
					[
						103.8025568,
						1.2727836
					],
					[
						103.8032798,
						1.2727682
					],
					[
						103.8038552,
						1.2726965
					],
					[
						103.8045731,
						1.2725223
					],
					[
						103.8048684,
						1.2724249
					],
					[
						103.8055195,
						1.2721625
					],
					[
						103.8065709,
						1.271724
					],
					[
						103.8073701,
						1.2714359
					],
					[
						103.8074117,
						1.2714212
					],
					[
						103.8076843,
						1.2713329
					],
					[
						103.8079755,
						1.2712799
					],
					[
						103.809335,
						1.2711326
					],
					[
						103.8094145,
						1.2711277
					],
					[
						103.8101718,
						1.2710807
					],
					[
						103.810702,
						1.2710478
					],
					[
						103.8110127,
						1.2710163
					],
					[
						103.8112443,
						1.2709774
					],
					[
						103.811518,
						1.2708856
					],
					[
						103.8118457,
						1.2707157
					],
					[
						103.8121755,
						1.2705083
					],
					[
						103.8138685,
						1.2694432
					],
					[
						103.8141576,
						1.2692602
					],
					[
						103.8147315,
						1.268908
					],
					[
						103.8152318,
						1.268724
					],
					[
						103.8155895,
						1.2686181
					],
					[
						103.8158559,
						1.2685052
					],
					[
						103.8161294,
						1.2683569
					],
					[
						103.8164731,
						1.2681664
					],
					[
						103.8170271,
						1.2678487
					],
					[
						103.8181522,
						1.2670391
					],
					[
						103.8183254,
						1.267034
					],
					[
						103.8185079,
						1.2671765
					],
					[
						103.8187329,
						1.2675216
					],
					[
						103.8187594,
						1.2675622
					]
				]
			},
			"properties": {
				"styleUrl": "#busroute",
				"styleHash": "-2257368b",
				"stroke-opacity": 0.6039215686274509,
				"stroke": "#DA0FB1",
				"stroke-width": 4
			}
		}
	]
}