{
	"type": "FeatureCollection",
	"features": [
		{
			"type": "Feature",
			"geometry": {
				"type": "LineString",
				"coordinates": [
					[
						103.818949,
						1.2673983
					],
					[
						103.8187329,
						1.2675216
					],
					[
						103.8185079,
						1.2671765
					],
					[
						103.8184628,
						1.2668393
					],
					[
						103.8183974,
						1.2664608
					],
					[
						103.8181979,
						1.2665819
					],
					[
						103.8172276,
						1.2671707
					],
					[
						103.8162531,
						1.2677617
					],
					[
						103.8145831,
						1.2687148
					],
					[
						103.8141887,
						1.2689313
					],
					[
						103.8136515,
						1.2692886
					],
					[
						103.8133198,
						1.2695425
					],
					[
						103.8121404,
						1.2703182
					],
					[
						103.8116147,
						1.2706109
					],
					[
						103.811187,
						1.2707646
					],
					[
						103.8108408,
						1.2708312
					],
					[
						103.8102247,
						1.2708517
					],
					[
						103.8101952,
						1.2708538
					],
					[
						103.8101059,
						1.2708599
					],
					[
						103.8093286,
						1.2709132
					],
					[
						103.807847,
						1.2711079
					],
					[
						103.807348,
						1.2712258
					],
					[
						103.8065944,
						1.2714974
					],
					[
						103.8048888,
						1.2721636
					],
					[
						103.8043338,
						1.2723327
					],
					[
						103.8038399,
						1.2724403
					],
					[
						103.8032851,
						1.2725133
					],
					[
						103.802623,
						1.2725325
					],
					[
						103.8022076,
						1.2725275
					],
					[
						103.8019183,
						1.2725763
					],
					[
						103.8016862,
						1.2725991
					],
					[
						103.8014712,
						1.2726664
					],
					[
						103.8013094,
						1.272717
					],
					[
						103.8009919,
						1.272842
					],
					[
						103.8006068,
						1.2729937
					],
					[
						103.7999045,
						1.2733323
					],
					[
						103.7995121,
						1.2735215
					],
					[
						103.798871,
						1.2737351
					],
					[
						103.7979422,
						1.2740669
					],
					[
						103.7968208,
						1.2744794
					],
					[
						103.7963706,
						1.2746284
					],
					[
						103.7957014,
						1.2748604
					],
					[
						103.7950412,
						1.2750892
					],
					[
						103.7943928,
						1.2753013
					],
					[
						103.7935682,
						1.275571
					],
					[
						103.7931125,
						1.27572
					],
					[
						103.7926591,
						1.2758796
					],
					[
						103.7909797,
						1.2764709
					],
					[
						103.7903917,
						1.2766765
					],
					[
						103.7877134,
						1.2775633
					],
					[
						103.7870647,
						1.2777764
					],
					[
						103.7865037,
						1.2779391
					],
					[
						103.7860369,
						1.2780745
					],
					[
						103.7859272,
						1.2782126
					],
					[
						103.785854,
						1.2783101
					],
					[
						103.7858394,
						1.278364
					],
					[
						103.7858284,
						1.2784153
					],
					[
						103.785829,
						1.2784475
					],
					[
						103.7858803,
						1.2786095
					],
					[
						103.7858684,
						1.2786723
					],
					[
						103.7858506,
						1.2787591
					],
					[
						103.7858031,
						1.2788996
					],
					[
						103.7857066,
						1.2791584
					],
					[
						103.7855697,
						1.2795317
					],
					[
						103.785518,
						1.2796728
					],
					[
						103.7852633,
						1.2803735
					],
					[
						103.7850887,
						1.2806645
					],
					[
						103.7849452,
						1.2808057
					],
					[
						103.7848486,
						1.2808962
					],
					[
						103.7847723,
						1.2809474
					],
					[
						103.7826092,
						1.282398
					],
					[
						103.7823207,
						1.2825637
					],
					[
						103.7819203,
						1.28285
					],
					[
						103.781865,
						1.2828895
					],
					[
						103.781296,
						1.2835677
					],
					[
						103.7810876,
						1.2838166
					],
					[
						103.7808024,
						1.2841573
					],
					[
						103.7807336,
						1.2842749
					],
					[
						103.7807333,
						1.2844349
					],
					[
						103.7808872,
						1.2845891
					],
					[
						103.781012,
						1.2847387
					],
					[
						103.7810239,
						1.2848523
					],
					[
						103.7809763,
						1.2850258
					],
					[
						103.7808337,
						1.285295
					],
					[
						103.7806613,
						1.2855701
					],
					[
						103.78047,
						1.2857812
					],
					[
						103.7798583,
						1.2863753
					],
					[
						103.7795023,
						1.2867212
					],
					[
						103.7793911,
						1.286865
					],
					[
						103.7790748,
						1.2872742
					],
					[
						103.7788652,
						1.2875454
					],
					[
						103.7781861,
						1.288631
					],
					[
						103.7780605,
						1.2885854
					],
					[
						103.7779393,
						1.2884993
					],
					[
						103.7777823,
						1.2883377
					],
					[
						103.777268,
						1.2875938
					],
					[
						103.7769945,
						1.2877588
					],
					[
						103.7765873,
						1.2879759
					],
					[
						103.7764922,
						1.2880266
					],
					[
						103.7763119,
						1.2881185
					],
					[
						103.7753052,
						1.2885949
					],
					[
						103.7746579,
						1.2888497
					],
					[
						103.7743328,
						1.2889776
					],
					[
						103.7725571,
						1.2895802
					],
					[
						103.7720475,
						1.2897531
					],
					[
						103.7719303,
						1.2897928
					],
					[
						103.7706209,
						1.2902374
					],
					[
						103.7700854,
						1.2904192
					],
					[
						103.7695512,
						1.2904783
					],
					[
						103.7686002,
						1.2908063
					],
					[
						103.7681247,
						1.2909837
					],
					[
						103.7672299,
						1.2915026
					],
					[
						103.7673234,
						1.2916074
					],
					[
						103.7674249,
						1.2916935
					],
					[
						103.7677462,
						1.2921049
					],
					[
						103.7679721,
						1.2923928
					],
					[
						103.7680203,
						1.2924543
					],
					[
						103.7681326,
						1.2925976
					],
					[
						103.7682547,
						1.2927537
					],
					[
						103.7691041,
						1.2938675
					],
					[
						103.769367,
						1.2943337
					],
					[
						103.7695246,
						1.2948041
					],
					[
						103.7695546,
						1.2949813
					],
					[
						103.7695962,
						1.2952271
					],
					[
						103.7696334,
						1.2957343
					],
					[
						103.7696378,
						1.296007
					],
					[
						103.7696391,
						1.2960854
					],
					[
						103.7697614,
						1.2961154
					],
					[
						103.7699946,
						1.2961727
					],
					[
						103.7703501,
						1.2962621
					],
					[
						103.7705393,
						1.296314
					],
					[
						103.7708556,
						1.2963408
					],
					[
						103.7709285,
						1.296347
					],
					[
						103.7709958,
						1.2963433
					],
					[
						103.7715636,
						1.2963118
					],
					[
						103.7719021,
						1.2963377
					],
					[
						103.7719825,
						1.2963624
					],
					[
						103.7722847,
						1.2966135
					],
					[
						103.7724749,
						1.2968498
					],
					[
						103.7728582,
						1.2973164
					],
					[
						103.7729479,
						1.2974714
					],
					[
						103.7730619,
						1.2977823
					],
					[
						103.7731672,
						1.2979342
					],
					[
						103.7733011,
						1.2980374
					],
					[
						103.7737623,
						1.2983355
					],
					[
						103.7739787,
						1.2985476
					],
					[
						103.7741609,
						1.2987741
					],
					[
						103.7743004,
						1.2989919
					],
					[
						103.7744229,
						1.299292
					],
					[
						103.7744433,
						1.2994347
					],
					[
						103.7744702,
						1.2995734
					],
					[
						103.7745693,
						1.2996725
					],
					[
						103.7746685,
						1.2996072
					],
					[
						103.7747256,
						1.2994854
					],
					[
						103.7747357,
						1.2993704
					],
					[
						103.7747156,
						1.2992655
					],
					[
						103.774878,
						1.2991135
					],
					[
						103.7752172,
						1.2989073
					],
					[
						103.7753014,
						1.298879
					],
					[
						103.7753501,
						1.2988626
					],
					[
						103.775595,
						1.2988339
					],
					[
						103.7760562,
						1.2988568
					],
					[
						103.7761985,
						1.2988339
					],
					[
						103.7763636,
						1.2987766
					],
					[
						103.7766141,
						1.2985931
					],
					[
						103.7769463,
						1.2981454
					],
					[
						103.7771662,
						1.297951
					],
					[
						103.7774396,
						1.2977506
					],
					[
						103.7777873,
						1.2975682
					],
					[
						103.7784051,
						1.2973499
					],
					[
						103.779084,
						1.2971085
					],
					[
						103.7793184,
						1.2971085
					],
					[
						103.7795385,
						1.297149
					],
					[
						103.7798247,
						1.297258
					],
					[
						103.7799894,
						1.2973278
					],
					[
						103.7803765,
						1.2974281
					],
					[
						103.7807174,
						1.2974435
					],
					[
						103.7811261,
						1.2974734
					],
					[
						103.7813645,
						1.2974674
					],
					[
						103.7814662,
						1.2974339
					],
					[
						103.7815358,
						1.2974109
					],
					[
						103.781614,
						1.2973808
					],
					[
						103.781707,
						1.297327
					],
					[
						103.7818672,
						1.2971964
					],
					[
						103.7820026,
						1.2970963
					],
					[
						103.7821833,
						1.2969984
					],
					[
						103.7822264,
						1.2969923
					],
					[
						103.7825927,
						1.2969401
					],
					[
						103.7829329,
						1.2968611
					],
					[
						103.7832993,
						1.2965654
					],
					[
						103.7835615,
						1.2963218
					],
					[
						103.7837295,
						1.296085
					],
					[
						103.7840887,
						1.2954873
					],
					[
						103.7844196,
						1.2950077
					],
					[
						103.7844425,
						1.2949777
					],
					[
						103.7848773,
						1.2944065
					],
					[
						103.7849039,
						1.2943206
					],
					[
						103.7849374,
						1.2941952
					],
					[
						103.7849554,
						1.2940165
					],
					[
						103.7849847,
						1.2937245
					],
					[
						103.7850342,
						1.293556
					],
					[
						103.7851043,
						1.2934295
					],
					[
						103.7852746,
						1.2932551
					],
					[
						103.7855464,
						1.2936472
					],
					[
						103.785697,
						1.2938848
					],
					[
						103.7857022,
						1.2938996
					],
					[
						103.7857975,
						1.2941696
					],
					[
						103.7858479,
						1.2945231
					],
					[
						103.785838,
						1.2948334
					],
					[
						103.785786,
						1.2950314
					],
					[
						103.7857477,
						1.295465
					],
					[
						103.7857164,
						1.295829
					],
					[
						103.7856316,
						1.2968079
					],
					[
						103.7856657,
						1.2970264
					],
					[
						103.7856119,
						1.2973747
					],
					[
						103.7854141,
						1.2982834
					],
					[
						103.7853861,
						1.2985415
					],
					[
						103.7853903,
						1.2988104
					],
					[
						103.7854185,
						1.2990902
					],
					[
						103.7854526,
						1.2992522
					],
					[
						103.7854818,
						1.299391
					],
					[
						103.7856265,
						1.2993107
					],
					[
						103.7858679,
						1.2991765
					],
					[
						103.7859789,
						1.2991148
					],
					[
						103.7863156,
						1.2989743
					],
					[
						103.7873116,
						1.2985587
					],
					[
						103.7881271,
						1.2982184
					],
					[
						103.7886011,
						1.2993809
					],
					[
						103.7891991,
						1.3004424
					],
					[
						103.7893776,
						1.3009527
					],
					[
						103.7894633,
						1.3014055
					],
					[
						103.789349,
						1.3019876
					],
					[
						103.789142,
						1.3024403
					],
					[
						103.7887921,
						1.3028644
					],
					[
						103.7883351,
						1.3031877
					],
					[
						103.7878781,
						1.3033602
					],
					[
						103.7874168,
						1.3034463
					],
					[
						103.7874653,
						1.3035029
					],
					[
						103.7876378,
						1.3037043
					],
					[
						103.787809,
						1.3039192
					],
					[
						103.7880187,
						1.3040912
					],
					[
						103.7886166,
						1.3044735
					],
					[
						103.7886697,
						1.3045075
					],
					[
						103.7887321,
						1.3045486
					],
					[
						103.7893903,
						1.3049818
					],
					[
						103.7895739,
						1.3051027
					],
					[
						103.7899534,
						1.3053923
					],
					[
						103.7900119,
						1.3054369
					],
					[
						103.7902153,
						1.3056891
					],
					[
						103.7903792,
						1.305942
					],
					[
						103.7905038,
						1.3061368
					],
					[
						103.790649,
						1.3064261
					],
					[
						103.7906626,
						1.3064532
					],
					[
						103.7906636,
						1.306455
					],
					[
						103.7908307,
						1.3067881
					],
					[
						103.7908957,
						1.3069169
					],
					[
						103.7910748,
						1.3074529
					],
					[
						103.7911894,
						1.3077563
					],
					[
						103.7912212,
						1.3078406
					],
					[
						103.791343,
						1.3077975
					],
					[
						103.7915977,
						1.3077071
					],
					[
						103.7919751,
						1.3075639
					],
					[
						103.7922782,
						1.3074016
					],
					[
						103.7923558,
						1.3073466
					],
					[
						103.7924556,
						1.3072757
					],
					[
						103.7925338,
						1.3072202
					],
					[
						103.792892,
						1.3070791
					],
					[
						103.7931562,
						1.3069071
					],
					[
						103.7935244,
						1.3066676
					],
					[
						103.7936084,
						1.3068008
					],
					[
						103.7936852,
						1.3069232
					],
					[
						103.7940029,
						1.3074654
					],
					[
						103.7947146,
						1.3082962
					],
					[
						103.7949201,
						1.3086535
					],
					[
						103.7951099,
						1.3090499
					],
					[
						103.7953731,
						1.3095996
					],
					[
						103.795515,
						1.309896
					],
					[
						103.7956551,
						1.3101885
					],
					[
						103.7957187,
						1.3103213
					],
					[
						103.7958272,
						1.3106508
					],
					[
						103.7958711,
						1.3108748
					],
					[
						103.7959009,
						1.3112799
					],
					[
						103.7959663,
						1.3116785
					],
					[
						103.79598,
						1.3121479
					],
					[
						103.7966576,
						1.312514
					],
					[
						103.7973601,
						1.3128658
					],
					[
						103.7976846,
						1.3129627
					],
					[
						103.7979449,
						1.3129914
					],
					[
						103.7982088,
						1.312977
					],
					[
						103.7983622,
						1.3129376
					],
					[
						103.7985476,
						1.3128765
					],
					[
						103.798828,
						1.3127366
					],
					[
						103.7989906,
						1.3126464
					],
					[
						103.7996068,
						1.3122739
					],
					[
						103.800106,
						1.3119796
					],
					[
						103.8004068,
						1.3118966
					],
					[
						103.8009686,
						1.3116691
					],
					[
						103.8021311,
						1.3113502
					],
					[
						103.8026431,
						1.3112164
					],
					[
						103.8031684,
						1.3110761
					],
					[
						103.8033557,
						1.3111477
					],
					[
						103.8034399,
						1.3112029
					],
					[
						103.8035317,
						1.3113278
					],
					[
						103.803918,
						1.3126842
					],
					[
						103.8040999,
						1.3130293
					],
					[
						103.8043851,
						1.3138476
					],
					[
						103.8045848,
						1.3143788
					],
					[
						103.8047346,
						1.3146875
					],
					[
						103.80492,
						1.3149818
					],
					[
						103.8051269,
						1.3152403
					],
					[
						103.8053052,
						1.3154269
					],
					[
						103.8067413,
						1.316746
					],
					[
						103.8076804,
						1.3176433
					],
					[
						103.8077799,
						1.3177314
					],
					[
						103.8088216,
						1.3186542
					],
					[
						103.8090771,
						1.3188875
					],
					[
						103.8092673,
						1.3190371
					],
					[
						103.8094575,
						1.3191567
					],
					[
						103.8107294,
						1.319755
					],
					[
						103.8110526,
						1.3199223
					],
					[
						103.8113305,
						1.3201013
					],
					[
						103.8115983,
						1.3204366
					],
					[
						103.8126856,
						1.3216327
					],
					[
						103.8128164,
						1.3218361
					],
					[
						103.8129055,
						1.3220694
					],
					[
						103.8129947,
						1.3224223
					],
					[
						103.8130327,
						1.322548
					],
					[
						103.8131326,
						1.3230289
					],
					[
						103.8133187,
						1.323934
					],
					[
						103.8135968,
						1.323879
					],
					[
						103.8137761,
						1.323812
					],
					[
						103.8139948,
						1.323721
					],
					[
						103.8143324,
						1.3235488
					],
					[
						103.8145416,
						1.3234722
					],
					[
						103.8147445,
						1.3234421
					],
					[
						103.8158956,
						1.3232872
					],
					[
						103.8162961,
						1.323244
					],
					[
						103.8164527,
						1.3232271
					],
					[
						103.8170042,
						1.3231607
					],
					[
						103.818708,
						1.3229654
					],
					[
						103.8198689,
						1.3226622
					],
					[
						103.82237,
						1.3220005
					],
					[
						103.8229024,
						1.3218317
					],
					[
						103.8233677,
						1.3217979
					],
					[
						103.8240971,
						1.3215523
					],
					[
						103.824243,
						1.3215032
					],
					[
						103.8250223,
						1.3212407
					],
					[
						103.8252918,
						1.3212208
					],
					[
						103.825405,
						1.3212749
					],
					[
						103.8255618,
						1.3214048
					],
					[
						103.825677,
						1.3215594
					],
					[
						103.8259658,
						1.3224277
					],
					[
						103.8265115,
						1.3235337
					],
					[
						103.8266164,
						1.3237386
					],
					[
						103.8267273,
						1.3239553
					],
					[
						103.8267656,
						1.32403
					],
					[
						103.8266487,
						1.3251272
					],
					[
						103.8266431,
						1.3253861
					],
					[
						103.8266625,
						1.3256108
					],
					[
						103.8266832,
						1.3258503
					],
					[
						103.8267875,
						1.3262026
					],
					[
						103.8269916,
						1.3268924
					],
					[
						103.8270719,
						1.3270843
					],
					[
						103.8271077,
						1.3271698
					],
					[
						103.8272044,
						1.3273255
					],
					[
						103.8273301,
						1.3274861
					],
					[
						103.8274769,
						1.3275914
					],
					[
						103.8276298,
						1.3276564
					],
					[
						103.8278281,
						1.3276905
					],
					[
						103.8280034,
						1.3276817
					],
					[
						103.8282629,
						1.3276205
					],
					[
						103.8298764,
						1.3270331
					],
					[
						103.8301623,
						1.3269031
					],
					[
						103.8306023,
						1.3266114
					],
					[
						103.8314436,
						1.3261446
					],
					[
						103.831874,
						1.3259938
					],
					[
						103.831994,
						1.3259776
					],
					[
						103.8323429,
						1.3259306
					],
					[
						103.8327886,
						1.3259631
					],
					[
						103.8332673,
						1.3260653
					],
					[
						103.8347081,
						1.3265082
					],
					[
						103.8367772,
						1.3271898
					],
					[
						103.8372685,
						1.3274409
					],
					[
						103.8378618,
						1.3276432
					],
					[
						103.838105,
						1.3278106
					],
					[
						103.8382118,
						1.3279218
					],
					[
						103.8383003,
						1.3280665
					],
					[
						103.8383388,
						1.3281818
					],
					[
						103.8383887,
						1.3283299
					],
					[
						103.8385775,
						1.3300965
					],
					[
						103.8385779,
						1.3302455
					],
					[
						103.8384915,
						1.3308565
					],
					[
						103.8390496,
						1.3308013
					],
					[
						103.8389823,
						1.3309709
					],
					[
						103.838921,
						1.3311254
					],
					[
						103.8386951,
						1.3316949
					],
					[
						103.8384707,
						1.3322552
					],
					[
						103.8382334,
						1.3328475
					],
					[
						103.8379727,
						1.3335212
					],
					[
						103.8378254,
						1.3337638
					],
					[
						103.8373159,
						1.3343583
					],
					[
						103.8371758,
						1.3345938
					],
					[
						103.8370057,
						1.3351108
					],
					[
						103.8370053,
						1.3353798
					],
					[
						103.8370382,
						1.3356257
					],
					[
						103.8371539,
						1.3364064
					],
					[
						103.8372607,
						1.3370223
					],
					[
						103.837285,
						1.3373498
					],
					[
						103.8372537,
						1.3378968
					],
					[
						103.8372564,
						1.3380649
					],
					[
						103.8374731,
						1.3380399
					],
					[
						103.8376334,
						1.3379938
					],
					[
						103.8378405,
						1.337943
					],
					[
						103.837965,
						1.3378795
					],
					[
						103.8382936,
						1.3376476
					],
					[
						103.8384686,
						1.3375396
					],
					[
						103.8386295,
						1.3375043
					],
					[
						103.8387975,
						1.3375114
					],
					[
						103.8389795,
						1.3375748
					],
					[
						103.8392338,
						1.3377837
					],
					[
						103.8394017,
						1.3379246
					],
					[
						103.8395972,
						1.3379917
					],
					[
						103.8396411,
						1.3369972
					],
					[
						103.8398992,
						1.3358677
					],
					[
						103.8399439,
						1.3356719
					],
					[
						103.8399648,
						1.3357789
					],
					[
						103.8398992,
						1.3358677
					],
					[
						103.8396411,
						1.3369972
					],
					[
						103.8396248,
						1.3373676
					],
					[
						103.8395972,
						1.3379917
					],
					[
						103.8394017,
						1.3379246
					],
					[
						103.8392338,
						1.3377837
					],
					[
						103.8389795,
						1.3375748
					],
					[
						103.8387975,
						1.3375114
					],
					[
						103.8386295,
						1.3375043
					],
					[
						103.8384686,
						1.3375396
					],
					[
						103.8382936,
						1.3376476
					],
					[
						103.837965,
						1.3378795
					],
					[
						103.8378405,
						1.337943
					],
					[
						103.8376334,
						1.3379938
					],
					[
						103.8374731,
						1.3380399
					],
					[
						103.8372564,
						1.3380649
					],
					[
						103.8372688,
						1.338231
					],
					[
						103.8372808,
						1.3383036
					],
					[
						103.837336,
						1.3386365
					],
					[
						103.8374233,
						1.3389542
					],
					[
						103.8375428,
						1.3391653
					],
					[
						103.8378237,
						1.3395489
					],
					[
						103.8379463,
						1.3396697
					],
					[
						103.8387171,
						1.3402185
					],
					[
						103.8389552,
						1.3404158
					],
					[
						103.8389863,
						1.3404463
					],
					[
						103.8391805,
						1.3406372
					],
					[
						103.839305,
						1.3408043
					],
					[
						103.8394291,
						1.3410794
					],
					[
						103.839481,
						1.341466
					],
					[
						103.8394751,
						1.3415436
					],
					[
						103.8394205,
						1.341864
					],
					[
						103.839242,
						1.3421671
					],
					[
						103.839213,
						1.3422546
					],
					[
						103.8391023,
						1.3427508
					],
					[
						103.8391023,
						1.3428648
					],
					[
						103.8391456,
						1.3429548
					],
					[
						103.8392199,
						1.3430206
					],
					[
						103.8394368,
						1.3431044
					],
					[
						103.8396359,
						1.343236
					],
					[
						103.8398886,
						1.343568
					],
					[
						103.8400297,
						1.3437654
					],
					[
						103.8401159,
						1.3439718
					],
					[
						103.840178,
						1.3442268
					],
					[
						103.8401774,
						1.3444013
					],
					[
						103.8401685,
						1.3445737
					],
					[
						103.8401256,
						1.344758
					],
					[
						103.8400808,
						1.3448877
					],
					[
						103.8400708,
						1.3450082
					],
					[
						103.8401065,
						1.3453333
					],
					[
						103.8400914,
						1.3454491
					],
					[
						103.8400308,
						1.345565
					],
					[
						103.8399157,
						1.3456656
					],
					[
						103.8398127,
						1.3457174
					],
					[
						103.8396704,
						1.3457357
					],
					[
						103.8394977,
						1.3457479
					],
					[
						103.8393372,
						1.3458089
					],
					[
						103.8391978,
						1.3459247
					],
					[
						103.839123,
						1.3461083
					],
					[
						103.8393104,
						1.3476573
					],
					[
						103.8394096,
						1.3481893
					],
					[
						103.8394374,
						1.3483384
					],
					[
						103.8400827,
						1.3480851
					],
					[
						103.8403379,
						1.3479845
					],
					[
						103.8405602,
						1.3478411
					],
					[
						103.8406379,
						1.3477622
					],
					[
						103.8407401,
						1.3476583
					],
					[
						103.8411979,
						1.3471765
					],
					[
						103.8412395,
						1.3471327
					],
					[
						103.8413866,
						1.3470238
					],
					[
						103.841483,
						1.3469775
					],
					[
						103.8419685,
						1.3468775
					],
					[
						103.8421366,
						1.3468715
					],
					[
						103.8423969,
						1.3469197
					],
					[
						103.842614,
						1.3470179
					],
					[
						103.8433584,
						1.3474873
					],
					[
						103.8440102,
						1.3478874
					],
					[
						103.8455189,
						1.3485067
					],
					[
						103.8458385,
						1.3486391
					],
					[
						103.8460496,
						1.3486963
					],
					[
						103.8463974,
						1.3487227
					],
					[
						103.8465775,
						1.3487122
					],
					[
						103.8467522,
						1.3486624
					],
					[
						103.8471514,
						1.3485693
					],
					[
						103.8472883,
						1.3485374
					],
					[
						103.8476641,
						1.348459
					],
					[
						103.8482485,
						1.3483287
					],
					[
						103.8488604,
						1.3481923
					],
					[
						103.8498724,
						1.3479668
					],
					[
						103.8501891,
						1.349387
					],
					[
						103.8502745,
						1.3497696
					],
					[
						103.8503502,
						1.3500748
					],
					[
						103.8501562,
						1.3501269
					]
				]
			},
			"properties": {
				"styleUrl": "#busroute",
				"styleHash": "-2257368b",
				"stroke-opacity": 0.6039215686274509,
				"stroke": "#DA0FB1",
				"stroke-width": 4
			}
		}
	]
}