{
	"type": "FeatureCollection",
	"features": [
		{
			"type": "Feature",
			"geometry": {
				"type": "LineString",
				"coordinates": [
					[
						103.8501562,
						1.3501269
					],
					[
						103.8503502,
						1.3500748
					],
					[
						103.8502745,
						1.3497696
					],
					[
						103.8501891,
						1.349387
					],
					[
						103.8498724,
						1.3479668
					],
					[
						103.85136,
						1.3476341
					],
					[
						103.8514943,
						1.3475851
					],
					[
						103.8516601,
						1.3474491
					],
					[
						103.8521782,
						1.3466359
					],
					[
						103.8522626,
						1.3465324
					],
					[
						103.8524332,
						1.3464265
					],
					[
						103.8526968,
						1.3463463
					],
					[
						103.8529441,
						1.3462879
					],
					[
						103.8542369,
						1.3459828
					],
					[
						103.8547232,
						1.3458732
					],
					[
						103.8549982,
						1.3458109
					],
					[
						103.85558,
						1.34568
					],
					[
						103.8557441,
						1.3456038
					],
					[
						103.8559475,
						1.3454254
					],
					[
						103.8560497,
						1.3452756
					],
					[
						103.8561334,
						1.3450169
					],
					[
						103.8561642,
						1.34444
					],
					[
						103.8561939,
						1.3438867
					],
					[
						103.8562455,
						1.3437058
					],
					[
						103.8563169,
						1.3436005
					],
					[
						103.8564357,
						1.3435239
					],
					[
						103.8572155,
						1.3434952
					],
					[
						103.8580472,
						1.343476
					],
					[
						103.8585707,
						1.343476
					],
					[
						103.8593623,
						1.3434821
					],
					[
						103.8596162,
						1.3435745
					],
					[
						103.8597238,
						1.3436828
					],
					[
						103.8598007,
						1.3438375
					],
					[
						103.8598699,
						1.3441537
					],
					[
						103.8599576,
						1.3441836
					],
					[
						103.8603409,
						1.344209
					],
					[
						103.8604852,
						1.3442765
					],
					[
						103.8605492,
						1.3443663
					],
					[
						103.8605569,
						1.3444495
					],
					[
						103.8604609,
						1.3451084
					],
					[
						103.8600167,
						1.3473991
					],
					[
						103.8600118,
						1.3476342
					],
					[
						103.8600844,
						1.3483211
					],
					[
						103.8601754,
						1.3486228
					],
					[
						103.8602302,
						1.3487896
					],
					[
						103.8603037,
						1.348923
					],
					[
						103.8603591,
						1.3490237
					],
					[
						103.8605779,
						1.3493473
					],
					[
						103.8606206,
						1.3494103
					],
					[
						103.8611659,
						1.350036
					],
					[
						103.86156,
						1.3504961
					],
					[
						103.8617099,
						1.3506699
					],
					[
						103.8623751,
						1.3514414
					],
					[
						103.8625418,
						1.3516348
					],
					[
						103.8628725,
						1.3515618
					],
					[
						103.8636859,
						1.351632
					],
					[
						103.8641905,
						1.3516755
					],
					[
						103.8642452,
						1.3516802
					],
					[
						103.8644164,
						1.3516155
					],
					[
						103.8645682,
						1.3514632
					],
					[
						103.8647544,
						1.3509985
					],
					[
						103.8651081,
						1.3501162
					],
					[
						103.8652029,
						1.3498909
					],
					[
						103.8652424,
						1.3497811
					],
					[
						103.8653345,
						1.3496615
					],
					[
						103.8654396,
						1.3495731
					],
					[
						103.8662213,
						1.3492198
					],
					[
						103.8664873,
						1.3490857
					],
					[
						103.8666109,
						1.3490527
					],
					[
						103.8669137,
						1.3490973
					],
					[
						103.8675588,
						1.3492377
					],
					[
						103.8686228,
						1.3494693
					],
					[
						103.868838,
						1.3495698
					],
					[
						103.8689143,
						1.3496623
					],
					[
						103.8689895,
						1.3497536
					],
					[
						103.8694657,
						1.3506999
					],
					[
						103.8698595,
						1.3514825
					],
					[
						103.8700085,
						1.3514074
					],
					[
						103.8708088,
						1.3510039
					],
					[
						103.871004,
						1.3508421
					],
					[
						103.8710164,
						1.3508318
					],
					[
						103.8711558,
						1.3506612
					],
					[
						103.8712592,
						1.3504664
					],
					[
						103.8713247,
						1.3502548
					],
					[
						103.8713793,
						1.3499116
					],
					[
						103.8714858,
						1.3492414
					],
					[
						103.8715193,
						1.3490309
					],
					[
						103.8715601,
						1.3488996
					],
					[
						103.8716311,
						1.3487792
					],
					[
						103.8717267,
						1.3486815
					],
					[
						103.8720821,
						1.3484873
					],
					[
						103.8723741,
						1.3483417
					],
					[
						103.8726662,
						1.3481895
					],
					[
						103.8725378,
						1.3479978
					],
					[
						103.8721964,
						1.347413
					],
					[
						103.8718514,
						1.3467076
					],
					[
						103.871586,
						1.3461315
					],
					[
						103.87116,
						1.3451647
					],
					[
						103.8710446,
						1.3448499
					],
					[
						103.8709875,
						1.3446941
					],
					[
						103.8709058,
						1.344452
					],
					[
						103.8708559,
						1.344219
					],
					[
						103.8708332,
						1.3440225
					],
					[
						103.8708195,
						1.3437987
					],
					[
						103.8708757,
						1.3436393
					],
					[
						103.8709552,
						1.3435422
					],
					[
						103.8710686,
						1.3434852
					],
					[
						103.8714488,
						1.3436727
					],
					[
						103.8718347,
						1.3437535
					],
					[
						103.8722886,
						1.3437592
					],
					[
						103.8733355,
						1.3436853
					],
					[
						103.8737278,
						1.3436576
					],
					[
						103.874162,
						1.343637
					],
					[
						103.8746115,
						1.3435867
					],
					[
						103.876401,
						1.34432
					],
					[
						103.8766142,
						1.3443581
					],
					[
						103.8769305,
						1.3443523
					],
					[
						103.8770605,
						1.3443209
					],
					[
						103.8772688,
						1.3442706
					],
					[
						103.8773223,
						1.3442467
					],
					[
						103.8774165,
						1.3442047
					],
					[
						103.8775099,
						1.3441464
					],
					[
						103.8778994,
						1.3439032
					],
					[
						103.8779643,
						1.3438627
					],
					[
						103.878834,
						1.3433042
					],
					[
						103.8790847,
						1.3431541
					],
					[
						103.8795335,
						1.3429038
					],
					[
						103.8797013,
						1.3428253
					],
					[
						103.8801336,
						1.3426231
					],
					[
						103.8807884,
						1.342334
					],
					[
						103.8814636,
						1.3420181
					],
					[
						103.8820295,
						1.3418075
					],
					[
						103.8825049,
						1.3416496
					],
					[
						103.8829994,
						1.3414869
					],
					[
						103.8835082,
						1.3412906
					],
					[
						103.8839457,
						1.3411471
					],
					[
						103.884187,
						1.3410695
					],
					[
						103.8844001,
						1.3410198
					],
					[
						103.8846895,
						1.3410151
					],
					[
						103.8849859,
						1.3409566
					],
					[
						103.8852236,
						1.3408896
					],
					[
						103.8854268,
						1.3407732
					],
					[
						103.8857324,
						1.3403584
					],
					[
						103.88607,
						1.339954
					],
					[
						103.8865454,
						1.3392481
					],
					[
						103.8866691,
						1.3390375
					],
					[
						103.8868783,
						1.3386164
					],
					[
						103.8869855,
						1.3382074
					],
					[
						103.88712,
						1.3379434
					],
					[
						103.8873702,
						1.3373984
					],
					[
						103.8878845,
						1.3362778
					],
					[
						103.8881276,
						1.3357481
					],
					[
						103.888523,
						1.3349841
					],
					[
						103.88868,
						1.3346083
					],
					[
						103.8887691,
						1.3343179
					],
					[
						103.8888908,
						1.3338914
					],
					[
						103.8889273,
						1.3337395
					],
					[
						103.88897,
						1.3335663
					],
					[
						103.8889903,
						1.333456
					],
					[
						103.889074,
						1.3329526
					],
					[
						103.8891638,
						1.3323893
					],
					[
						103.8892535,
						1.3318366
					],
					[
						103.8892943,
						1.3316148
					],
					[
						103.8893192,
						1.3315045
					],
					[
						103.8893804,
						1.33113
					],
					[
						103.8893985,
						1.3310446
					],
					[
						103.889537,
						1.3303907
					],
					[
						103.8895639,
						1.3302637
					],
					[
						103.8896779,
						1.3296948
					],
					[
						103.8898365,
						1.3289039
					],
					[
						103.889973,
						1.3282205
					],
					[
						103.89004,
						1.3278852
					],
					[
						103.8900667,
						1.3277554
					],
					[
						103.8901995,
						1.326961
					],
					[
						103.8902798,
						1.3265633
					],
					[
						103.8903413,
						1.3263399
					],
					[
						103.8903929,
						1.3260553
					],
					[
						103.8904213,
						1.325901
					],
					[
						103.8904612,
						1.3256841
					],
					[
						103.8905921,
						1.324949
					],
					[
						103.8906822,
						1.324443
					],
					[
						103.8909098,
						1.3231825
					],
					[
						103.8909652,
						1.3228755
					],
					[
						103.891019,
						1.3225946
					],
					[
						103.8911693,
						1.3218102
					],
					[
						103.8912639,
						1.3213202
					],
					[
						103.8914233,
						1.3206114
					],
					[
						103.8915238,
						1.3201579
					],
					[
						103.8915594,
						1.3199977
					],
					[
						103.8916894,
						1.319421
					],
					[
						103.8918992,
						1.3185493
					],
					[
						103.8921897,
						1.3173421
					],
					[
						103.8924179,
						1.3171029
					],
					[
						103.8925653,
						1.3170454
					],
					[
						103.8928316,
						1.3169928
					],
					[
						103.8937483,
						1.3171212
					],
					[
						103.8940039,
						1.3158385
					],
					[
						103.8940536,
						1.3154892
					],
					[
						103.8941163,
						1.315152
					],
					[
						103.8941391,
						1.3144184
					],
					[
						103.8941426,
						1.314369
					],
					[
						103.8941688,
						1.3139999
					],
					[
						103.894193,
						1.3124531
					],
					[
						103.8941949,
						1.3122616
					],
					[
						103.8941987,
						1.3118749
					],
					[
						103.8942026,
						1.3114905
					],
					[
						103.8942045,
						1.3112373
					],
					[
						103.8942189,
						1.3106182
					],
					[
						103.8942392,
						1.3102045
					],
					[
						103.8942482,
						1.3100206
					],
					[
						103.8943358,
						1.3097794
					],
					[
						103.8944161,
						1.3095454
					],
					[
						103.8942378,
						1.3095108
					],
					[
						103.8938326,
						1.309432
					],
					[
						103.8933143,
						1.3093267
					],
					[
						103.8927453,
						1.3092052
					],
					[
						103.8926791,
						1.3091919
					],
					[
						103.891876,
						1.3090301
					],
					[
						103.8911503,
						1.3088839
					],
					[
						103.8910276,
						1.3088592
					],
					[
						103.8901464,
						1.3086817
					],
					[
						103.8894175,
						1.3085348
					],
					[
						103.8890876,
						1.3084673
					],
					[
						103.8890542,
						1.3084605
					],
					[
						103.8885114,
						1.30835
					],
					[
						103.8879202,
						1.3082296
					],
					[
						103.8868075,
						1.3080036
					],
					[
						103.8866989,
						1.3079815
					],
					[
						103.8861469,
						1.3078672
					],
					[
						103.8858373,
						1.3078032
					],
					[
						103.8854774,
						1.3076366
					],
					[
						103.8853753,
						1.3075881
					],
					[
						103.8852764,
						1.3075411
					],
					[
						103.8848651,
						1.307346
					],
					[
						103.8847873,
						1.3073092
					],
					[
						103.8837524,
						1.3068189
					],
					[
						103.8835569,
						1.3067265
					],
					[
						103.8832407,
						1.3065525
					],
					[
						103.8822366,
						1.3060622
					],
					[
						103.8821611,
						1.3060253
					],
					[
						103.881696,
						1.3057206
					],
					[
						103.88134,
						1.3055698
					],
					[
						103.8810159,
						1.3054028
					],
					[
						103.8809409,
						1.305302
					],
					[
						103.8808909,
						1.3051509
					],
					[
						103.8809011,
						1.3050245
					],
					[
						103.8811214,
						1.3044756
					],
					[
						103.881062,
						1.3040834
					],
					[
						103.8808507,
						1.3037654
					],
					[
						103.8796403,
						1.3023252
					],
					[
						103.8795191,
						1.3021636
					],
					[
						103.8791232,
						1.3017294
					],
					[
						103.8788094,
						1.3014673
					],
					[
						103.8781499,
						1.3011415
					],
					[
						103.8778326,
						1.3009869
					],
					[
						103.8776511,
						1.3008984
					],
					[
						103.8773056,
						1.3007365
					],
					[
						103.8769028,
						1.3005469
					],
					[
						103.8762609,
						1.3002449
					],
					[
						103.8761301,
						1.300212
					],
					[
						103.8760142,
						1.3002269
					],
					[
						103.8759281,
						1.3002658
					],
					[
						103.8758597,
						1.3003017
					],
					[
						103.8757854,
						1.3003914
					],
					[
						103.8753799,
						1.3012399
					],
					[
						103.8752148,
						1.3015957
					],
					[
						103.8749571,
						1.3021508
					],
					[
						103.8750784,
						1.3021795
					],
					[
						103.8754949,
						1.3012753
					],
					[
						103.8773096,
						1.3021381
					],
					[
						103.8777634,
						1.3023538
					],
					[
						103.8786004,
						1.3027514
					],
					[
						103.8783657,
						1.3032469
					],
					[
						103.8781636,
						1.3036761
					],
					[
						103.8780923,
						1.3037509
					],
					[
						103.8780014,
						1.3038496
					],
					[
						103.8778707,
						1.3038496
					],
					[
						103.8777221,
						1.3038975
					],
					[
						103.8776745,
						1.3039693
					],
					[
						103.8776567,
						1.304047
					],
					[
						103.8776627,
						1.3041547
					],
					[
						103.8774061,
						1.3043808
					],
					[
						103.8772385,
						1.3045136
					],
					[
						103.8768855,
						1.3050484
					],
					[
						103.8766929,
						1.3054827
					],
					[
						103.8766252,
						1.3057268
					],
					[
						103.876605,
						1.3060305
					],
					[
						103.8766079,
						1.3062518
					],
					[
						103.8765453,
						1.3062951
					],
					[
						103.8764811,
						1.3063884
					],
					[
						103.8763539,
						1.3064472
					],
					[
						103.8758784,
						1.3064424
					],
					[
						103.8753744,
						1.3064209
					],
					[
						103.8751628,
						1.3064185
					],
					[
						103.8735937,
						1.3064305
					],
					[
						103.8733798,
						1.3064185
					],
					[
						103.8731753,
						1.3064042
					],
					[
						103.8729608,
						1.3063797
					],
					[
						103.872729,
						1.3063348
					],
					[
						103.8725804,
						1.3062959
					],
					[
						103.872411,
						1.3062181
					],
					[
						103.8721792,
						1.3060955
					],
					[
						103.8716621,
						1.3056319
					],
					[
						103.8716777,
						1.3055884
					],
					[
						103.8716777,
						1.3055047
					],
					[
						103.8716479,
						1.3054209
					],
					[
						103.8716118,
						1.3053874
					],
					[
						103.8714578,
						1.3053492
					],
					[
						103.8713686,
						1.305403
					],
					[
						103.8713092,
						1.3054628
					],
					[
						103.8712973,
						1.3055346
					],
					[
						103.8713032,
						1.3056124
					],
					[
						103.871327,
						1.3056722
					],
					[
						103.8713567,
						1.3057021
					],
					[
						103.8713211,
						1.3057978
					],
					[
						103.8712795,
						1.3058457
					],
					[
						103.8712081,
						1.3058576
					],
					[
						103.8709721,
						1.3058263
					],
					[
						103.8664502,
						1.3029048
					],
					[
						103.8646529,
						1.301651
					],
					[
						103.8639207,
						1.3010923
					],
					[
						103.8637884,
						1.3009286
					],
					[
						103.8634321,
						1.3006293
					],
					[
						103.8631233,
						1.3003879
					],
					[
						103.8629079,
						1.3002195
					],
					[
						103.8626404,
						1.300064
					],
					[
						103.8623729,
						1.2999623
					],
					[
						103.8608573,
						1.2988676
					],
					[
						103.8600728,
						1.2982634
					],
					[
						103.8590802,
						1.2973482
					],
					[
						103.8585875,
						1.2968035
					],
					[
						103.8585797,
						1.2966174
					],
					[
						103.8585516,
						1.2965928
					],
					[
						103.8584328,
						1.2964628
					],
					[
						103.8581857,
						1.2961744
					],
					[
						103.8578542,
						1.2957528
					],
					[
						103.8576919,
						1.2955465
					],
					[
						103.8574545,
						1.2952277
					],
					[
						103.8572518,
						1.2949218
					],
					[
						103.8571135,
						1.2947131
					],
					[
						103.8570014,
						1.2945254
					],
					[
						103.8565393,
						1.2937582
					],
					[
						103.8563647,
						1.2933993
					],
					[
						103.8562606,
						1.2931854
					],
					[
						103.8562439,
						1.2931266
					],
					[
						103.8562439,
						1.2930721
					],
					[
						103.8562689,
						1.2929714
					],
					[
						103.8563492,
						1.292826
					],
					[
						103.8568442,
						1.2925386
					],
					[
						103.8570976,
						1.2923951
					],
					[
						103.8572351,
						1.2923571
					],
					[
						103.8573751,
						1.292367
					],
					[
						103.8574703,
						1.2924217
					],
					[
						103.8575356,
						1.2924787
					],
					[
						103.8576792,
						1.2927327
					],
					[
						103.8581362,
						1.2935255
					],
					[
						103.8583494,
						1.2939109
					],
					[
						103.8586454,
						1.294419
					],
					[
						103.8585656,
						1.2945208
					],
					[
						103.8585356,
						1.2945946
					],
					[
						103.8585088,
						1.2946604
					],
					[
						103.8585076,
						1.2948113
					],
					[
						103.8585277,
						1.2948884
					],
					[
						103.8585911,
						1.2950032
					],
					[
						103.8586771,
						1.2950958
					],
					[
						103.8588081,
						1.2951268
					],
					[
						103.8589209,
						1.2951413
					],
					[
						103.8590372,
						1.2950996
					],
					[
						103.8590951,
						1.2950775
					],
					[
						103.8591472,
						1.2950467
					],
					[
						103.8592232,
						1.2949442
					],
					[
						103.8592696,
						1.2948648
					],
					[
						103.8592925,
						1.2947144
					],
					[
						103.8592586,
						1.2945662
					],
					[
						103.8602434,
						1.2939702
					],
					[
						103.8604855,
						1.2938093
					],
					[
						103.8605163,
						1.2937796
					],
					[
						103.8605781,
						1.2937202
					],
					[
						103.8606699,
						1.293654
					],
					[
						103.8607749,
						1.2934996
					],
					[
						103.8608034,
						1.2933606
					],
					[
						103.8608234,
						1.2932637
					],
					[
						103.8608459,
						1.292686
					],
					[
						103.8608461,
						1.2926821
					]
				]
			},
			"properties": {
				"styleUrl": "#busroute",
				"styleHash": "-2257368b",
				"stroke-opacity": 0.6039215686274509,
				"stroke": "#DA0FB1",
				"stroke-width": 4
			}
		}
	]
}