{
	"type": "FeatureCollection",
	"features": [
		{
			"type": "Feature",
			"geometry": {
				"type": "LineString",
				"coordinates": [
					[
						103.8608461,
						1.2926821
					],
					[
						103.860877,
						1.2918907
					],
					[
						103.8608795,
						1.2917387
					],
					[
						103.8608865,
						1.2913218
					],
					[
						103.8608802,
						1.2912573
					],
					[
						103.8608727,
						1.2907473
					],
					[
						103.8608736,
						1.2907025
					],
					[
						103.8608948,
						1.2896686
					],
					[
						103.8608976,
						1.2895302
					],
					[
						103.8604223,
						1.2895611
					],
					[
						103.8596544,
						1.289611
					],
					[
						103.8595053,
						1.2896212
					],
					[
						103.8590415,
						1.2896488
					],
					[
						103.8588433,
						1.2896605
					],
					[
						103.8585963,
						1.2896761
					],
					[
						103.8579977,
						1.2897141
					],
					[
						103.8575828,
						1.2897404
					],
					[
						103.857339,
						1.2897552
					],
					[
						103.8569997,
						1.2897758
					],
					[
						103.8568996,
						1.2897994
					],
					[
						103.8564528,
						1.2900529
					],
					[
						103.8564438,
						1.2900583
					],
					[
						103.8561625,
						1.2903037
					],
					[
						103.8557555,
						1.2906588
					],
					[
						103.8551901,
						1.2911404
					],
					[
						103.8548474,
						1.2914476
					],
					[
						103.8552472,
						1.2922423
					],
					[
						103.8554373,
						1.2925485
					],
					[
						103.8558225,
						1.2931754
					],
					[
						103.8559865,
						1.2934945
					],
					[
						103.8564968,
						1.2942368
					],
					[
						103.8572797,
						1.2955358
					],
					[
						103.8574129,
						1.2957046
					],
					[
						103.8578119,
						1.2961829
					],
					[
						103.8582077,
						1.2966136
					],
					[
						103.8586107,
						1.2970371
					],
					[
						103.8591397,
						1.2975875
					],
					[
						103.8595082,
						1.2979464
					],
					[
						103.8599836,
						1.2983651
					],
					[
						103.8607147,
						1.2989334
					],
					[
						103.8616181,
						1.2995854
					],
					[
						103.8622125,
						1.3000161
					],
					[
						103.8625183,
						1.3002371
					],
					[
						103.8628663,
						1.3004887
					],
					[
						103.8632229,
						1.3007579
					],
					[
						103.8634963,
						1.3009553
					],
					[
						103.8641108,
						1.3014117
					],
					[
						103.865088,
						1.3021152
					],
					[
						103.8658654,
						1.3026679
					],
					[
						103.8703944,
						1.3056397
					],
					[
						103.8707439,
						1.3059555
					],
					[
						103.8709519,
						1.3061157
					],
					[
						103.8710113,
						1.3061845
					],
					[
						103.871047,
						1.3062563
					],
					[
						103.871072,
						1.3063575
					],
					[
						103.8710559,
						1.3064657
					],
					[
						103.8710232,
						1.3065464
					],
					[
						103.8709608,
						1.3066182
					],
					[
						103.8708687,
						1.3066721
					],
					[
						103.8707796,
						1.30669
					],
					[
						103.8706696,
						1.306684
					],
					[
						103.8705032,
						1.3066541
					],
					[
						103.8703546,
						1.3066003
					],
					[
						103.8702179,
						1.3065345
					],
					[
						103.8700604,
						1.3064208
					],
					[
						103.8699564,
						1.3063431
					],
					[
						103.8697989,
						1.3061995
					],
					[
						103.8696348,
						1.3060054
					],
					[
						103.8692497,
						1.3053833
					],
					[
						103.8692164,
						1.3052254
					],
					[
						103.8692069,
						1.305077
					],
					[
						103.8692354,
						1.304943
					],
					[
						103.8693923,
						1.3046942
					],
					[
						103.8694779,
						1.3046368
					],
					[
						103.8695777,
						1.3046033
					],
					[
						103.8697346,
						1.3046033
					],
					[
						103.8698535,
						1.3046463
					],
					[
						103.870058,
						1.3048425
					],
					[
						103.870524,
						1.3052876
					],
					[
						103.8706571,
						1.3053833
					],
					[
						103.8707855,
						1.3054407
					],
					[
						103.8709424,
						1.3054934
					],
					[
						103.8711896,
						1.3055699
					],
					[
						103.8713032,
						1.3056124
					],
					[
						103.871327,
						1.3056722
					],
					[
						103.8713567,
						1.3057021
					],
					[
						103.871428,
						1.305738
					],
					[
						103.8715113,
						1.305744
					],
					[
						103.8715826,
						1.30572
					],
					[
						103.8716175,
						1.3056917
					],
					[
						103.8720752,
						1.3061165
					],
					[
						103.8722446,
						1.3062421
					],
					[
						103.8724288,
						1.3063318
					],
					[
						103.872688,
						1.3064132
					],
					[
						103.872997,
						1.3064658
					],
					[
						103.8733346,
						1.3064993
					],
					[
						103.8745566,
						1.3065136
					],
					[
						103.8751462,
						1.3065136
					],
					[
						103.8765108,
						1.3065668
					],
					[
						103.8765631,
						1.3066051
					],
					[
						103.876638,
						1.3066157
					],
					[
						103.8767332,
						1.3066087
					],
					[
						103.8767974,
						1.30658
					],
					[
						103.8768402,
						1.3065201
					],
					[
						103.8768592,
						1.3064484
					],
					[
						103.8768402,
						1.3063574
					],
					[
						103.8767951,
						1.3063
					],
					[
						103.8767476,
						1.3062608
					],
					[
						103.8767179,
						1.3060604
					],
					[
						103.876709,
						1.305842
					],
					[
						103.8767571,
						1.3055868
					],
					[
						103.8768284,
						1.3053858
					],
					[
						103.8769604,
						1.3051202
					],
					[
						103.8772528,
						1.3046644
					],
					[
						103.8774489,
						1.3044777
					],
					[
						103.8777378,
						1.3042696
					],
					[
						103.8777994,
						1.3043043
					],
					[
						103.877942,
						1.3043222
					],
					[
						103.8780787,
						1.3042684
					],
					[
						103.8781458,
						1.3042085
					],
					[
						103.8781696,
						1.3041158
					],
					[
						103.8781725,
						1.3040321
					],
					[
						103.8781398,
						1.3039423
					],
					[
						103.8781963,
						1.3037838
					],
					[
						103.8783241,
						1.303538
					],
					[
						103.8790805,
						1.3018945
					],
					[
						103.8791232,
						1.3017294
					],
					[
						103.8788094,
						1.3014673
					],
					[
						103.8781499,
						1.3011415
					],
					[
						103.8778326,
						1.3009869
					],
					[
						103.8776511,
						1.3008984
					],
					[
						103.8773056,
						1.3007365
					],
					[
						103.8769028,
						1.3005469
					],
					[
						103.8762609,
						1.3002449
					],
					[
						103.8761301,
						1.300212
					],
					[
						103.8760142,
						1.3002269
					],
					[
						103.8759281,
						1.3002658
					],
					[
						103.8758597,
						1.3003017
					],
					[
						103.8757854,
						1.3003914
					],
					[
						103.8753799,
						1.3012399
					],
					[
						103.8749571,
						1.3021508
					],
					[
						103.8750784,
						1.3021795
					],
					[
						103.8753527,
						1.301584
					],
					[
						103.8754949,
						1.3012753
					],
					[
						103.8773096,
						1.3021381
					],
					[
						103.8777634,
						1.3023538
					],
					[
						103.8786004,
						1.3027514
					],
					[
						103.8783657,
						1.3032469
					],
					[
						103.8781636,
						1.3036761
					],
					[
						103.8780923,
						1.3037509
					],
					[
						103.8780014,
						1.3038496
					],
					[
						103.8778707,
						1.3038496
					],
					[
						103.8777221,
						1.3038975
					],
					[
						103.8776745,
						1.3039693
					],
					[
						103.8776567,
						1.304047
					],
					[
						103.8776627,
						1.3041547
					],
					[
						103.8777378,
						1.3042696
					],
					[
						103.8777994,
						1.3043043
					],
					[
						103.877942,
						1.3043222
					],
					[
						103.8780787,
						1.3042684
					],
					[
						103.878232,
						1.3043013
					],
					[
						103.8786361,
						1.3044927
					],
					[
						103.8803164,
						1.3052847
					],
					[
						103.8807196,
						1.3055073
					],
					[
						103.8810078,
						1.305697
					],
					[
						103.8812708,
						1.3057655
					],
					[
						103.8821611,
						1.3060253
					],
					[
						103.8822366,
						1.3060622
					],
					[
						103.8832407,
						1.3065525
					],
					[
						103.8835569,
						1.3067265
					],
					[
						103.8837524,
						1.3068189
					],
					[
						103.8847873,
						1.3073092
					],
					[
						103.8850471,
						1.3074323
					],
					[
						103.8852764,
						1.3075411
					],
					[
						103.8853753,
						1.3075881
					],
					[
						103.8854774,
						1.3076366
					],
					[
						103.8858373,
						1.3078032
					],
					[
						103.8861469,
						1.3078672
					],
					[
						103.8866989,
						1.3079815
					],
					[
						103.8868075,
						1.3080036
					],
					[
						103.8879202,
						1.3082296
					],
					[
						103.888494,
						1.3083464
					],
					[
						103.8890542,
						1.3084605
					],
					[
						103.8890876,
						1.3084673
					],
					[
						103.8894175,
						1.3085348
					],
					[
						103.8901464,
						1.3086817
					],
					[
						103.8910276,
						1.3088592
					],
					[
						103.8911503,
						1.3088839
					],
					[
						103.891876,
						1.3090301
					],
					[
						103.8926791,
						1.3091919
					],
					[
						103.8927453,
						1.3092052
					],
					[
						103.8933143,
						1.3093267
					],
					[
						103.8938326,
						1.309432
					],
					[
						103.8942378,
						1.3095108
					],
					[
						103.8944161,
						1.3095454
					],
					[
						103.8943358,
						1.3097794
					],
					[
						103.8942482,
						1.3100206
					],
					[
						103.8942392,
						1.3102045
					],
					[
						103.8942189,
						1.3106182
					],
					[
						103.8942045,
						1.3112373
					],
					[
						103.8942026,
						1.3114905
					],
					[
						103.8941987,
						1.3118749
					],
					[
						103.8941949,
						1.3122616
					],
					[
						103.894193,
						1.3124531
					],
					[
						103.8941688,
						1.3139999
					],
					[
						103.8941426,
						1.314369
					],
					[
						103.8941391,
						1.3144184
					],
					[
						103.8941163,
						1.315152
					],
					[
						103.8937917,
						1.3154329
					],
					[
						103.8932034,
						1.315308
					],
					[
						103.8921507,
						1.3150863
					],
					[
						103.8922278,
						1.3154551
					],
					[
						103.8923846,
						1.3161027
					],
					[
						103.8923989,
						1.3162797
					],
					[
						103.8923941,
						1.316332
					],
					[
						103.8923704,
						1.3165908
					],
					[
						103.8923038,
						1.3169114
					],
					[
						103.8921897,
						1.3173421
					],
					[
						103.8916894,
						1.319421
					],
					[
						103.8915594,
						1.3199977
					],
					[
						103.8915238,
						1.3201579
					],
					[
						103.8914233,
						1.3206114
					],
					[
						103.8912639,
						1.3213202
					],
					[
						103.8911693,
						1.3218102
					],
					[
						103.891019,
						1.3225946
					],
					[
						103.8909652,
						1.3228755
					],
					[
						103.8909098,
						1.3231825
					],
					[
						103.8906822,
						1.324443
					],
					[
						103.8905818,
						1.3250072
					],
					[
						103.8904612,
						1.3256841
					],
					[
						103.8904213,
						1.325901
					],
					[
						103.8903929,
						1.3260553
					],
					[
						103.8903413,
						1.3263399
					],
					[
						103.8902798,
						1.3265633
					],
					[
						103.8901995,
						1.326961
					],
					[
						103.8900667,
						1.3277554
					],
					[
						103.89004,
						1.3278852
					],
					[
						103.889973,
						1.3282205
					],
					[
						103.8898365,
						1.3289039
					],
					[
						103.8896779,
						1.3296948
					],
					[
						103.8895639,
						1.3302637
					],
					[
						103.889537,
						1.3303907
					],
					[
						103.8893985,
						1.3310446
					],
					[
						103.8893804,
						1.33113
					],
					[
						103.8893192,
						1.3315045
					],
					[
						103.8892943,
						1.3316148
					],
					[
						103.8892535,
						1.3318366
					],
					[
						103.8891638,
						1.3323893
					],
					[
						103.889074,
						1.3329526
					],
					[
						103.8889903,
						1.333456
					],
					[
						103.88897,
						1.3335663
					],
					[
						103.8889273,
						1.3337395
					],
					[
						103.8888908,
						1.3338914
					],
					[
						103.8887134,
						1.3339798
					],
					[
						103.8886073,
						1.3340466
					],
					[
						103.8885314,
						1.3341428
					],
					[
						103.8884933,
						1.3342709
					],
					[
						103.8883872,
						1.3345955
					],
					[
						103.8881708,
						1.3350182
					],
					[
						103.8880573,
						1.3353276
					],
					[
						103.8879248,
						1.3356887
					],
					[
						103.88765,
						1.3363748
					],
					[
						103.8873933,
						1.3369682
					],
					[
						103.8873702,
						1.3373984
					],
					[
						103.88712,
						1.3379434
					],
					[
						103.8869855,
						1.3382074
					],
					[
						103.8868408,
						1.3383032
					],
					[
						103.8866947,
						1.3385026
					],
					[
						103.8865235,
						1.3387561
					],
					[
						103.8861724,
						1.3392085
					],
					[
						103.8858875,
						1.3396355
					],
					[
						103.8855248,
						1.3400616
					],
					[
						103.8852469,
						1.3403824
					],
					[
						103.884887,
						1.3406063
					],
					[
						103.8846511,
						1.3406982
					],
					[
						103.8844082,
						1.3407142
					],
					[
						103.8841026,
						1.3407403
					],
					[
						103.8838509,
						1.3407898
					],
					[
						103.8834699,
						1.3408957
					],
					[
						103.8831563,
						1.3410274
					],
					[
						103.8828806,
						1.3411758
					],
					[
						103.8826238,
						1.3413242
					],
					[
						103.8823338,
						1.3415299
					],
					[
						103.881825,
						1.3417549
					],
					[
						103.8814636,
						1.3420181
					],
					[
						103.8807884,
						1.342334
					],
					[
						103.8801336,
						1.3426231
					],
					[
						103.8800805,
						1.3426479
					],
					[
						103.8795335,
						1.3429038
					],
					[
						103.8790847,
						1.3431541
					],
					[
						103.878834,
						1.3433042
					],
					[
						103.8779643,
						1.3438627
					],
					[
						103.8778994,
						1.3439032
					],
					[
						103.8775099,
						1.3441464
					],
					[
						103.8774165,
						1.3442047
					],
					[
						103.8773223,
						1.3442467
					],
					[
						103.8772688,
						1.3442706
					],
					[
						103.8770605,
						1.3443209
					],
					[
						103.8769305,
						1.3443523
					],
					[
						103.8766142,
						1.3443581
					],
					[
						103.876401,
						1.34432
					],
					[
						103.8751225,
						1.3437961
					],
					[
						103.8746115,
						1.3435867
					],
					[
						103.8741957,
						1.3433937
					],
					[
						103.873613,
						1.3433183
					],
					[
						103.8724976,
						1.3433853
					],
					[
						103.8719028,
						1.343348
					],
					[
						103.8716134,
						1.3432738
					],
					[
						103.8713297,
						1.3431539
					],
					[
						103.87083,
						1.3429315
					],
					[
						103.8706885,
						1.3428455
					],
					[
						103.8706061,
						1.3428617
					],
					[
						103.8705503,
						1.3428999
					],
					[
						103.8705173,
						1.3430161
					],
					[
						103.870512,
						1.3432206
					],
					[
						103.870519,
						1.3433889
					],
					[
						103.8705186,
						1.3435935
					],
					[
						103.8705549,
						1.3439773
					],
					[
						103.8706021,
						1.3442843
					],
					[
						103.8707256,
						1.3447851
					],
					[
						103.87086,
						1.3451579
					],
					[
						103.8709653,
						1.3454028
					],
					[
						103.8713608,
						1.346262
					],
					[
						103.8719386,
						1.3474605
					],
					[
						103.8722067,
						1.348024
					],
					[
						103.8721876,
						1.3482526
					],
					[
						103.8720821,
						1.3484873
					],
					[
						103.8717267,
						1.3486815
					],
					[
						103.8716311,
						1.3487792
					],
					[
						103.8715601,
						1.3488996
					],
					[
						103.8715193,
						1.3490309
					],
					[
						103.8714858,
						1.3492414
					],
					[
						103.8713793,
						1.3499116
					],
					[
						103.87133,
						1.3502215
					],
					[
						103.8713247,
						1.3502548
					],
					[
						103.8712592,
						1.3504664
					],
					[
						103.8711558,
						1.3506612
					],
					[
						103.8710164,
						1.3508318
					],
					[
						103.8708088,
						1.3510039
					],
					[
						103.8700085,
						1.3514074
					],
					[
						103.8698595,
						1.3514825
					],
					[
						103.8694657,
						1.3506999
					],
					[
						103.8689895,
						1.3497536
					],
					[
						103.8689143,
						1.3496623
					],
					[
						103.868838,
						1.3495698
					],
					[
						103.8686228,
						1.3494693
					],
					[
						103.8675588,
						1.3492377
					],
					[
						103.8669137,
						1.3490973
					],
					[
						103.8666109,
						1.3490527
					],
					[
						103.8664873,
						1.3490857
					],
					[
						103.8662213,
						1.3492198
					],
					[
						103.8654396,
						1.3495731
					],
					[
						103.8653345,
						1.3496615
					],
					[
						103.8652424,
						1.3497811
					],
					[
						103.8652029,
						1.3498909
					],
					[
						103.8651081,
						1.3501162
					],
					[
						103.8645682,
						1.3514632
					],
					[
						103.8644164,
						1.3516155
					],
					[
						103.8642452,
						1.3516802
					],
					[
						103.8641905,
						1.3516755
					],
					[
						103.8636859,
						1.351632
					],
					[
						103.8631272,
						1.3515838
					],
					[
						103.8628725,
						1.3515618
					],
					[
						103.8625418,
						1.3516348
					],
					[
						103.8627309,
						1.3518539
					],
					[
						103.8638216,
						1.3531305
					],
					[
						103.8640788,
						1.35354
					],
					[
						103.8641069,
						1.3536441
					],
					[
						103.864065,
						1.3537802
					],
					[
						103.8639564,
						1.3538693
					],
					[
						103.863871,
						1.3539005
					],
					[
						103.863334,
						1.3539591
					],
					[
						103.8627565,
						1.354094
					],
					[
						103.8626933,
						1.3541088
					],
					[
						103.862323,
						1.354198
					],
					[
						103.8609712,
						1.3545367
					],
					[
						103.8606386,
						1.3546216
					],
					[
						103.8591641,
						1.3549539
					],
					[
						103.8589274,
						1.3550077
					],
					[
						103.8583214,
						1.3551454
					],
					[
						103.8581859,
						1.3551812
					],
					[
						103.8579954,
						1.3552272
					],
					[
						103.8578798,
						1.3552543
					],
					[
						103.857748,
						1.3552853
					],
					[
						103.857108,
						1.3554355
					],
					[
						103.8568531,
						1.355495
					],
					[
						103.8563362,
						1.3556463
					],
					[
						103.8559062,
						1.3558418
					],
					[
						103.8555834,
						1.3560336
					],
					[
						103.8553177,
						1.3562359
					],
					[
						103.8551113,
						1.3564295
					],
					[
						103.8548882,
						1.35665
					],
					[
						103.8545634,
						1.3571344
					],
					[
						103.8542985,
						1.3576482
					],
					[
						103.8539897,
						1.3583121
					],
					[
						103.8539615,
						1.3583727
					],
					[
						103.8539294,
						1.3584417
					],
					[
						103.8538903,
						1.3585081
					],
					[
						103.8538223,
						1.3586235
					],
					[
						103.8536898,
						1.3588484
					],
					[
						103.8533876,
						1.359297
					],
					[
						103.8530995,
						1.3596076
					],
					[
						103.852888,
						1.3597988
					],
					[
						103.8527712,
						1.3598472
					],
					[
						103.8525987,
						1.3598738
					],
					[
						103.8522792,
						1.3598694
					],
					[
						103.8520888,
						1.3598098
					],
					[
						103.8518428,
						1.3596249
					],
					[
						103.851663,
						1.3593249
					],
					[
						103.8516247,
						1.3592611
					],
					[
						103.8515404,
						1.3591204
					],
					[
						103.8488432,
						1.3546198
					],
					[
						103.848591,
						1.3541451
					],
					[
						103.8484338,
						1.3538023
					],
					[
						103.8484284,
						1.3537803
					],
					[
						103.8483936,
						1.3536404
					],
					[
						103.8483622,
						1.3534976
					],
					[
						103.8482741,
						1.3530968
					],
					[
						103.8481867,
						1.3526625
					],
					[
						103.8480867,
						1.3522028
					],
					[
						103.8474147,
						1.3492017
					],
					[
						103.8473452,
						1.3488913
					],
					[
						103.8473702,
						1.3487874
					],
					[
						103.8474494,
						1.3486193
					],
					[
						103.8475832,
						1.3484991
					],
					[
						103.8476641,
						1.348459
					],
					[
						103.8482485,
						1.3483287
					],
					[
						103.8488604,
						1.3481923
					],
					[
						103.8498724,
						1.3479668
					],
					[
						103.8501891,
						1.349387
					],
					[
						103.8502745,
						1.3497696
					],
					[
						103.850334,
						1.3500093
					]
				]
			},
			"properties": {
				"styleUrl": "#busroute",
				"styleHash": "-2257368b",
				"stroke-opacity": 0.6039215686274509,
				"stroke": "#DA0FB1",
				"stroke-width": 4
			}
		}
	]
}