{
	"type": "FeatureCollection",
	"features": [
		{
			"type": "Feature",
			"geometry": {
				"type": "LineString",
				"coordinates": [
					[
						103.8883942,
						1.3262064
					],
					[
						103.8884053,
						1.3261758
					],
					[
						103.8884906,
						1.3258321
					],
					[
						103.8890254,
						1.3259798
					],
					[
						103.8893068,
						1.3261128
					],
					[
						103.8893643,
						1.32614
					],
					[
						103.8897089,
						1.3263028
					],
					[
						103.8898813,
						1.3264045
					],
					[
						103.8902798,
						1.3265633
					],
					[
						103.8908117,
						1.3267532
					],
					[
						103.8913646,
						1.3269371
					],
					[
						103.8927999,
						1.3274146
					],
					[
						103.8928885,
						1.327444
					],
					[
						103.8929613,
						1.3274701
					],
					[
						103.8951815,
						1.3282627
					],
					[
						103.8956346,
						1.3284362
					],
					[
						103.8966592,
						1.3288287
					],
					[
						103.8981302,
						1.3294356
					],
					[
						103.8982673,
						1.3294922
					],
					[
						103.8994547,
						1.3299812
					],
					[
						103.8996627,
						1.3300669
					],
					[
						103.9001404,
						1.3302865
					],
					[
						103.9002309,
						1.3303342
					],
					[
						103.9006381,
						1.3305486
					],
					[
						103.9011962,
						1.3308972
					],
					[
						103.9016796,
						1.3312579
					],
					[
						103.9019193,
						1.331467
					],
					[
						103.9023133,
						1.331876
					],
					[
						103.9025707,
						1.3321407
					],
					[
						103.9028262,
						1.3324064
					],
					[
						103.9034717,
						1.3330776
					],
					[
						103.9038247,
						1.3333927
					],
					[
						103.9043404,
						1.3337165
					],
					[
						103.9056749,
						1.3343562
					],
					[
						103.9060341,
						1.3345253
					],
					[
						103.9063078,
						1.3346141
					],
					[
						103.9072255,
						1.3347751
					],
					[
						103.9075014,
						1.3348423
					],
					[
						103.9078947,
						1.3348661
					],
					[
						103.9090797,
						1.3351447
					],
					[
						103.909881,
						1.3353459
					],
					[
						103.9104973,
						1.3355006
					],
					[
						103.9109509,
						1.3356381
					],
					[
						103.9111065,
						1.3357072
					],
					[
						103.9115817,
						1.3359181
					],
					[
						103.912153,
						1.3361716
					],
					[
						103.9125936,
						1.336424
					],
					[
						103.9134938,
						1.3368459
					],
					[
						103.9135862,
						1.3368906
					],
					[
						103.9149987,
						1.3375736
					],
					[
						103.9160447,
						1.3378762
					],
					[
						103.9162987,
						1.3379465
					],
					[
						103.9174827,
						1.3381325
					],
					[
						103.9176509,
						1.3381481
					],
					[
						103.9177855,
						1.3381862
					],
					[
						103.9179667,
						1.3382376
					],
					[
						103.917977,
						1.3381336
					],
					[
						103.9180094,
						1.3378059
					],
					[
						103.9181161,
						1.3371249
					],
					[
						103.9181257,
						1.3369815
					],
					[
						103.9181602,
						1.3364654
					],
					[
						103.9181617,
						1.3364427
					],
					[
						103.9182151,
						1.3356444
					],
					[
						103.9182302,
						1.3355763
					],
					[
						103.9183285,
						1.3351346
					],
					[
						103.918386,
						1.3349835
					],
					[
						103.9185141,
						1.3346467
					],
					[
						103.918842,
						1.3339337
					],
					[
						103.9195996,
						1.3322861
					],
					[
						103.9198707,
						1.3317497
					],
					[
						103.9200992,
						1.3314842
					],
					[
						103.9208874,
						1.3309434
					],
					[
						103.9218254,
						1.3302662
					],
					[
						103.9222728,
						1.329961
					],
					[
						103.9227278,
						1.3297198
					],
					[
						103.9233406,
						1.3294814
					],
					[
						103.9238479,
						1.3293611
					],
					[
						103.9244422,
						1.3292879
					],
					[
						103.9249194,
						1.3292895
					],
					[
						103.9254969,
						1.3293585
					],
					[
						103.9260613,
						1.3294979
					],
					[
						103.9264969,
						1.3296304
					],
					[
						103.9283018,
						1.3301074
					],
					[
						103.9284056,
						1.3301348
					],
					[
						103.9288368,
						1.3302488
					],
					[
						103.9305381,
						1.3306456
					],
					[
						103.9314779,
						1.330864
					],
					[
						103.9328738,
						1.3311883
					],
					[
						103.933978,
						1.3314448
					],
					[
						103.9340758,
						1.3315855
					],
					[
						103.9341578,
						1.331729
					],
					[
						103.934217,
						1.3318988
					],
					[
						103.9340942,
						1.3325365
					],
					[
						103.934064,
						1.3326922
					],
					[
						103.9338548,
						1.3337738
					],
					[
						103.9337792,
						1.3341645
					],
					[
						103.9336955,
						1.3345969
					],
					[
						103.933559,
						1.3353023
					],
					[
						103.9334078,
						1.3360841
					],
					[
						103.9332586,
						1.3366449
					],
					[
						103.9332106,
						1.3368252
					],
					[
						103.9330694,
						1.3376042
					],
					[
						103.9329994,
						1.3379594
					],
					[
						103.9332628,
						1.338014
					],
					[
						103.9334742,
						1.3380558
					],
					[
						103.9337032,
						1.338115
					],
					[
						103.9340096,
						1.3382244
					],
					[
						103.9342875,
						1.338357
					],
					[
						103.9343925,
						1.3384198
					],
					[
						103.9345367,
						1.3385061
					],
					[
						103.9346434,
						1.338583
					],
					[
						103.9347592,
						1.3386665
					],
					[
						103.9350797,
						1.3389532
					],
					[
						103.9351657,
						1.3390418
					],
					[
						103.9359808,
						1.3398827
					],
					[
						103.9362389,
						1.3401867
					],
					[
						103.9363675,
						1.3403381
					],
					[
						103.9363951,
						1.340382
					],
					[
						103.9367723,
						1.3409847
					],
					[
						103.9378383,
						1.3430635
					],
					[
						103.9380973,
						1.3435686
					],
					[
						103.9382661,
						1.3439964
					],
					[
						103.9383384,
						1.3443948
					],
					[
						103.9383545,
						1.344587
					],
					[
						103.9383696,
						1.3447666
					],
					[
						103.9383803,
						1.3449359
					],
					[
						103.9383906,
						1.3450971
					],
					[
						103.938407,
						1.3457538
					],
					[
						103.9383954,
						1.3464312
					],
					[
						103.9383923,
						1.3466119
					],
					[
						103.9383776,
						1.3468712
					],
					[
						103.9383614,
						1.347158
					],
					[
						103.9383547,
						1.3472758
					],
					[
						103.9383405,
						1.3474158
					],
					[
						103.9383191,
						1.3476278
					],
					[
						103.9382435,
						1.3483754
					],
					[
						103.9381946,
						1.3487929
					],
					[
						103.9381786,
						1.3488945
					],
					[
						103.9380282,
						1.3498446
					],
					[
						103.9380244,
						1.3501022
					],
					[
						103.9380877,
						1.3504026
					],
					[
						103.9381728,
						1.350686
					],
					[
						103.9383007,
						1.3509384
					],
					[
						103.938439,
						1.3511332
					],
					[
						103.9386521,
						1.3513452
					],
					[
						103.9389134,
						1.351523
					],
					[
						103.9390849,
						1.3515921
					],
					[
						103.9391824,
						1.3516313
					],
					[
						103.93933,
						1.3516755
					],
					[
						103.9394028,
						1.3516973
					],
					[
						103.9395676,
						1.3517184
					],
					[
						103.9396768,
						1.351719
					],
					[
						103.9402331,
						1.3517218
					],
					[
						103.9403349,
						1.3517223
					],
					[
						103.9411057,
						1.3517262
					],
					[
						103.9412555,
						1.3517832
					],
					[
						103.9413985,
						1.3518983
					],
					[
						103.9414845,
						1.3520732
					],
					[
						103.9415024,
						1.3529534
					],
					[
						103.9415063,
						1.3531448
					],
					[
						103.9415201,
						1.3538259
					],
					[
						103.9415255,
						1.3540898
					],
					[
						103.9425294,
						1.3540918
					],
					[
						103.9425164,
						1.3546599
					],
					[
						103.9425478,
						1.3548134
					],
					[
						103.9425526,
						1.3548214
					],
					[
						103.9426682,
						1.3550186
					],
					[
						103.9428873,
						1.3552516
					],
					[
						103.9430559,
						1.355417
					],
					[
						103.9432357,
						1.3555015
					],
					[
						103.9434398,
						1.3555241
					],
					[
						103.9435682,
						1.3555233
					],
					[
						103.9440773,
						1.3555202
					],
					[
						103.9440773,
						1.3567331
					],
					[
						103.9442202,
						1.356732
					],
					[
						103.9460866,
						1.3567184
					],
					[
						103.9461244,
						1.3567182
					],
					[
						103.9462791,
						1.3567332
					],
					[
						103.9464302,
						1.356748
					],
					[
						103.9464469,
						1.3567479
					],
					[
						103.9497359,
						1.356732
					],
					[
						103.950061,
						1.3567051
					],
					[
						103.9502527,
						1.3566892
					],
					[
						103.9503748,
						1.3566716
					],
					[
						103.9509064,
						1.356595
					],
					[
						103.9511612,
						1.3565583
					],
					[
						103.9517525,
						1.3564731
					],
					[
						103.9518908,
						1.3564532
					],
					[
						103.9520114,
						1.3564372
					],
					[
						103.9530304,
						1.3563023
					],
					[
						103.9534959,
						1.3562836
					],
					[
						103.9538974,
						1.3562674
					],
					[
						103.9538999,
						1.3562673
					],
					[
						103.9541893,
						1.3562556
					],
					[
						103.9549766,
						1.3562525
					],
					[
						103.9552849,
						1.3562496
					],
					[
						103.9554673,
						1.3562479
					],
					[
						103.9556081,
						1.3562462
					],
					[
						103.9559834,
						1.3562419
					],
					[
						103.9566784,
						1.3562771
					],
					[
						103.9568282,
						1.3563133
					],
					[
						103.9569824,
						1.3563506
					],
					[
						103.9572718,
						1.3564703
					],
					[
						103.9576618,
						1.3567323
					],
					[
						103.9581812,
						1.357234
					],
					[
						103.9583354,
						1.357383
					],
					[
						103.9584935,
						1.357565
					],
					[
						103.9587099,
						1.3577957
					],
					[
						103.9604611,
						1.3595595
					],
					[
						103.9609354,
						1.3600387
					],
					[
						103.9611437,
						1.3602491
					],
					[
						103.9614836,
						1.3601425
					],
					[
						103.9617322,
						1.3599496
					],
					[
						103.961995,
						1.3595524
					],
					[
						103.9621993,
						1.3591529
					],
					[
						103.9624271,
						1.3585781
					],
					[
						103.9625683,
						1.3581469
					],
					[
						103.9627501,
						1.3575882
					],
					[
						103.9635281,
						1.3551959
					],
					[
						103.9638385,
						1.3545114
					],
					[
						103.9641196,
						1.3538196
					],
					[
						103.9642571,
						1.3533353
					],
					[
						103.9643884,
						1.3527468
					],
					[
						103.9642726,
						1.3517676
					],
					[
						103.9642771,
						1.351483
					],
					[
						103.9641954,
						1.3509496
					],
					[
						103.9640838,
						1.3503528
					],
					[
						103.9637637,
						1.3492854
					],
					[
						103.9636203,
						1.3487805
					],
					[
						103.963515,
						1.3484442
					],
					[
						103.9634572,
						1.3482593
					],
					[
						103.9632961,
						1.3477446
					],
					[
						103.9632425,
						1.3475646
					],
					[
						103.9629962,
						1.3467377
					],
					[
						103.9626759,
						1.3456857
					],
					[
						103.9626022,
						1.3454438
					],
					[
						103.9624209,
						1.3448493
					],
					[
						103.9623847,
						1.3447293
					],
					[
						103.9622303,
						1.3442224
					],
					[
						103.9620735,
						1.3437073
					],
					[
						103.9620336,
						1.3435762
					],
					[
						103.9619191,
						1.3432005
					],
					[
						103.9617765,
						1.3427321
					],
					[
						103.961758,
						1.3426714
					],
					[
						103.961544,
						1.3419686
					],
					[
						103.9613618,
						1.3412964
					],
					[
						103.9613227,
						1.3411521
					],
					[
						103.9612628,
						1.3409186
					],
					[
						103.9612558,
						1.3408915
					],
					[
						103.9611331,
						1.3405012
					],
					[
						103.9611712,
						1.3401872
					],
					[
						103.9612425,
						1.3399718
					],
					[
						103.9613733,
						1.339748
					],
					[
						103.961435,
						1.3397278
					],
					[
						103.961417,
						1.3397459
					],
					[
						103.9615604,
						1.3397025
					],
					[
						103.9617916,
						1.339656
					],
					[
						103.9621126,
						1.3396272
					],
					[
						103.9625921,
						1.3396105
					],
					[
						103.9628243,
						1.3396342
					],
					[
						103.9636564,
						1.339676
					],
					[
						103.9640249,
						1.3396939
					],
					[
						103.9642211,
						1.33967
					],
					[
						103.9643697,
						1.3396221
					],
					[
						103.9645717,
						1.3395324
					],
					[
						103.9648235,
						1.3392886
					],
					[
						103.9646488,
						1.339226
					],
					[
						103.9646467,
						1.3390065
					],
					[
						103.9623828,
						1.3353929
					],
					[
						103.961956,
						1.3347145
					],
					[
						103.9617026,
						1.3343119
					]
				]
			},
			"properties": {
				"styleUrl": "#busroute",
				"styleHash": "-2257368b",
				"stroke-opacity": 0.6039215686274509,
				"stroke": "#DA0FB1",
				"stroke-width": 4
			}
		}
	]
}