{
	"type": "FeatureCollection",
	"features": [
		{
			"type": "Feature",
			"geometry": {
				"type": "LineString",
				"coordinates": [
					[
						103.8550408,
						1.2996792
					],
					[
						103.8549669,
						1.2995911
					],
					[
						103.8543164,
						1.2988427
					],
					[
						103.8540758,
						1.2985383
					],
					[
						103.8540358,
						1.2984877
					],
					[
						103.8539918,
						1.2984326
					],
					[
						103.8533313,
						1.2976041
					],
					[
						103.8532872,
						1.2975495
					],
					[
						103.852745,
						1.2968788
					],
					[
						103.8522966,
						1.2963768
					],
					[
						103.8519325,
						1.2959691
					],
					[
						103.853119,
						1.2951222
					],
					[
						103.8542548,
						1.2942607
					],
					[
						103.8546844,
						1.2939343
					],
					[
						103.8549724,
						1.2936655
					],
					[
						103.8553158,
						1.2934483
					],
					[
						103.8558225,
						1.2931754
					],
					[
						103.8559699,
						1.2930845
					],
					[
						103.8563492,
						1.292826
					],
					[
						103.8568442,
						1.2925386
					],
					[
						103.8570976,
						1.2923951
					],
					[
						103.8571634,
						1.2923562
					],
					[
						103.8576414,
						1.2920738
					],
					[
						103.8578348,
						1.2919596
					],
					[
						103.8584471,
						1.2916044
					],
					[
						103.858753,
						1.2914975
					],
					[
						103.8588455,
						1.2914652
					],
					[
						103.8591954,
						1.2914359
					],
					[
						103.8591985,
						1.2914357
					],
					[
						103.8596195,
						1.2914005
					],
					[
						103.8600636,
						1.2913633
					],
					[
						103.8602959,
						1.2913439
					],
					[
						103.8608865,
						1.2913218
					],
					[
						103.8608802,
						1.2912573
					],
					[
						103.8608727,
						1.2907473
					],
					[
						103.8608736,
						1.2907025
					],
					[
						103.8608948,
						1.2896686
					],
					[
						103.8608976,
						1.2895302
					],
					[
						103.8608952,
						1.2891515
					],
					[
						103.8608914,
						1.2885464
					],
					[
						103.860831,
						1.2864038
					],
					[
						103.8607816,
						1.2852166
					],
					[
						103.8607048,
						1.2848135
					],
					[
						103.8606444,
						1.284565
					],
					[
						103.8605402,
						1.2842944
					],
					[
						103.8603097,
						1.283825
					],
					[
						103.8599641,
						1.2832783
					],
					[
						103.8594189,
						1.2824352
					],
					[
						103.8587173,
						1.2813289
					],
					[
						103.8585873,
						1.281124
					],
					[
						103.8584827,
						1.280959
					],
					[
						103.8575787,
						1.2795573
					],
					[
						103.8573845,
						1.2792562
					],
					[
						103.8571406,
						1.2788781
					],
					[
						103.8569947,
						1.2786541
					],
					[
						103.8561355,
						1.2772904
					],
					[
						103.8546095,
						1.2783225
					],
					[
						103.8531892,
						1.279233
					],
					[
						103.852817,
						1.2794504
					],
					[
						103.8524324,
						1.279675
					],
					[
						103.8523505,
						1.2797226
					],
					[
						103.8520533,
						1.2798961
					],
					[
						103.8517442,
						1.2801474
					],
					[
						103.8514792,
						1.2803771
					],
					[
						103.8510823,
						1.2807708
					],
					[
						103.8503142,
						1.2812099
					],
					[
						103.8501843,
						1.2812824
					],
					[
						103.8495131,
						1.2816569
					],
					[
						103.849062,
						1.281869
					],
					[
						103.8490014,
						1.281907
					],
					[
						103.8484748,
						1.2822377
					],
					[
						103.8480264,
						1.2824876
					],
					[
						103.8473098,
						1.2828846
					],
					[
						103.847039,
						1.2830491
					],
					[
						103.8460845,
						1.2836289
					],
					[
						103.8459805,
						1.2837225
					],
					[
						103.8454547,
						1.2840308
					],
					[
						103.845252,
						1.2841497
					],
					[
						103.8440748,
						1.2848401
					],
					[
						103.8438865,
						1.2849686
					],
					[
						103.8440018,
						1.2850826
					],
					[
						103.8444585,
						1.2856389
					],
					[
						103.8447292,
						1.2859686
					],
					[
						103.8452152,
						1.2865664
					],
					[
						103.8458782,
						1.2873639
					],
					[
						103.8460315,
						1.2875362
					],
					[
						103.8463351,
						1.2878718
					],
					[
						103.846659,
						1.2882527
					],
					[
						103.8469133,
						1.2885658
					],
					[
						103.8471062,
						1.2888032
					],
					[
						103.8476878,
						1.2895193
					],
					[
						103.847984,
						1.2898948
					],
					[
						103.8480125,
						1.2900257
					],
					[
						103.8479866,
						1.2901235
					],
					[
						103.8479025,
						1.2902022
					],
					[
						103.8473096,
						1.2905013
					],
					[
						103.8463088,
						1.2911633
					],
					[
						103.8462092,
						1.29123
					],
					[
						103.8461316,
						1.2912821
					],
					[
						103.8459121,
						1.2914291
					],
					[
						103.845546,
						1.2916822
					],
					[
						103.84483,
						1.2922041
					],
					[
						103.8445426,
						1.2924136
					],
					[
						103.8444398,
						1.2924988
					],
					[
						103.8443907,
						1.2925396
					],
					[
						103.8443336,
						1.292587
					],
					[
						103.8442128,
						1.2926873
					],
					[
						103.844092,
						1.2927876
					],
					[
						103.8437857,
						1.2930031
					],
					[
						103.8437265,
						1.2930447
					],
					[
						103.8437594,
						1.2931102
					],
					[
						103.8439978,
						1.293586
					],
					[
						103.8441062,
						1.2938957
					],
					[
						103.8441416,
						1.2942412
					],
					[
						103.8440211,
						1.2952993
					],
					[
						103.8439966,
						1.2954997
					],
					[
						103.8439172,
						1.296149
					],
					[
						103.8439,
						1.2963427
					],
					[
						103.8438559,
						1.2967105
					],
					[
						103.8437575,
						1.2979511
					],
					[
						103.8437458,
						1.2980985
					],
					[
						103.8437337,
						1.2982512
					],
					[
						103.8437075,
						1.2985815
					],
					[
						103.8436884,
						1.2988229
					],
					[
						103.8430516,
						1.2992451
					],
					[
						103.8428445,
						1.2993824
					],
					[
						103.843002,
						1.3000068
					],
					[
						103.8437536,
						1.2997648
					],
					[
						103.8444752,
						1.2995325
					],
					[
						103.844729,
						1.2994547
					],
					[
						103.844773,
						1.299422
					],
					[
						103.8452739,
						1.2992562
					],
					[
						103.8457818,
						1.2990881
					],
					[
						103.8470278,
						1.2986756
					],
					[
						103.8475058,
						1.2987078
					],
					[
						103.8481838,
						1.2987492
					],
					[
						103.8484533,
						1.2986905
					],
					[
						103.8486975,
						1.2986008
					],
					[
						103.8493007,
						1.2981345
					],
					[
						103.8495399,
						1.2979496
					],
					[
						103.8503341,
						1.2973043
					],
					[
						103.8510917,
						1.2966856
					],
					[
						103.8514219,
						1.2964042
					],
					[
						103.8519325,
						1.2959691
					],
					[
						103.852745,
						1.2968788
					],
					[
						103.8532872,
						1.2975495
					],
					[
						103.8533313,
						1.2976041
					],
					[
						103.8539918,
						1.2984326
					],
					[
						103.8540358,
						1.2984877
					],
					[
						103.8540758,
						1.2985383
					],
					[
						103.8543164,
						1.2988427
					],
					[
						103.8549669,
						1.2995911
					],
					[
						103.855049,
						1.2996891
					],
					[
						103.8552631,
						1.2999445
					],
					[
						103.8553098,
						1.3000002
					],
					[
						103.85585,
						1.3006448
					],
					[
						103.8558963,
						1.3006982
					],
					[
						103.8563737,
						1.3012492
					],
					[
						103.8569179,
						1.301877
					],
					[
						103.8569742,
						1.3019419
					],
					[
						103.857662,
						1.3027264
					],
					[
						103.8577057,
						1.3027763
					],
					[
						103.8572706,
						1.3032155
					],
					[
						103.8569005,
						1.3035893
					],
					[
						103.8563941,
						1.3040928
					],
					[
						103.8561695,
						1.304291
					],
					[
						103.855913,
						1.3045421
					],
					[
						103.855745,
						1.3047193
					],
					[
						103.8556703,
						1.3047989
					],
					[
						103.8552204,
						1.3052776
					],
					[
						103.8548668,
						1.3047152
					],
					[
						103.8546256,
						1.3043607
					],
					[
						103.8544737,
						1.3041373
					],
					[
						103.8542504,
						1.3037105
					],
					[
						103.8540305,
						1.3034024
					],
					[
						103.8542009,
						1.3032995
					],
					[
						103.8542385,
						1.3032768
					],
					[
						103.8544644,
						1.3031691
					],
					[
						103.8546843,
						1.3031212
					],
					[
						103.8550422,
						1.3032295
					],
					[
						103.8553718,
						1.3032157
					],
					[
						103.8559975,
						1.3026575
					],
					[
						103.8560744,
						1.3026177
					],
					[
						103.8564888,
						1.3023064
					],
					[
						103.8569742,
						1.3019419
					],
					[
						103.857662,
						1.3027264
					],
					[
						103.8577057,
						1.3027763
					],
					[
						103.8577756,
						1.3028461
					],
					[
						103.8580933,
						1.3031631
					],
					[
						103.858245,
						1.3033059
					],
					[
						103.8584269,
						1.3034878
					],
					[
						103.8587502,
						1.3037924
					],
					[
						103.8591834,
						1.3041658
					],
					[
						103.8596563,
						1.3045604
					],
					[
						103.8601388,
						1.3049797
					],
					[
						103.8601877,
						1.3050222
					],
					[
						103.8602412,
						1.3050711
					],
					[
						103.8614782,
						1.3062004
					],
					[
						103.8626893,
						1.3073232
					],
					[
						103.8630976,
						1.3077594
					],
					[
						103.8633797,
						1.3080114
					],
					[
						103.8639314,
						1.3085664
					],
					[
						103.8639903,
						1.3086255
					],
					[
						103.8639682,
						1.3087107
					],
					[
						103.8638827,
						1.3090415
					],
					[
						103.8638526,
						1.3091336
					],
					[
						103.8637177,
						1.3093796
					],
					[
						103.8636794,
						1.3094325
					],
					[
						103.8633557,
						1.3098787
					],
					[
						103.8632262,
						1.3100551
					],
					[
						103.8627305,
						1.3107301
					],
					[
						103.8626539,
						1.3108341
					],
					[
						103.8623832,
						1.3112016
					],
					[
						103.8622289,
						1.311411
					],
					[
						103.8619556,
						1.3117813
					],
					[
						103.8618354,
						1.3119425
					],
					[
						103.861785,
						1.3120101
					],
					[
						103.8618307,
						1.3120651
					],
					[
						103.8620338,
						1.3123098
					],
					[
						103.8623033,
						1.3126524
					],
					[
						103.8627249,
						1.3132196
					],
					[
						103.8631394,
						1.3137357
					],
					[
						103.8636521,
						1.3143741
					],
					[
						103.8639299,
						1.3147123
					],
					[
						103.8641745,
						1.3150428
					],
					[
						103.8643706,
						1.315373
					],
					[
						103.8644206,
						1.3154484
					],
					[
						103.8644424,
						1.315476
					],
					[
						103.8650631,
						1.3162517
					],
					[
						103.8661502,
						1.3176275
					],
					[
						103.8663023,
						1.3178166
					],
					[
						103.8664379,
						1.3179517
					],
					[
						103.8666269,
						1.3181312
					],
					[
						103.8668515,
						1.3182963
					],
					[
						103.8695027,
						1.3199688
					],
					[
						103.8698255,
						1.320171
					],
					[
						103.8707319,
						1.3207423
					],
					[
						103.870928,
						1.3208739
					],
					[
						103.8711271,
						1.3210294
					],
					[
						103.8711979,
						1.3210761
					],
					[
						103.8707937,
						1.3217341
					],
					[
						103.8705607,
						1.3221122
					],
					[
						103.8702618,
						1.3225947
					],
					[
						103.8700211,
						1.3229832
					],
					[
						103.8696605,
						1.3235798
					],
					[
						103.869506,
						1.3238161
					],
					[
						103.869399,
						1.3239237
					],
					[
						103.8692623,
						1.3240464
					],
					[
						103.8683322,
						1.3246326
					],
					[
						103.8682371,
						1.3246865
					],
					[
						103.8681538,
						1.3247014
					],
					[
						103.8680112,
						1.3246925
					],
					[
						103.8678824,
						1.3246444
					],
					[
						103.86778,
						1.3245357
					],
					[
						103.8676084,
						1.324225
					],
					[
						103.8668782,
						1.3231068
					],
					[
						103.86665,
						1.3227594
					],
					[
						103.8660171,
						1.321796
					],
					[
						103.8654394,
						1.3209167
					],
					[
						103.8651827,
						1.3207945
					],
					[
						103.8650896,
						1.3207878
					],
					[
						103.8649702,
						1.3208184
					],
					[
						103.8637261,
						1.3215729
					],
					[
						103.8636354,
						1.3216553
					],
					[
						103.863584,
						1.3217481
					],
					[
						103.8635994,
						1.3219875
					],
					[
						103.8636696,
						1.3222555
					],
					[
						103.8637706,
						1.3223783
					],
					[
						103.8640094,
						1.3226836
					],
					[
						103.8650268,
						1.3239658
					],
					[
						103.8654361,
						1.3244703
					],
					[
						103.8657405,
						1.3248636
					],
					[
						103.8658921,
						1.3250593
					],
					[
						103.8666392,
						1.3259658
					],
					[
						103.8670806,
						1.3265494
					],
					[
						103.8674482,
						1.3270089
					],
					[
						103.8677326,
						1.3273643
					],
					[
						103.8679695,
						1.3274992
					],
					[
						103.8680598,
						1.3276137
					],
					[
						103.8681201,
						1.327696
					],
					[
						103.8682062,
						1.3277913
					],
					[
						103.8685695,
						1.3283534
					],
					[
						103.86887,
						1.328194
					],
					[
						103.8690018,
						1.3282008
					],
					[
						103.8691353,
						1.3282095
					],
					[
						103.8692514,
						1.3282138
					],
					[
						103.8694709,
						1.3282095
					],
					[
						103.8698978,
						1.328318
					],
					[
						103.8701752,
						1.328411
					],
					[
						103.8703836,
						1.3283827
					],
					[
						103.8713793,
						1.3286946
					],
					[
						103.8723813,
						1.329036
					],
					[
						103.872493,
						1.3290741
					],
					[
						103.8735547,
						1.3294417
					],
					[
						103.8743591,
						1.3297208
					],
					[
						103.874968,
						1.3299343
					],
					[
						103.8750468,
						1.3299622
					],
					[
						103.87532,
						1.3300587
					],
					[
						103.8761408,
						1.3303403
					],
					[
						103.876452,
						1.3304159
					],
					[
						103.8771688,
						1.3306395
					],
					[
						103.878163,
						1.3309497
					],
					[
						103.8788611,
						1.3312036
					],
					[
						103.8790241,
						1.3312629
					],
					[
						103.879224,
						1.3305186
					],
					[
						103.8793985,
						1.3298469
					],
					[
						103.8797655,
						1.3285828
					],
					[
						103.8798793,
						1.3282537
					],
					[
						103.8799515,
						1.3280467
					],
					[
						103.8800549,
						1.3277733
					],
					[
						103.8801852,
						1.3277085
					],
					[
						103.8802878,
						1.3276778
					],
					[
						103.8803833,
						1.3276669
					],
					[
						103.8805088,
						1.3276632
					],
					[
						103.8814104,
						1.3275978
					],
					[
						103.8818036,
						1.3275177
					],
					[
						103.8820504,
						1.3274482
					],
					[
						103.8830871,
						1.3269793
					],
					[
						103.8832154,
						1.3269395
					],
					[
						103.8836782,
						1.3267961
					],
					[
						103.8838859,
						1.3267603
					],
					[
						103.8839525,
						1.326752
					],
					[
						103.884,
						1.3267627
					],
					[
						103.8840476,
						1.3267878
					],
					[
						103.8840916,
						1.3268536
					],
					[
						103.8841581,
						1.3271432
					],
					[
						103.8841974,
						1.3272102
					],
					[
						103.8842306,
						1.3272568
					],
					[
						103.8842699,
						1.3272951
					],
					[
						103.884321,
						1.327325
					],
					[
						103.8844116,
						1.3273679
					],
					[
						103.8853764,
						1.3273038
					],
					[
						103.885415,
						1.3275754
					],
					[
						103.8854974,
						1.3281555
					],
					[
						103.885512,
						1.3282552
					],
					[
						103.8855928,
						1.3285148
					],
					[
						103.885666,
						1.3286323
					],
					[
						103.8857585,
						1.3287242
					],
					[
						103.8858617,
						1.3288266
					],
					[
						103.88598,
						1.3288946
					],
					[
						103.88624,
						1.3289722
					],
					[
						103.8864553,
						1.3289663
					],
					[
						103.8866457,
						1.3289197
					],
					[
						103.8867695,
						1.328862
					],
					[
						103.8869792,
						1.3286844
					],
					[
						103.887162,
						1.3283861
					],
					[
						103.8871907,
						1.3283393
					],
					[
						103.8874789,
						1.327869
					],
					[
						103.8878705,
						1.32723
					],
					[
						103.8878906,
						1.3271971
					],
					[
						103.8880696,
						1.326905
					],
					[
						103.8882933,
						1.3264818
					],
					[
						103.8884053,
						1.3261758
					],
					[
						103.8884906,
						1.3258321
					],
					[
						103.8890254,
						1.3259798
					],
					[
						103.8893068,
						1.3261128
					],
					[
						103.8893643,
						1.32614
					],
					[
						103.8893662,
						1.3261409
					]
				]
			},
			"properties": {
				"styleUrl": "#busroute",
				"styleHash": "-2257368b",
				"stroke-opacity": 0.6039215686274509,
				"stroke": "#DA0FB1",
				"stroke-width": 4
			}
		}
	]
}