{
	"type": "FeatureCollection",
	"features": [
		{
			"type": "Feature",
			"geometry": {
				"type": "LineString",
				"coordinates": [
					[
						103.889307,
						1.3261129
					],
					[
						103.8893068,
						1.3261128
					],
					[
						103.8890254,
						1.3259798
					],
					[
						103.8884906,
						1.3258321
					],
					[
						103.888529,
						1.3256642
					],
					[
						103.8885913,
						1.3253913
					],
					[
						103.8887526,
						1.324685
					],
					[
						103.888949,
						1.3238327
					],
					[
						103.8890183,
						1.3235218
					],
					[
						103.888681,
						1.3234576
					],
					[
						103.8883356,
						1.3235054
					],
					[
						103.8880072,
						1.3235508
					],
					[
						103.8878549,
						1.3235719
					],
					[
						103.8871772,
						1.3236656
					],
					[
						103.8862325,
						1.3238037
					],
					[
						103.8860196,
						1.3238348
					],
					[
						103.8850085,
						1.323981
					],
					[
						103.8849859,
						1.3245968
					],
					[
						103.8850151,
						1.3248013
					],
					[
						103.8850562,
						1.3250893
					],
					[
						103.8851413,
						1.3256854
					],
					[
						103.8852169,
						1.3262144
					],
					[
						103.8853042,
						1.3268252
					],
					[
						103.8853327,
						1.3270252
					],
					[
						103.8853662,
						1.3272387
					],
					[
						103.8853764,
						1.3273038
					],
					[
						103.8844116,
						1.3273679
					],
					[
						103.8841465,
						1.3273855
					],
					[
						103.8840454,
						1.3266824
					],
					[
						103.8839892,
						1.3261794
					],
					[
						103.8839784,
						1.3260828
					],
					[
						103.8839299,
						1.325815
					],
					[
						103.883854,
						1.3255958
					],
					[
						103.883773,
						1.3254629
					],
					[
						103.883543,
						1.325246
					],
					[
						103.8833291,
						1.3251418
					],
					[
						103.8831739,
						1.3251071
					],
					[
						103.883014,
						1.325102
					],
					[
						103.8817964,
						1.3253698
					],
					[
						103.8811898,
						1.3255236
					],
					[
						103.8807856,
						1.3254201
					],
					[
						103.8807068,
						1.3257054
					],
					[
						103.8805685,
						1.3261562
					],
					[
						103.8802156,
						1.3273
					],
					[
						103.8801824,
						1.3274077
					],
					[
						103.8800549,
						1.3277733
					],
					[
						103.8799515,
						1.3280467
					],
					[
						103.8798793,
						1.3282537
					],
					[
						103.8797655,
						1.3285828
					],
					[
						103.8793985,
						1.3298469
					],
					[
						103.8792784,
						1.3303094
					],
					[
						103.879224,
						1.3305186
					],
					[
						103.8790241,
						1.3312629
					],
					[
						103.8788611,
						1.3312036
					],
					[
						103.878163,
						1.3309497
					],
					[
						103.876452,
						1.3304159
					],
					[
						103.8761408,
						1.3303403
					],
					[
						103.87532,
						1.3300587
					],
					[
						103.8750468,
						1.3299622
					],
					[
						103.874968,
						1.3299343
					],
					[
						103.8743591,
						1.3297208
					],
					[
						103.8735547,
						1.3294417
					],
					[
						103.872493,
						1.3290741
					],
					[
						103.8723813,
						1.329036
					],
					[
						103.8713793,
						1.3286946
					],
					[
						103.8703836,
						1.3283827
					],
					[
						103.8702624,
						1.3282322
					],
					[
						103.8695235,
						1.3279941
					],
					[
						103.8694236,
						1.3279539
					],
					[
						103.8693461,
						1.3278716
					],
					[
						103.8692428,
						1.3277287
					],
					[
						103.8691094,
						1.3275901
					],
					[
						103.8688469,
						1.3273909
					],
					[
						103.8686518,
						1.3273656
					],
					[
						103.868451,
						1.3272869
					],
					[
						103.8683219,
						1.3268971
					],
					[
						103.8681705,
						1.3255369
					],
					[
						103.8680635,
						1.3251062
					],
					[
						103.8681002,
						1.3249712
					],
					[
						103.8682133,
						1.324827
					],
					[
						103.8683856,
						1.3247194
					],
					[
						103.8692801,
						1.32416
					],
					[
						103.8694763,
						1.3239955
					],
					[
						103.8695922,
						1.3238729
					],
					[
						103.8697556,
						1.3236396
					],
					[
						103.8701637,
						1.3229935
					],
					[
						103.8704371,
						1.322519
					],
					[
						103.8707187,
						1.3220638
					],
					[
						103.8712846,
						1.3211491
					],
					[
						103.8712757,
						1.3210713
					],
					[
						103.8712519,
						1.3210175
					],
					[
						103.8711836,
						1.3209277
					],
					[
						103.8707764,
						1.3206406
					],
					[
						103.8696056,
						1.3199108
					],
					[
						103.867472,
						1.3185691
					],
					[
						103.8667303,
						1.3180845
					],
					[
						103.8664806,
						1.3178584
					],
					[
						103.8663059,
						1.3176395
					],
					[
						103.8646316,
						1.3155554
					],
					[
						103.8645168,
						1.3153694
					],
					[
						103.8643421,
						1.3151648
					],
					[
						103.8641745,
						1.3150428
					],
					[
						103.8639299,
						1.3147123
					],
					[
						103.8636521,
						1.3143741
					],
					[
						103.8631038,
						1.3136914
					],
					[
						103.8627249,
						1.3132196
					],
					[
						103.8623033,
						1.3126524
					],
					[
						103.8620338,
						1.3123098
					],
					[
						103.8618307,
						1.3120651
					],
					[
						103.861785,
						1.3120101
					],
					[
						103.8615436,
						1.312337
					],
					[
						103.8612792,
						1.3126978
					],
					[
						103.8608804,
						1.313285
					],
					[
						103.8600339,
						1.3123725
					],
					[
						103.8597825,
						1.3120991
					],
					[
						103.8596444,
						1.3119343
					],
					[
						103.8595118,
						1.3118512
					],
					[
						103.8591763,
						1.3113398
					],
					[
						103.8589705,
						1.3110262
					],
					[
						103.8582379,
						1.3099236
					],
					[
						103.8578233,
						1.3092864
					],
					[
						103.8574839,
						1.3087603
					],
					[
						103.8571342,
						1.3081999
					],
					[
						103.8569081,
						1.3078493
					],
					[
						103.8566498,
						1.3074359
					],
					[
						103.8564954,
						1.3072114
					],
					[
						103.85631,
						1.3069488
					],
					[
						103.8559474,
						1.3063966
					],
					[
						103.8558372,
						1.3062213
					],
					[
						103.8557594,
						1.3060987
					],
					[
						103.8555574,
						1.3057833
					],
					[
						103.8552204,
						1.3052776
					],
					[
						103.8548668,
						1.3047152
					],
					[
						103.8547589,
						1.3045567
					],
					[
						103.8546256,
						1.3043607
					],
					[
						103.8544737,
						1.3041373
					],
					[
						103.8542504,
						1.3037105
					],
					[
						103.8540305,
						1.3034024
					],
					[
						103.8538157,
						1.3030784
					],
					[
						103.8536562,
						1.3029192
					],
					[
						103.8531655,
						1.302322
					],
					[
						103.8526849,
						1.3017359
					],
					[
						103.852013,
						1.3009102
					],
					[
						103.8516195,
						1.3004266
					],
					[
						103.8510704,
						1.2997712
					],
					[
						103.8510497,
						1.2997465
					],
					[
						103.8500622,
						1.298571
					],
					[
						103.8495399,
						1.2979496
					],
					[
						103.848929,
						1.2972481
					],
					[
						103.8482704,
						1.2978093
					],
					[
						103.847826,
						1.2981843
					],
					[
						103.8476802,
						1.2982732
					],
					[
						103.8475609,
						1.2983132
					],
					[
						103.8474173,
						1.2982949
					],
					[
						103.8472934,
						1.2982761
					],
					[
						103.8472312,
						1.298242
					],
					[
						103.847053,
						1.2980712
					],
					[
						103.8468607,
						1.2979232
					],
					[
						103.8467674,
						1.2978862
					],
					[
						103.8466882,
						1.2978691
					],
					[
						103.8464875,
						1.297872
					],
					[
						103.8461559,
						1.297941
					],
					[
						103.8444785,
						1.2984592
					],
					[
						103.8439625,
						1.2986366
					],
					[
						103.8436884,
						1.2988229
					],
					[
						103.8438559,
						1.2967105
					],
					[
						103.8439966,
						1.2954997
					],
					[
						103.8440211,
						1.2952993
					],
					[
						103.8441416,
						1.2942412
					],
					[
						103.8441062,
						1.2938957
					],
					[
						103.8439978,
						1.293586
					],
					[
						103.8437594,
						1.2931102
					],
					[
						103.8437265,
						1.2930447
					],
					[
						103.8437857,
						1.2930031
					],
					[
						103.844092,
						1.2927876
					],
					[
						103.8442128,
						1.2926873
					],
					[
						103.8443336,
						1.292587
					],
					[
						103.8443907,
						1.2925396
					],
					[
						103.8444398,
						1.2924988
					],
					[
						103.8445226,
						1.2924301
					],
					[
						103.8445426,
						1.2924136
					],
					[
						103.845546,
						1.2916822
					],
					[
						103.8459121,
						1.2914291
					],
					[
						103.8461316,
						1.2912821
					],
					[
						103.8462092,
						1.29123
					],
					[
						103.8463088,
						1.2911633
					],
					[
						103.8473096,
						1.2905013
					],
					[
						103.8479025,
						1.2902022
					],
					[
						103.847927,
						1.2901899
					],
					[
						103.8482449,
						1.2901122
					],
					[
						103.8483181,
						1.2900943
					],
					[
						103.8482602,
						1.289935
					],
					[
						103.8476589,
						1.2892008
					],
					[
						103.8471449,
						1.2885681
					],
					[
						103.8466648,
						1.2879292
					],
					[
						103.8465663,
						1.2878112
					],
					[
						103.8461991,
						1.2873747
					],
					[
						103.8460743,
						1.2872239
					],
					[
						103.845405,
						1.2864421
					],
					[
						103.8463033,
						1.2859341
					],
					[
						103.8468524,
						1.2856235
					],
					[
						103.847183,
						1.285433
					],
					[
						103.8478232,
						1.2850765
					],
					[
						103.8483694,
						1.2847729
					],
					[
						103.8484704,
						1.2847167
					],
					[
						103.8487487,
						1.2845621
					],
					[
						103.8490151,
						1.2843864
					],
					[
						103.8491258,
						1.2843135
					],
					[
						103.8495607,
						1.2839034
					],
					[
						103.8496479,
						1.2838073
					],
					[
						103.8498349,
						1.2835453
					],
					[
						103.8500339,
						1.2831896
					],
					[
						103.8502242,
						1.2828368
					],
					[
						103.8504367,
						1.2826556
					],
					[
						103.8509411,
						1.2826393
					],
					[
						103.8512709,
						1.2825937
					],
					[
						103.8514059,
						1.2825361
					],
					[
						103.8519642,
						1.2821678
					],
					[
						103.8526647,
						1.2817574
					],
					[
						103.8534127,
						1.2812583
					],
					[
						103.8541763,
						1.2807734
					],
					[
						103.8549292,
						1.2802955
					],
					[
						103.8556143,
						1.2798605
					],
					[
						103.8567561,
						1.2791256
					],
					[
						103.8571406,
						1.2788781
					],
					[
						103.8573845,
						1.2792562
					],
					[
						103.8575787,
						1.2795573
					],
					[
						103.8584827,
						1.280959
					],
					[
						103.8585873,
						1.281124
					],
					[
						103.8590695,
						1.2818842
					],
					[
						103.8594189,
						1.2824352
					],
					[
						103.8599641,
						1.2832783
					],
					[
						103.8603097,
						1.283825
					],
					[
						103.8605402,
						1.2842944
					],
					[
						103.8606444,
						1.284565
					],
					[
						103.8607048,
						1.2848135
					],
					[
						103.8607816,
						1.2852166
					],
					[
						103.860831,
						1.2864038
					],
					[
						103.8608914,
						1.2885464
					],
					[
						103.8608952,
						1.2891515
					],
					[
						103.8608976,
						1.2895302
					],
					[
						103.8608948,
						1.2896686
					],
					[
						103.8608736,
						1.2907025
					],
					[
						103.8608727,
						1.2907473
					],
					[
						103.8608802,
						1.2912573
					],
					[
						103.8608865,
						1.2913218
					],
					[
						103.8608795,
						1.2917387
					],
					[
						103.860877,
						1.2918907
					],
					[
						103.8608459,
						1.292686
					],
					[
						103.8608234,
						1.2932637
					],
					[
						103.8608039,
						1.2933582
					],
					[
						103.8608034,
						1.2933606
					],
					[
						103.8607749,
						1.2934996
					],
					[
						103.8606699,
						1.293654
					],
					[
						103.8605781,
						1.2937202
					],
					[
						103.8605163,
						1.2937796
					],
					[
						103.8604855,
						1.2938093
					],
					[
						103.8602434,
						1.2939702
					],
					[
						103.8592586,
						1.2945662
					],
					[
						103.8591519,
						1.2944307
					],
					[
						103.8590192,
						1.2943586
					],
					[
						103.8588694,
						1.2943411
					],
					[
						103.8587498,
						1.2943665
					],
					[
						103.8586454,
						1.294419
					],
					[
						103.8585656,
						1.2945208
					],
					[
						103.8585356,
						1.2945946
					],
					[
						103.8585088,
						1.2946604
					],
					[
						103.8585076,
						1.2948113
					],
					[
						103.8585277,
						1.2948884
					],
					[
						103.8585911,
						1.2950032
					],
					[
						103.8586771,
						1.2950958
					],
					[
						103.8588081,
						1.2951268
					],
					[
						103.8589209,
						1.2951413
					],
					[
						103.8590372,
						1.2950996
					],
					[
						103.8593735,
						1.2956739
					],
					[
						103.8595828,
						1.2960467
					],
					[
						103.859675,
						1.2962117
					],
					[
						103.859704,
						1.2963286
					],
					[
						103.8596967,
						1.2964527
					],
					[
						103.8596605,
						1.2965768
					],
					[
						103.8595971,
						1.2966752
					],
					[
						103.8593344,
						1.2969351
					],
					[
						103.8589698,
						1.2972823
					],
					[
						103.8585066,
						1.2977353
					],
					[
						103.8583107,
						1.2979565
					],
					[
						103.8580001,
						1.2982478
					],
					[
						103.8579229,
						1.2983674
					],
					[
						103.8574369,
						1.2989426
					]
				]
			},
			"properties": {
				"styleUrl": "#busroute",
				"styleHash": "-2257368b",
				"stroke-opacity": 0.6039215686274509,
				"stroke": "#DA0FB1",
				"stroke-width": 4
			}
		}
	]
}