{
	"type": "FeatureCollection",
	"features": [
		{
			"type": "Feature",
			"geometry": {
				"type": "LineString",
				"coordinates": [
					[
						103.8574369,
						1.2989426
					],
					[
						103.8574331,
						1.298947
					],
					[
						103.8566417,
						1.2998398
					],
					[
						103.85585,
						1.3006448
					],
					[
						103.8550507,
						1.3014225
					],
					[
						103.8543821,
						1.3021998
					],
					[
						103.8540305,
						1.3027085
					],
					[
						103.8538157,
						1.3030784
					],
					[
						103.8536382,
						1.3032229
					],
					[
						103.8534599,
						1.3033486
					],
					[
						103.8532222,
						1.303522
					],
					[
						103.8529012,
						1.3036836
					],
					[
						103.8526128,
						1.3037784
					],
					[
						103.85261,
						1.3037793
					],
					[
						103.8523188,
						1.3038869
					],
					[
						103.8519741,
						1.3040724
					],
					[
						103.8517459,
						1.3041922
					],
					[
						103.8514157,
						1.3043619
					],
					[
						103.8509521,
						1.3045811
					],
					[
						103.8506822,
						1.3047336
					],
					[
						103.850152,
						1.305294
					],
					[
						103.8491381,
						1.3061112
					],
					[
						103.8491281,
						1.3061194
					],
					[
						103.8491191,
						1.3061268
					],
					[
						103.847149,
						1.3077448
					],
					[
						103.8470326,
						1.3078686
					],
					[
						103.8469421,
						1.3079483
					],
					[
						103.8466122,
						1.3085329
					],
					[
						103.8462056,
						1.3092903
					],
					[
						103.8460668,
						1.3094909
					],
					[
						103.8457845,
						1.3097827
					],
					[
						103.8455373,
						1.3099842
					],
					[
						103.8455311,
						1.3099892
					],
					[
						103.8452803,
						1.3101469
					],
					[
						103.844753,
						1.310368
					],
					[
						103.8445257,
						1.3104429
					],
					[
						103.8443241,
						1.3105093
					],
					[
						103.8441231,
						1.310595
					],
					[
						103.843888,
						1.3106953
					],
					[
						103.8435368,
						1.3108448
					],
					[
						103.8435029,
						1.3108593
					],
					[
						103.8432595,
						1.3109616
					],
					[
						103.8426058,
						1.3112747
					],
					[
						103.8422251,
						1.311455
					],
					[
						103.8418527,
						1.3116279
					],
					[
						103.8413063,
						1.3117263
					],
					[
						103.8407999,
						1.311925
					],
					[
						103.8404582,
						1.312059
					],
					[
						103.839499,
						1.3124977
					],
					[
						103.83921,
						1.3126298
					],
					[
						103.8391492,
						1.3125855
					],
					[
						103.8389742,
						1.3125558
					],
					[
						103.8388811,
						1.3125809
					],
					[
						103.8387994,
						1.3126324
					],
					[
						103.8387072,
						1.3127661
					],
					[
						103.8386906,
						1.3129392
					],
					[
						103.8387215,
						1.3130311
					],
					[
						103.838767,
						1.3130882
					],
					[
						103.8381656,
						1.3137821
					],
					[
						103.8377747,
						1.3142329
					],
					[
						103.8373282,
						1.314731
					],
					[
						103.8371251,
						1.3150863
					],
					[
						103.8354326,
						1.3169677
					],
					[
						103.8351999,
						1.3172264
					],
					[
						103.8351007,
						1.3172911
					],
					[
						103.8350696,
						1.3173047
					],
					[
						103.8349276,
						1.3173665
					],
					[
						103.8314396,
						1.3185249
					],
					[
						103.8308144,
						1.3187313
					],
					[
						103.8303269,
						1.318896
					],
					[
						103.8298843,
						1.3190474
					],
					[
						103.8296341,
						1.3191305
					],
					[
						103.8286293,
						1.3194646
					],
					[
						103.8277509,
						1.3196918
					],
					[
						103.8276837,
						1.3197091
					],
					[
						103.8270835,
						1.319892
					],
					[
						103.8264979,
						1.3200941
					],
					[
						103.8260887,
						1.3202355
					],
					[
						103.8260431,
						1.3202512
					],
					[
						103.8254053,
						1.3204708
					],
					[
						103.8249011,
						1.3206428
					],
					[
						103.8238072,
						1.3210155
					],
					[
						103.8231119,
						1.321245
					],
					[
						103.8228817,
						1.3213331
					],
					[
						103.8220738,
						1.3215875
					],
					[
						103.8212345,
						1.3218279
					],
					[
						103.8197662,
						1.3222219
					],
					[
						103.8196239,
						1.3222559
					],
					[
						103.8189669,
						1.3224129
					],
					[
						103.8182699,
						1.3225548
					],
					[
						103.816844,
						1.3227004
					],
					[
						103.8162442,
						1.3227053
					],
					[
						103.8159743,
						1.3227017
					],
					[
						103.8151779,
						1.3227993
					],
					[
						103.8148807,
						1.3228357
					],
					[
						103.8146311,
						1.3228665
					],
					[
						103.8138037,
						1.3229606
					],
					[
						103.8134112,
						1.3230121
					],
					[
						103.8131326,
						1.3230289
					],
					[
						103.8124386,
						1.3231081
					],
					[
						103.8119756,
						1.3231789
					],
					[
						103.8116379,
						1.3232263
					],
					[
						103.8111522,
						1.3234034
					],
					[
						103.8106066,
						1.3237695
					],
					[
						103.8098101,
						1.3243437
					],
					[
						103.8096948,
						1.3244957
					],
					[
						103.8091314,
						1.3248869
					],
					[
						103.8085287,
						1.3252961
					],
					[
						103.8084652,
						1.3253463
					],
					[
						103.8083173,
						1.3254478
					],
					[
						103.8072219,
						1.3261992
					],
					[
						103.8072087,
						1.3262081
					],
					[
						103.8064322,
						1.3267321
					],
					[
						103.8063827,
						1.3267655
					],
					[
						103.8041257,
						1.3282885
					],
					[
						103.8033248,
						1.3287792
					],
					[
						103.8029122,
						1.3289378
					],
					[
						103.8020286,
						1.3292344
					],
					[
						103.8018222,
						1.3293072
					],
					[
						103.8014231,
						1.3294479
					],
					[
						103.800974,
						1.329608
					],
					[
						103.7998506,
						1.3300155
					],
					[
						103.7988247,
						1.3303694
					],
					[
						103.7981733,
						1.3306008
					],
					[
						103.7977025,
						1.3307788
					],
					[
						103.7974141,
						1.3308874
					],
					[
						103.7973074,
						1.3309246
					],
					[
						103.7956809,
						1.331492
					],
					[
						103.7954993,
						1.3315509
					],
					[
						103.7953105,
						1.3316203
					],
					[
						103.7945897,
						1.3318716
					],
					[
						103.7943932,
						1.3319452
					],
					[
						103.7940878,
						1.3320595
					],
					[
						103.7928479,
						1.3325118
					],
					[
						103.7917911,
						1.3328886
					],
					[
						103.791417,
						1.3329534
					],
					[
						103.7909424,
						1.3330915
					],
					[
						103.7893631,
						1.333653
					],
					[
						103.7891792,
						1.3337165
					],
					[
						103.7886842,
						1.3338874
					],
					[
						103.7882471,
						1.3340455
					],
					[
						103.7864675,
						1.3346742
					],
					[
						103.7863214,
						1.3347252
					],
					[
						103.7843134,
						1.3354355
					],
					[
						103.7835254,
						1.3357142
					],
					[
						103.7826569,
						1.3360379
					],
					[
						103.7820109,
						1.3362787
					],
					[
						103.781447,
						1.3365523
					],
					[
						103.7809504,
						1.3367359
					],
					[
						103.7798797,
						1.3371316
					],
					[
						103.7792729,
						1.3373543
					],
					[
						103.7789693,
						1.3374657
					],
					[
						103.7787442,
						1.3375483
					],
					[
						103.7784617,
						1.3375938
					],
					[
						103.7780991,
						1.3377314
					],
					[
						103.7778851,
						1.337857
					],
					[
						103.7775802,
						1.338088
					],
					[
						103.7773918,
						1.3382877
					],
					[
						103.7772967,
						1.3384133
					],
					[
						103.776845,
						1.3390207
					],
					[
						103.7766215,
						1.3393405
					],
					[
						103.7764598,
						1.3395702
					],
					[
						103.77636,
						1.3397234
					],
					[
						103.7760831,
						1.3401375
					],
					[
						103.7760492,
						1.3402687
					],
					[
						103.7759237,
						1.3407941
					],
					[
						103.775862,
						1.3411646
					],
					[
						103.7758097,
						1.3412412
					],
					[
						103.7757818,
						1.3413572
					],
					[
						103.7756813,
						1.3418968
					],
					[
						103.7755026,
						1.342807
					],
					[
						103.7754435,
						1.3431076
					],
					[
						103.775307,
						1.3437823
					],
					[
						103.7752407,
						1.3439863
					],
					[
						103.7751561,
						1.3442929
					],
					[
						103.7750281,
						1.3444539
					],
					[
						103.7746769,
						1.3448435
					],
					[
						103.7738637,
						1.3452948
					],
					[
						103.7729435,
						1.345825
					],
					[
						103.772071,
						1.3463277
					],
					[
						103.7720607,
						1.3463336
					],
					[
						103.7719213,
						1.3465424
					],
					[
						103.7713672,
						1.3473718
					],
					[
						103.7710401,
						1.3478615
					],
					[
						103.7705996,
						1.3484649
					],
					[
						103.7705384,
						1.3485567
					],
					[
						103.7704926,
						1.3486256
					],
					[
						103.7703148,
						1.3488925
					],
					[
						103.7702913,
						1.3489974
					],
					[
						103.7702616,
						1.3491292
					],
					[
						103.770183,
						1.349475
					],
					[
						103.7701617,
						1.3502381
					],
					[
						103.7700521,
						1.3510388
					],
					[
						103.7700366,
						1.3511523
					],
					[
						103.7700008,
						1.3514138
					],
					[
						103.7699096,
						1.3520794
					],
					[
						103.7698893,
						1.3522281
					],
					[
						103.7698442,
						1.3524147
					],
					[
						103.7697438,
						1.3528313
					],
					[
						103.7697401,
						1.3528466
					],
					[
						103.7693568,
						1.3539958
					],
					[
						103.7692914,
						1.3541921
					],
					[
						103.7692672,
						1.3542608
					],
					[
						103.7691401,
						1.3546222
					],
					[
						103.7690064,
						1.3549917
					],
					[
						103.768972,
						1.3550865
					],
					[
						103.7689461,
						1.3551583
					],
					[
						103.7689451,
						1.355161
					],
					[
						103.7688355,
						1.3554639
					],
					[
						103.7686066,
						1.3559092
					],
					[
						103.768548,
						1.3560232
					],
					[
						103.7682823,
						1.3564461
					],
					[
						103.7676409,
						1.3573157
					],
					[
						103.7675565,
						1.357528
					],
					[
						103.7674778,
						1.3579776
					],
					[
						103.7672566,
						1.3587528
					],
					[
						103.7670569,
						1.3595209
					],
					[
						103.7669713,
						1.3599588
					],
					[
						103.7669071,
						1.3603895
					],
					[
						103.7668786,
						1.3606766
					],
					[
						103.7668714,
						1.3609853
					],
					[
						103.7669213,
						1.3613084
					],
					[
						103.7670967,
						1.3619266
					],
					[
						103.7674148,
						1.3630043
					],
					[
						103.7674729,
						1.3632011
					],
					[
						103.7675031,
						1.363671
					],
					[
						103.767471,
						1.3640586
					],
					[
						103.767421,
						1.3643565
					],
					[
						103.767314,
						1.3646795
					],
					[
						103.767232,
						1.3648626
					],
					[
						103.7657745,
						1.3672326
					],
					[
						103.7655142,
						1.3677853
					],
					[
						103.7653934,
						1.3679764
					],
					[
						103.7652151,
						1.3682426
					],
					[
						103.7648873,
						1.3687318
					],
					[
						103.7644216,
						1.3693971
					],
					[
						103.7638658,
						1.3701897
					],
					[
						103.763738,
						1.3704081
					],
					[
						103.7636045,
						1.3706399
					],
					[
						103.7634497,
						1.3710539
					],
					[
						103.7633406,
						1.3714015
					],
					[
						103.7631902,
						1.3718932
					],
					[
						103.7627466,
						1.3739487
					],
					[
						103.7623678,
						1.3762689
					],
					[
						103.762205,
						1.3766671
					],
					[
						103.7620869,
						1.3773384
					],
					[
						103.7620251,
						1.3776489
					],
					[
						103.7619395,
						1.3779941
					],
					[
						103.7618028,
						1.3782499
					]
				]
			},
			"properties": {
				"styleUrl": "#busroute",
				"styleHash": "-2257368b",
				"stroke-opacity": 0.6039215686274509,
				"stroke": "#DA0FB1",
				"stroke-width": 4
			}
		}
	]
}