{
	"type": "FeatureCollection",
	"features": [
		{
			"type": "Feature",
			"geometry": {
				"type": "LineString",
				"coordinates": [
					[
						103.7621783,
						1.3778287
					],
					[
						103.7622067,
						1.3777323
					],
					[
						103.7623213,
						1.3772943
					],
					[
						103.7623865,
						1.3767833
					],
					[
						103.7623678,
						1.3762689
					],
					[
						103.7627466,
						1.3739487
					],
					[
						103.7631902,
						1.3718932
					],
					[
						103.7633406,
						1.3714015
					],
					[
						103.7634497,
						1.3710539
					],
					[
						103.7636045,
						1.3706399
					],
					[
						103.7637715,
						1.370351
					],
					[
						103.7638658,
						1.3701897
					],
					[
						103.7639431,
						1.3700791
					],
					[
						103.7644216,
						1.3693971
					],
					[
						103.7645078,
						1.3692835
					],
					[
						103.7648704,
						1.3687571
					],
					[
						103.7652151,
						1.3682426
					],
					[
						103.7653934,
						1.3679764
					],
					[
						103.7655142,
						1.3677853
					],
					[
						103.7660313,
						1.3673427
					],
					[
						103.7663107,
						1.3669239
					],
					[
						103.7665365,
						1.3666548
					],
					[
						103.7673925,
						1.365267
					],
					[
						103.7675589,
						1.3649379
					],
					[
						103.7677134,
						1.3644773
					],
					[
						103.767761,
						1.364262
					],
					[
						103.7677967,
						1.363921
					],
					[
						103.7677888,
						1.3634796
					],
					[
						103.767748,
						1.3632247
					],
					[
						103.767694,
						1.3628434
					],
					[
						103.7676684,
						1.3627701
					],
					[
						103.7674681,
						1.3621973
					],
					[
						103.7673017,
						1.3617271
					],
					[
						103.7672257,
						1.3613969
					],
					[
						103.7671924,
						1.3610045
					],
					[
						103.7672019,
						1.360746
					],
					[
						103.7672542,
						1.3603201
					],
					[
						103.7673588,
						1.3595066
					],
					[
						103.7674873,
						1.3584538
					],
					[
						103.7674778,
						1.3579776
					],
					[
						103.7675565,
						1.357528
					],
					[
						103.7676409,
						1.3573157
					],
					[
						103.7682823,
						1.3564461
					],
					[
						103.768548,
						1.3560232
					],
					[
						103.7686654,
						1.3557948
					],
					[
						103.7688355,
						1.3554639
					],
					[
						103.7689451,
						1.355161
					],
					[
						103.7689461,
						1.3551583
					],
					[
						103.768972,
						1.3550865
					],
					[
						103.7690064,
						1.3549917
					],
					[
						103.7691401,
						1.3546222
					],
					[
						103.7692672,
						1.3542608
					],
					[
						103.7692914,
						1.3541921
					],
					[
						103.7693568,
						1.3539958
					],
					[
						103.7697401,
						1.3528466
					],
					[
						103.7697438,
						1.3528313
					],
					[
						103.7698442,
						1.3524147
					],
					[
						103.7698893,
						1.3522281
					],
					[
						103.7699096,
						1.3520794
					],
					[
						103.7700008,
						1.3514138
					],
					[
						103.7700366,
						1.3511523
					],
					[
						103.7700521,
						1.3510388
					],
					[
						103.7701617,
						1.3502381
					],
					[
						103.770183,
						1.349475
					],
					[
						103.7702616,
						1.3491292
					],
					[
						103.7702913,
						1.3489974
					],
					[
						103.7703148,
						1.3488925
					],
					[
						103.7704926,
						1.3486256
					],
					[
						103.7705384,
						1.3485567
					],
					[
						103.7705996,
						1.3484649
					],
					[
						103.7710401,
						1.3478615
					],
					[
						103.7713672,
						1.3473718
					],
					[
						103.7719213,
						1.3465424
					],
					[
						103.7720607,
						1.3463336
					],
					[
						103.772071,
						1.3463277
					],
					[
						103.7729435,
						1.345825
					],
					[
						103.7738637,
						1.3452948
					],
					[
						103.7746769,
						1.3448435
					],
					[
						103.7752481,
						1.3445314
					],
					[
						103.775307,
						1.3437823
					],
					[
						103.7754435,
						1.3431076
					],
					[
						103.7756813,
						1.3418968
					],
					[
						103.7757379,
						1.3415926
					],
					[
						103.7757818,
						1.3413572
					],
					[
						103.7758097,
						1.3412412
					],
					[
						103.775862,
						1.3411646
					],
					[
						103.7759237,
						1.3407941
					],
					[
						103.7760492,
						1.3402687
					],
					[
						103.7761966,
						1.3401822
					],
					[
						103.7762684,
						1.3400643
					],
					[
						103.7763861,
						1.3399064
					],
					[
						103.7766352,
						1.3395846
					],
					[
						103.7773523,
						1.3385557
					],
					[
						103.7774891,
						1.3383822
					],
					[
						103.7776139,
						1.3382506
					],
					[
						103.7777565,
						1.338119
					],
					[
						103.7779406,
						1.338017
					],
					[
						103.7781666,
						1.3379156
					],
					[
						103.7783865,
						1.3378259
					],
					[
						103.7787276,
						1.3376856
					],
					[
						103.7790176,
						1.3376043
					],
					[
						103.7792163,
						1.3375774
					],
					[
						103.7793772,
						1.337541
					],
					[
						103.7795022,
						1.3375027
					],
					[
						103.7810086,
						1.3369674
					],
					[
						103.7812344,
						1.3369073
					],
					[
						103.7827191,
						1.3363861
					],
					[
						103.7827378,
						1.3363791
					],
					[
						103.7833554,
						1.3361499
					],
					[
						103.7835603,
						1.336085
					],
					[
						103.7842278,
						1.3358567
					],
					[
						103.7853661,
						1.3354791
					],
					[
						103.7864411,
						1.3351025
					],
					[
						103.7865537,
						1.3350635
					],
					[
						103.7872483,
						1.3348225
					],
					[
						103.7875387,
						1.334722
					],
					[
						103.7880894,
						1.3345314
					],
					[
						103.7892787,
						1.3341258
					],
					[
						103.7899898,
						1.3338822
					],
					[
						103.7910731,
						1.3335112
					],
					[
						103.794281,
						1.332374
					],
					[
						103.7944752,
						1.3323053
					],
					[
						103.7954593,
						1.3319606
					],
					[
						103.7957913,
						1.3318466
					],
					[
						103.7959513,
						1.3317882
					],
					[
						103.7961407,
						1.3317215
					],
					[
						103.7963653,
						1.3316427
					],
					[
						103.7965279,
						1.3315843
					],
					[
						103.7976143,
						1.3311939
					],
					[
						103.7976797,
						1.3311713
					],
					[
						103.7978921,
						1.3310978
					],
					[
						103.7982663,
						1.3309678
					],
					[
						103.7984588,
						1.330902
					],
					[
						103.7994936,
						1.3305492
					],
					[
						103.8008526,
						1.3300703
					],
					[
						103.8016139,
						1.3298013
					],
					[
						103.8019575,
						1.3296799
					],
					[
						103.8030701,
						1.3292858
					],
					[
						103.8035333,
						1.3290758
					],
					[
						103.8058489,
						1.3275702
					],
					[
						103.8064412,
						1.3271663
					],
					[
						103.8065188,
						1.3271136
					],
					[
						103.8075222,
						1.3264328
					],
					[
						103.8085329,
						1.3257471
					],
					[
						103.8097823,
						1.3249117
					],
					[
						103.8104513,
						1.3244639
					],
					[
						103.8107509,
						1.3243634
					],
					[
						103.8111598,
						1.3242295
					],
					[
						103.811564,
						1.3241242
					],
					[
						103.812264,
						1.3239773
					],
					[
						103.8127028,
						1.3239457
					],
					[
						103.8133187,
						1.323934
					],
					[
						103.8135968,
						1.323879
					],
					[
						103.8137761,
						1.323812
					],
					[
						103.8139948,
						1.323721
					],
					[
						103.8143324,
						1.3235488
					],
					[
						103.8145416,
						1.3234722
					],
					[
						103.8147445,
						1.3234421
					],
					[
						103.8158956,
						1.3232872
					],
					[
						103.8162961,
						1.323244
					],
					[
						103.8164527,
						1.3232271
					],
					[
						103.8170042,
						1.3231607
					],
					[
						103.818708,
						1.3229654
					],
					[
						103.8198689,
						1.3226622
					],
					[
						103.82237,
						1.3220005
					],
					[
						103.8229024,
						1.3218317
					],
					[
						103.8233677,
						1.3217979
					],
					[
						103.8240971,
						1.3215523
					],
					[
						103.824243,
						1.3215032
					],
					[
						103.8250223,
						1.3212407
					],
					[
						103.8255131,
						1.3210665
					],
					[
						103.8257895,
						1.3209737
					],
					[
						103.8267845,
						1.3206436
					],
					[
						103.8273769,
						1.320447
					],
					[
						103.8276023,
						1.3203722
					],
					[
						103.8277274,
						1.3202347
					],
					[
						103.8286248,
						1.3200089
					],
					[
						103.8289066,
						1.319938
					],
					[
						103.8291775,
						1.3198528
					],
					[
						103.8293549,
						1.319797
					],
					[
						103.8300292,
						1.3195851
					],
					[
						103.8305262,
						1.3194124
					],
					[
						103.8310418,
						1.3192333
					],
					[
						103.8314831,
						1.3190906
					],
					[
						103.8327833,
						1.3187123
					],
					[
						103.8336432,
						1.3184406
					],
					[
						103.8347264,
						1.3180725
					],
					[
						103.83498,
						1.3179433
					],
					[
						103.8352302,
						1.3177632
					],
					[
						103.8353147,
						1.3176685
					],
					[
						103.8355358,
						1.3174209
					],
					[
						103.8357765,
						1.3171584
					],
					[
						103.8360483,
						1.3168572
					],
					[
						103.8377096,
						1.3150378
					],
					[
						103.8377569,
						1.3150043
					],
					[
						103.8380514,
						1.3147638
					],
					[
						103.8383731,
						1.3143929
					],
					[
						103.8387599,
						1.313947
					],
					[
						103.8391535,
						1.3134933
					],
					[
						103.8391826,
						1.3133851
					],
					[
						103.8392844,
						1.3133914
					],
					[
						103.8393893,
						1.3133626
					],
					[
						103.8394964,
						1.3132833
					],
					[
						103.8395528,
						1.3132014
					],
					[
						103.8395809,
						1.313109
					],
					[
						103.839578,
						1.3129963
					],
					[
						103.8395307,
						1.3128768
					],
					[
						103.8396099,
						1.3127565
					],
					[
						103.8396291,
						1.3127411
					],
					[
						103.8396665,
						1.3127112
					],
					[
						103.8402991,
						1.3124144
					],
					[
						103.8414052,
						1.3119506
					],
					[
						103.8418527,
						1.3116279
					],
					[
						103.8422251,
						1.311455
					],
					[
						103.8426058,
						1.3112747
					],
					[
						103.8432595,
						1.3109616
					],
					[
						103.8435029,
						1.3108593
					],
					[
						103.8435368,
						1.3108448
					],
					[
						103.843888,
						1.3106953
					],
					[
						103.8441231,
						1.310595
					],
					[
						103.8443241,
						1.3105093
					],
					[
						103.8445257,
						1.3104429
					],
					[
						103.844753,
						1.310368
					],
					[
						103.8452803,
						1.3101469
					],
					[
						103.8455311,
						1.3099892
					],
					[
						103.8455373,
						1.3099842
					],
					[
						103.8457845,
						1.3097827
					],
					[
						103.8461008,
						1.3096261
					],
					[
						103.8467594,
						1.3087792
					],
					[
						103.8470842,
						1.3084016
					],
					[
						103.8473419,
						1.3081913
					],
					[
						103.8477461,
						1.3077546
					],
					[
						103.8488748,
						1.3067345
					],
					[
						103.8491132,
						1.3065343
					],
					[
						103.8493627,
						1.3063249
					],
					[
						103.8503018,
						1.3055651
					],
					[
						103.8508902,
						1.3051045
					],
					[
						103.8510625,
						1.304931
					],
					[
						103.8515678,
						1.3046947
					],
					[
						103.8518302,
						1.304567
					],
					[
						103.8519543,
						1.30451
					],
					[
						103.8519573,
						1.3045086
					],
					[
						103.8522306,
						1.3043831
					],
					[
						103.8526029,
						1.3041993
					],
					[
						103.8528698,
						1.3041286
					],
					[
						103.8531087,
						1.3040367
					],
					[
						103.8532773,
						1.3039448
					],
					[
						103.853502,
						1.3038175
					],
					[
						103.8536987,
						1.3036549
					],
					[
						103.8540305,
						1.3034024
					],
					[
						103.8542385,
						1.3032768
					],
					[
						103.8544644,
						1.3031691
					],
					[
						103.8546843,
						1.3031212
					],
					[
						103.8550422,
						1.3032295
					],
					[
						103.8553718,
						1.3032157
					],
					[
						103.8559975,
						1.3026575
					],
					[
						103.8560744,
						1.3026177
					],
					[
						103.8564888,
						1.3023064
					],
					[
						103.8569742,
						1.3019419
					],
					[
						103.8569179,
						1.301877
					],
					[
						103.8563737,
						1.3012492
					],
					[
						103.8560176,
						1.3008382
					]
				]
			},
			"properties": {
				"styleUrl": "#busroute",
				"styleHash": "-2257368b",
				"stroke-opacity": 0.6039215686274509,
				"stroke": "#DA0FB1",
				"stroke-width": 4
			}
		}
	]
}