{
	"type": "FeatureCollection",
	"features": [
		{
			"type": "Feature",
			"geometry": {
				"type": "LineString",
				"coordinates": [
					[
						103.7848875,
						1.4484399
					],
					[
						103.7849759,
						1.4483673
					],
					[
						103.7850473,
						1.4482166
					],
					[
						103.7851115,
						1.4480227
					],
					[
						103.7850116,
						1.4479438
					],
					[
						103.7848547,
						1.4478648
					],
					[
						103.7846764,
						1.4478289
					],
					[
						103.784548,
						1.4478792
					],
					[
						103.7844125,
						1.4480802
					],
					[
						103.7840772,
						1.4486616
					],
					[
						103.783956,
						1.4489487
					],
					[
						103.783528,
						1.4498245
					],
					[
						103.7834281,
						1.450126
					],
					[
						103.7833853,
						1.4504347
					],
					[
						103.7833986,
						1.4509472
					],
					[
						103.7826288,
						1.4510967
					],
					[
						103.7818661,
						1.4513442
					],
					[
						103.7815592,
						1.451413
					],
					[
						103.7813438,
						1.4514484
					],
					[
						103.7808763,
						1.4515253
					],
					[
						103.7805954,
						1.4515154
					],
					[
						103.7801215,
						1.4514987
					],
					[
						103.7797871,
						1.4514153
					],
					[
						103.7794071,
						1.4511935
					],
					[
						103.7792428,
						1.4510982
					],
					[
						103.7791805,
						1.451062
					],
					[
						103.7791148,
						1.4510125
					],
					[
						103.7789926,
						1.4509204
					],
					[
						103.7787471,
						1.4506831
					],
					[
						103.778376,
						1.4502769
					],
					[
						103.7781998,
						1.4500454
					],
					[
						103.7779237,
						1.4495478
					],
					[
						103.7778211,
						1.44928
					],
					[
						103.7777444,
						1.4490037
					],
					[
						103.7773058,
						1.4469022
					],
					[
						103.7772824,
						1.4467903
					],
					[
						103.7774203,
						1.4467566
					],
					[
						103.7780436,
						1.4466044
					],
					[
						103.7783401,
						1.4464927
					],
					[
						103.7786887,
						1.4462608
					],
					[
						103.7788687,
						1.4460919
					],
					[
						103.7791105,
						1.4457688
					],
					[
						103.7795827,
						1.4447443
					],
					[
						103.7798357,
						1.4443692
					],
					[
						103.7801596,
						1.4440466
					],
					[
						103.7803831,
						1.4438812
					],
					[
						103.7805644,
						1.4437728
					],
					[
						103.7808861,
						1.4436307
					],
					[
						103.780989,
						1.4435852
					],
					[
						103.7811046,
						1.4435362
					],
					[
						103.7812942,
						1.4434558
					],
					[
						103.7821888,
						1.4431713
					],
					[
						103.7827294,
						1.4429255
					],
					[
						103.7832372,
						1.4426156
					],
					[
						103.7834802,
						1.442435
					],
					[
						103.7840193,
						1.4419643
					],
					[
						103.7840694,
						1.4419205
					],
					[
						103.7841362,
						1.441861
					],
					[
						103.7843333,
						1.4416857
					],
					[
						103.7846984,
						1.4414096
					],
					[
						103.7849248,
						1.4412378
					],
					[
						103.7850524,
						1.4411409
					],
					[
						103.785181,
						1.4410493
					],
					[
						103.7854381,
						1.4408659
					],
					[
						103.7871237,
						1.439901
					],
					[
						103.7878207,
						1.4395019
					],
					[
						103.7881135,
						1.4393035
					],
					[
						103.7882208,
						1.4392016
					],
					[
						103.7886747,
						1.4386781
					],
					[
						103.7888095,
						1.4384226
					],
					[
						103.7888438,
						1.4383166
					],
					[
						103.7888949,
						1.4381583
					],
					[
						103.7889362,
						1.4380145
					],
					[
						103.7890028,
						1.4377827
					],
					[
						103.789015,
						1.4376652
					],
					[
						103.7890342,
						1.4373642
					],
					[
						103.789008,
						1.4370011
					],
					[
						103.7889915,
						1.4369321
					],
					[
						103.7886661,
						1.435578
					],
					[
						103.7886115,
						1.4353589
					],
					[
						103.7885351,
						1.4351023
					],
					[
						103.7884733,
						1.4348945
					],
					[
						103.7884274,
						1.4347398
					],
					[
						103.7883342,
						1.4344258
					],
					[
						103.7882743,
						1.4341773
					],
					[
						103.7880316,
						1.4331875
					],
					[
						103.7879317,
						1.4327803
					],
					[
						103.7880383,
						1.432444
					],
					[
						103.7881276,
						1.4323383
					],
					[
						103.7882753,
						1.4322177
					],
					[
						103.7884219,
						1.4322165
					],
					[
						103.7891374,
						1.4321949
					],
					[
						103.7894629,
						1.432131
					],
					[
						103.7896549,
						1.4320735
					],
					[
						103.7898432,
						1.4320171
					],
					[
						103.7900497,
						1.4319057
					],
					[
						103.7903173,
						1.4317613
					],
					[
						103.7906598,
						1.4314779
					],
					[
						103.7909346,
						1.4311671
					],
					[
						103.7912485,
						1.4307253
					],
					[
						103.7912661,
						1.4306897
					],
					[
						103.791371,
						1.430477
					],
					[
						103.7914205,
						1.4303767
					],
					[
						103.791502,
						1.4301566
					],
					[
						103.7915717,
						1.4299683
					],
					[
						103.7916513,
						1.4297101
					],
					[
						103.7919241,
						1.4288252
					],
					[
						103.7919647,
						1.4286937
					],
					[
						103.7921551,
						1.428334
					],
					[
						103.7923685,
						1.4280524
					],
					[
						103.7928512,
						1.427638
					],
					[
						103.7931293,
						1.4274731
					],
					[
						103.7934918,
						1.4273383
					],
					[
						103.7935859,
						1.4273117
					],
					[
						103.7936605,
						1.4272906
					],
					[
						103.7938628,
						1.4272603
					],
					[
						103.7941405,
						1.4272391
					],
					[
						103.7942913,
						1.4272535
					],
					[
						103.7944131,
						1.4272677
					],
					[
						103.7946985,
						1.4273085
					],
					[
						103.7948995,
						1.4273494
					],
					[
						103.795222,
						1.4273949
					],
					[
						103.7953152,
						1.4274081
					],
					[
						103.7957808,
						1.4275003
					],
					[
						103.7959963,
						1.4275394
					],
					[
						103.7962761,
						1.4275901
					],
					[
						103.7966122,
						1.4276511
					],
					[
						103.7969614,
						1.4277265
					],
					[
						103.7970862,
						1.4277319
					],
					[
						103.7974021,
						1.4277266
					],
					[
						103.7976636,
						1.4276716
					],
					[
						103.7978056,
						1.427624
					],
					[
						103.7978908,
						1.4275859
					],
					[
						103.7981591,
						1.4274144
					],
					[
						103.798481,
						1.4271317
					],
					[
						103.798791,
						1.4268482
					],
					[
						103.7985355,
						1.4265432
					],
					[
						103.796314,
						1.4239894
					],
					[
						103.7961198,
						1.42365
					],
					[
						103.7958929,
						1.4232815
					],
					[
						103.7957788,
						1.4229848
					],
					[
						103.7957928,
						1.422786
					],
					[
						103.7958359,
						1.4226115
					],
					[
						103.79595,
						1.4224392
					],
					[
						103.7961212,
						1.4222765
					],
					[
						103.7964255,
						1.4220468
					],
					[
						103.7970958,
						1.4216093
					],
					[
						103.797795,
						1.4210993
					],
					[
						103.7988757,
						1.4204339
					],
					[
						103.800112,
						1.4195606
					],
					[
						103.8009003,
						1.4189438
					],
					[
						103.8020962,
						1.4180061
					],
					[
						103.8033684,
						1.416913
					],
					[
						103.8046215,
						1.4158263
					],
					[
						103.8053475,
						1.4150135
					],
					[
						103.8057491,
						1.414682
					],
					[
						103.8059643,
						1.414568
					],
					[
						103.8062,
						1.4145078
					],
					[
						103.8064432,
						1.4145048
					],
					[
						103.8066873,
						1.4145448
					],
					[
						103.8069671,
						1.4146357
					],
					[
						103.8075134,
						1.4149492
					],
					[
						103.8079649,
						1.4151359
					],
					[
						103.8084312,
						1.4151719
					],
					[
						103.8086121,
						1.4152415
					],
					[
						103.8090942,
						1.415367
					],
					[
						103.8095752,
						1.4154315
					],
					[
						103.809976,
						1.4154409
					],
					[
						103.8104467,
						1.4154032
					],
					[
						103.8107588,
						1.4153452
					],
					[
						103.8110629,
						1.4152624
					],
					[
						103.8113827,
						1.4151453
					],
					[
						103.8142407,
						1.4138767
					],
					[
						103.8147847,
						1.4137052
					],
					[
						103.8154471,
						1.4135939
					],
					[
						103.816017,
						1.4135784
					],
					[
						103.8164796,
						1.4136196
					],
					[
						103.8165681,
						1.4136348
					],
					[
						103.8198724,
						1.4142036
					],
					[
						103.8204409,
						1.4142478
					],
					[
						103.8210103,
						1.4142192
					],
					[
						103.8215715,
						1.4141183
					],
					[
						103.8221069,
						1.41395
					],
					[
						103.8225737,
						1.4137385
					],
					[
						103.8227451,
						1.4136446
					],
					[
						103.8229441,
						1.4134976
					],
					[
						103.8229957,
						1.4134596
					],
					[
						103.8230716,
						1.4134036
					],
					[
						103.823048,
						1.4133206
					],
					[
						103.8229209,
						1.4128738
					],
					[
						103.8228557,
						1.4125201
					],
					[
						103.8226699,
						1.4119056
					],
					[
						103.8222571,
						1.4109763
					],
					[
						103.8219481,
						1.4103788
					],
					[
						103.8208205,
						1.4080882
					],
					[
						103.8207241,
						1.4078924
					],
					[
						103.8206878,
						1.4078187
					],
					[
						103.8206504,
						1.4077427
					],
					[
						103.8203496,
						1.4071315
					],
					[
						103.8200873,
						1.4065918
					],
					[
						103.8198133,
						1.4061032
					],
					[
						103.8197688,
						1.4060215
					],
					[
						103.8197296,
						1.4059497
					],
					[
						103.8193124,
						1.4051848
					],
					[
						103.819043,
						1.404792
					],
					[
						103.8189809,
						1.4047012
					],
					[
						103.8188979,
						1.4045797
					],
					[
						103.8188397,
						1.4044048
					],
					[
						103.8183107,
						1.4037109
					],
					[
						103.8181948,
						1.4035524
					],
					[
						103.818064,
						1.4033041
					],
					[
						103.817752,
						1.402664
					],
					[
						103.8175072,
						1.402128
					],
					[
						103.8173216,
						1.4016437
					],
					[
						103.8172795,
						1.4014587
					],
					[
						103.8172385,
						1.4012723
					],
					[
						103.8172236,
						1.4011287
					],
					[
						103.8172296,
						1.4008865
					],
					[
						103.8172533,
						1.4006442
					],
					[
						103.8173748,
						1.4002387
					],
					[
						103.81748,
						1.3999282
					],
					[
						103.8175653,
						1.3997006
					],
					[
						103.8176201,
						1.3995631
					],
					[
						103.8179096,
						1.3987822
					],
					[
						103.8181854,
						1.3980261
					],
					[
						103.8184531,
						1.397292
					],
					[
						103.8185135,
						1.3971264
					],
					[
						103.818611,
						1.3967706
					],
					[
						103.8186335,
						1.3967077
					],
					[
						103.8188374,
						1.3952805
					],
					[
						103.8189047,
						1.3945263
					],
					[
						103.8189193,
						1.3941834
					],
					[
						103.818894,
						1.3938756
					],
					[
						103.8188256,
						1.3933851
					],
					[
						103.8182283,
						1.3908278
					],
					[
						103.8181332,
						1.3903672
					],
					[
						103.8180975,
						1.390104
					],
					[
						103.8181094,
						1.3895895
					],
					[
						103.8181629,
						1.3892785
					],
					[
						103.8182402,
						1.3889973
					],
					[
						103.818365,
						1.3887221
					],
					[
						103.8184898,
						1.3884829
					],
					[
						103.8187216,
						1.3881598
					],
					[
						103.8189534,
						1.3879206
					],
					[
						103.8191852,
						1.3877232
					],
					[
						103.8194646,
						1.3875616
					],
					[
						103.8199817,
						1.3872267
					],
					[
						103.8207841,
						1.3867481
					],
					[
						103.8212064,
						1.3864768
					],
					[
						103.8213271,
						1.3864034
					],
					[
						103.8246756,
						1.3842733
					],
					[
						103.8251732,
						1.3838609
					],
					[
						103.8254377,
						1.3835468
					],
					[
						103.825613,
						1.3832926
					],
					[
						103.8259712,
						1.3826218
					],
					[
						103.8262457,
						1.3820941
					],
					[
						103.8266724,
						1.3812922
					],
					[
						103.8272453,
						1.3801656
					],
					[
						103.8277161,
						1.3792181
					],
					[
						103.828037,
						1.3785648
					],
					[
						103.8282364,
						1.3783402
					],
					[
						103.8284096,
						1.3782432
					],
					[
						103.8286285,
						1.3782319
					],
					[
						103.829009,
						1.3783453
					],
					[
						103.82946,
						1.3786633
					],
					[
						103.8295362,
						1.3787171
					],
					[
						103.8297652,
						1.3788907
					],
					[
						103.8300632,
						1.3790861
					],
					[
						103.8315101,
						1.3800351
					],
					[
						103.8315748,
						1.3800775
					],
					[
						103.8316589,
						1.3801221
					],
					[
						103.8321569,
						1.3803863
					],
					[
						103.8329526,
						1.3806391
					],
					[
						103.8335656,
						1.380776
					],
					[
						103.8337776,
						1.3808294
					],
					[
						103.8340831,
						1.3809313
					],
					[
						103.8342834,
						1.3810044
					],
					[
						103.8343877,
						1.3810658
					],
					[
						103.83468,
						1.3812272
					],
					[
						103.8352755,
						1.3816236
					],
					[
						103.8355747,
						1.3818733
					],
					[
						103.8356464,
						1.3819331
					],
					[
						103.8357018,
						1.3819941
					],
					[
						103.8360622,
						1.3823907
					],
					[
						103.836175,
						1.382541
					],
					[
						103.8362863,
						1.3826892
					],
					[
						103.8368912,
						1.383495
					],
					[
						103.8372484,
						1.3839166
					],
					[
						103.8373285,
						1.3840112
					],
					[
						103.837426,
						1.3838841
					],
					[
						103.8377012,
						1.3835254
					],
					[
						103.8382133,
						1.3828727
					],
					[
						103.8385937,
						1.3823393
					],
					[
						103.8386365,
						1.3822793
					],
					[
						103.8386779,
						1.3822129
					],
					[
						103.8393318,
						1.3811632
					],
					[
						103.8393587,
						1.3811124
					],
					[
						103.8395202,
						1.3808085
					],
					[
						103.8397397,
						1.3801749
					],
					[
						103.8397515,
						1.3800849
					],
					[
						103.8398351,
						1.3794505
					],
					[
						103.8398343,
						1.3788154
					],
					[
						103.839791,
						1.3784289
					],
					[
						103.8397647,
						1.3782762
					],
					[
						103.8397238,
						1.3780386
					],
					[
						103.839572,
						1.3771558
					],
					[
						103.8395595,
						1.377083
					],
					[
						103.8395463,
						1.3770045
					],
					[
						103.8394273,
						1.3762969
					],
					[
						103.8393653,
						1.3760738
					],
					[
						103.8392779,
						1.3758846
					],
					[
						103.8391663,
						1.3757103
					],
					[
						103.8390292,
						1.3755564
					],
					[
						103.8389403,
						1.3754814
					],
					[
						103.8388081,
						1.3753699
					],
					[
						103.8385526,
						1.3751891
					],
					[
						103.8384934,
						1.3751471
					],
					[
						103.8384351,
						1.3751059
					],
					[
						103.8380356,
						1.3748231
					],
					[
						103.8378613,
						1.374685
					],
					[
						103.837814,
						1.3746467
					],
					[
						103.8376707,
						1.3745028
					],
					[
						103.8375767,
						1.3743675
					],
					[
						103.8375327,
						1.374304
					],
					[
						103.8373783,
						1.3739397
					],
					[
						103.8372166,
						1.3734654
					],
					[
						103.8371825,
						1.3733634
					],
					[
						103.8370907,
						1.3730893
					],
					[
						103.8366942,
						1.371905
					],
					[
						103.8366708,
						1.3718349
					],
					[
						103.836644,
						1.3717547
					],
					[
						103.836643,
						1.3717519
					],
					[
						103.836581,
						1.3714096
					],
					[
						103.8365613,
						1.3712098
					],
					[
						103.8365715,
						1.3710386
					],
					[
						103.8365807,
						1.3709409
					],
					[
						103.8366005,
						1.3707308
					],
					[
						103.8367201,
						1.3703
					],
					[
						103.8368443,
						1.3700286
					],
					[
						103.8372039,
						1.369441
					],
					[
						103.8372466,
						1.3693713
					],
					[
						103.8371454,
						1.3692936
					],
					[
						103.8368875,
						1.3690954
					],
					[
						103.8365499,
						1.3687264
					],
					[
						103.8364152,
						1.3685258
					],
					[
						103.8362358,
						1.3681885
					],
					[
						103.8359939,
						1.3675311
					],
					[
						103.8357092,
						1.3666914
					],
					[
						103.8356582,
						1.3665409
					],
					[
						103.8357617,
						1.3665054
					],
					[
						103.8369396,
						1.3661012
					],
					[
						103.8369781,
						1.3660871
					],
					[
						103.8390091,
						1.3653402
					],
					[
						103.8395685,
						1.3651344
					],
					[
						103.8398178,
						1.3650427
					],
					[
						103.8407895,
						1.3646835
					],
					[
						103.8409201,
						1.36465
					],
					[
						103.841481,
						1.3645057
					],
					[
						103.8416359,
						1.3644716
					],
					[
						103.8427615,
						1.3643639
					],
					[
						103.8428936,
						1.3643513
					],
					[
						103.84298,
						1.364343
					],
					[
						103.8429553,
						1.3642653
					],
					[
						103.8427325,
						1.3635635
					],
					[
						103.8426658,
						1.3633533
					],
					[
						103.8423627,
						1.362383
					],
					[
						103.8420824,
						1.361852
					],
					[
						103.8419015,
						1.3614293
					],
					[
						103.8416601,
						1.3608609
					],
					[
						103.8412661,
						1.3610371
					],
					[
						103.8393367,
						1.3619091
					],
					[
						103.838971,
						1.3620831
					],
					[
						103.8386984,
						1.3621903
					],
					[
						103.8361093,
						1.3633139
					],
					[
						103.8353455,
						1.3636847
					],
					[
						103.8352556,
						1.3637198
					],
					[
						103.8351241,
						1.3637703
					],
					[
						103.8347753,
						1.36383
					],
					[
						103.8347441,
						1.3638346
					],
					[
						103.8344733,
						1.3638208
					],
					[
						103.8342857,
						1.3637836
					],
					[
						103.8339092,
						1.3636467
					],
					[
						103.8331724,
						1.3633788
					],
					[
						103.8326014,
						1.363154
					],
					[
						103.8324694,
						1.3630539
					],
					[
						103.8323752,
						1.362944
					],
					[
						103.8322712,
						1.3627055
					],
					[
						103.8321569,
						1.3622149
					],
					[
						103.8321313,
						1.3620605
					],
					[
						103.8320943,
						1.3618369
					],
					[
						103.8320372,
						1.3615134
					],
					[
						103.8320485,
						1.3609972
					],
					[
						103.8320585,
						1.3605362
					],
					[
						103.8320552,
						1.3602352
					],
					[
						103.8320293,
						1.3599505
					],
					[
						103.832003,
						1.3596622
					],
					[
						103.8319476,
						1.3595364
					],
					[
						103.8318409,
						1.3594301
					],
					[
						103.8317364,
						1.3593819
					],
					[
						103.8316224,
						1.3593661
					],
					[
						103.8312007,
						1.3593729
					],
					[
						103.8305555,
						1.3593847
					],
					[
						103.8293602,
						1.359426
					],
					[
						103.8292179,
						1.3594293
					],
					[
						103.8290396,
						1.3593246
					],
					[
						103.8289059,
						1.35922
					],
					[
						103.8288345,
						1.3591332
					],
					[
						103.8287781,
						1.3586517
					],
					[
						103.8287641,
						1.358389
					],
					[
						103.82879,
						1.3581013
					],
					[
						103.8288969,
						1.3576407
					],
					[
						103.8289807,
						1.3574964
					],
					[
						103.8290817,
						1.35729
					],
					[
						103.8292066,
						1.3571075
					],
					[
						103.8293878,
						1.3568982
					],
					[
						103.8302734,
						1.3560218
					],
					[
						103.8308262,
						1.3556001
					],
					[
						103.8309446,
						1.3555398
					],
					[
						103.8311915,
						1.3554266
					],
					[
						103.8317721,
						1.3551603
					],
					[
						103.832068,
						1.3550373
					],
					[
						103.8324781,
						1.3548459
					],
					[
						103.8329119,
						1.3546126
					],
					[
						103.8331727,
						1.3544214
					],
					[
						103.8339771,
						1.3537194
					],
					[
						103.8342339,
						1.3534817
					],
					[
						103.8347482,
						1.3530345
					],
					[
						103.8351502,
						1.3526408
					],
					[
						103.835355,
						1.3523953
					],
					[
						103.835652,
						1.3518932
					],
					[
						103.8357918,
						1.3515189
					],
					[
						103.8361012,
						1.3506751
					],
					[
						103.8361782,
						1.350502
					],
					[
						103.8364872,
						1.3501012
					],
					[
						103.8369514,
						1.3496025
					],
					[
						103.8372262,
						1.3492916
					],
					[
						103.8376211,
						1.348704
					],
					[
						103.8378413,
						1.3483438
					],
					[
						103.8383138,
						1.3475984
					],
					[
						103.8384636,
						1.3472659
					],
					[
						103.8385967,
						1.3468352
					],
					[
						103.8386586,
						1.3463232
					],
					[
						103.8387076,
						1.3460033
					],
					[
						103.8387272,
						1.3457776
					],
					[
						103.838604,
						1.3439653
					],
					[
						103.8385612,
						1.3435348
					],
					[
						103.8385358,
						1.3434225
					],
					[
						103.838446,
						1.3432532
					],
					[
						103.8382657,
						1.3430469
					],
					[
						103.8378085,
						1.3427959
					],
					[
						103.8367679,
						1.3422172
					],
					[
						103.8366315,
						1.3420735
					],
					[
						103.836558,
						1.3419213
					],
					[
						103.8364726,
						1.3416462
					],
					[
						103.8364489,
						1.3413838
					],
					[
						103.8364549,
						1.3410988
					],
					[
						103.8367118,
						1.3406294
					],
					[
						103.8369484,
						1.3401964
					],
					[
						103.8372019,
						1.3397484
					],
					[
						103.8375428,
						1.3391653
					],
					[
						103.8374233,
						1.3389542
					],
					[
						103.837336,
						1.3386365
					],
					[
						103.8372808,
						1.3383036
					],
					[
						103.8372688,
						1.338231
					],
					[
						103.8372564,
						1.3380649
					],
					[
						103.8374731,
						1.3380399
					],
					[
						103.8376334,
						1.3379938
					],
					[
						103.8378405,
						1.337943
					],
					[
						103.837965,
						1.3378795
					],
					[
						103.8382936,
						1.3376476
					],
					[
						103.8384686,
						1.3375396
					],
					[
						103.8386295,
						1.3375043
					],
					[
						103.8387975,
						1.3375114
					],
					[
						103.8389795,
						1.3375748
					],
					[
						103.8392338,
						1.3377837
					],
					[
						103.8394017,
						1.3379246
					],
					[
						103.8395972,
						1.3379917
					],
					[
						103.8398692,
						1.3380366
					],
					[
						103.8406547,
						1.3380527
					],
					[
						103.8409816,
						1.3381006
					],
					[
						103.8411718,
						1.3381723
					],
					[
						103.8413263,
						1.3382381
					],
					[
						103.8417127,
						1.3384954
					],
					[
						103.8418076,
						1.3385772
					]
				]
			},
			"properties": {
				"styleUrl": "#busroute",
				"styleHash": "-2257368b",
				"stroke-opacity": 0.6039215686274509,
				"stroke": "#DA0FB1",
				"stroke-width": 4
			}
		}
	]
}