{
	"type": "FeatureCollection",
	"features": [
		{
			"type": "Feature",
			"geometry": {
				"type": "LineString",
				"coordinates": [
					[
						103.8402599,
						1.3380446
					],
					[
						103.8398692,
						1.3380366
					],
					[
						103.8395972,
						1.3379917
					],
					[
						103.8394017,
						1.3379246
					],
					[
						103.8392338,
						1.3377837
					],
					[
						103.8389795,
						1.3375748
					],
					[
						103.8387975,
						1.3375114
					],
					[
						103.8386295,
						1.3375043
					],
					[
						103.8384686,
						1.3375396
					],
					[
						103.8382936,
						1.3376476
					],
					[
						103.837965,
						1.3378795
					],
					[
						103.8378405,
						1.337943
					],
					[
						103.8376334,
						1.3379938
					],
					[
						103.8374731,
						1.3380399
					],
					[
						103.8372564,
						1.3380649
					],
					[
						103.8372688,
						1.338231
					],
					[
						103.8372159,
						1.3386942
					],
					[
						103.8371398,
						1.3392791
					],
					[
						103.8370516,
						1.3396551
					],
					[
						103.8369772,
						1.3398279
					],
					[
						103.836803,
						1.3401039
					],
					[
						103.8364886,
						1.3405007
					],
					[
						103.836236,
						1.3408472
					],
					[
						103.8359118,
						1.3413515
					],
					[
						103.8358823,
						1.3415275
					],
					[
						103.8358882,
						1.3417069
					],
					[
						103.8358076,
						1.3418592
					],
					[
						103.8367854,
						1.3424425
					],
					[
						103.8375515,
						1.3428082
					],
					[
						103.8378146,
						1.3429621
					],
					[
						103.8380167,
						1.3431114
					],
					[
						103.8381784,
						1.3438339
					],
					[
						103.8382779,
						1.3449502
					],
					[
						103.8383257,
						1.3456005
					],
					[
						103.8384208,
						1.3463088
					],
					[
						103.8384398,
						1.3466438
					],
					[
						103.8383733,
						1.3469644
					],
					[
						103.838271,
						1.34734
					],
					[
						103.8380713,
						1.3477085
					],
					[
						103.8376981,
						1.3482604
					],
					[
						103.8374719,
						1.348588
					],
					[
						103.8372243,
						1.3490005
					],
					[
						103.8368617,
						1.3495089
					],
					[
						103.8363862,
						1.3500234
					],
					[
						103.8360206,
						1.3504662
					],
					[
						103.8358513,
						1.3508429
					],
					[
						103.8356408,
						1.3514605
					],
					[
						103.8355675,
						1.3516317
					],
					[
						103.8353698,
						1.3520932
					],
					[
						103.8350759,
						1.3524795
					],
					[
						103.8347101,
						1.3528529
					],
					[
						103.8342016,
						1.3533043
					],
					[
						103.833484,
						1.3539321
					],
					[
						103.8330589,
						1.354304
					],
					[
						103.833007,
						1.3543494
					],
					[
						103.8319664,
						1.3548378
					],
					[
						103.8313093,
						1.3551509
					],
					[
						103.8308495,
						1.3553699
					],
					[
						103.8307539,
						1.3554238
					],
					[
						103.8306701,
						1.3554884
					],
					[
						103.8305181,
						1.3556057
					],
					[
						103.8302301,
						1.3558682
					],
					[
						103.8292454,
						1.3568681
					],
					[
						103.8289302,
						1.3571673
					],
					[
						103.8288172,
						1.3573887
					],
					[
						103.8287365,
						1.3575282
					],
					[
						103.8286509,
						1.3577532
					],
					[
						103.8285916,
						1.3581992
					],
					[
						103.8286592,
						1.3587115
					],
					[
						103.8287305,
						1.3591153
					],
					[
						103.8287424,
						1.3593725
					],
					[
						103.828894,
						1.359438
					],
					[
						103.8290463,
						1.3594367
					],
					[
						103.8292179,
						1.3594293
					],
					[
						103.8293602,
						1.359426
					],
					[
						103.8301236,
						1.3593996
					],
					[
						103.8305555,
						1.3593847
					],
					[
						103.8312007,
						1.3593729
					],
					[
						103.8316224,
						1.3593661
					],
					[
						103.8317364,
						1.3593819
					],
					[
						103.8318409,
						1.3594301
					],
					[
						103.8319476,
						1.3595364
					],
					[
						103.832003,
						1.3596622
					],
					[
						103.8320293,
						1.3599505
					],
					[
						103.8320552,
						1.3602352
					],
					[
						103.8320585,
						1.3605362
					],
					[
						103.8320485,
						1.3609972
					],
					[
						103.8320372,
						1.3615134
					],
					[
						103.8320943,
						1.3618369
					],
					[
						103.8321313,
						1.3620605
					],
					[
						103.8321569,
						1.3622149
					],
					[
						103.8322712,
						1.3627055
					],
					[
						103.8323752,
						1.362944
					],
					[
						103.8324694,
						1.3630539
					],
					[
						103.8326014,
						1.363154
					],
					[
						103.8331724,
						1.3633788
					],
					[
						103.8338361,
						1.3636201
					],
					[
						103.8342857,
						1.3637836
					],
					[
						103.8344733,
						1.3638208
					],
					[
						103.8347441,
						1.3638346
					],
					[
						103.8347753,
						1.36383
					],
					[
						103.8351241,
						1.3637703
					],
					[
						103.8352556,
						1.3637198
					],
					[
						103.8353455,
						1.3636847
					],
					[
						103.8361093,
						1.3633139
					],
					[
						103.8386984,
						1.3621903
					],
					[
						103.838971,
						1.3620831
					],
					[
						103.8393367,
						1.3619091
					],
					[
						103.8412661,
						1.3610371
					],
					[
						103.8415289,
						1.3610749
					],
					[
						103.8416658,
						1.3611229
					],
					[
						103.8419015,
						1.3614293
					],
					[
						103.8420824,
						1.361852
					],
					[
						103.8423627,
						1.362383
					],
					[
						103.8426658,
						1.3633533
					],
					[
						103.8425716,
						1.3636101
					],
					[
						103.8425531,
						1.363753
					],
					[
						103.8425066,
						1.3638894
					],
					[
						103.8424341,
						1.3640138
					],
					[
						103.8423385,
						1.3641212
					],
					[
						103.8421602,
						1.3642411
					],
					[
						103.841481,
						1.3645057
					],
					[
						103.8409201,
						1.36465
					],
					[
						103.8407895,
						1.3646835
					],
					[
						103.8398178,
						1.3650427
					],
					[
						103.8395685,
						1.3651344
					],
					[
						103.8390091,
						1.3653402
					],
					[
						103.8369781,
						1.3660871
					],
					[
						103.8369396,
						1.3661012
					],
					[
						103.8357617,
						1.3665054
					],
					[
						103.8356582,
						1.3665409
					],
					[
						103.8357092,
						1.3666914
					],
					[
						103.8359939,
						1.3675311
					],
					[
						103.8362358,
						1.3681885
					],
					[
						103.8364152,
						1.3685258
					],
					[
						103.8365499,
						1.3687264
					],
					[
						103.8368875,
						1.3690954
					],
					[
						103.8371454,
						1.3692936
					],
					[
						103.8372466,
						1.3693713
					],
					[
						103.8372039,
						1.369441
					],
					[
						103.8368443,
						1.3700286
					],
					[
						103.8367201,
						1.3703
					],
					[
						103.8366005,
						1.3707308
					],
					[
						103.8365807,
						1.3709409
					],
					[
						103.8365715,
						1.3710386
					],
					[
						103.8365613,
						1.3712098
					],
					[
						103.836581,
						1.3714096
					],
					[
						103.836643,
						1.3717519
					],
					[
						103.836644,
						1.3717547
					],
					[
						103.8366708,
						1.3718349
					],
					[
						103.8366942,
						1.371905
					],
					[
						103.8370907,
						1.3730893
					],
					[
						103.8371825,
						1.3733634
					],
					[
						103.8372166,
						1.3734654
					],
					[
						103.8373783,
						1.3739397
					],
					[
						103.8375327,
						1.374304
					],
					[
						103.8376213,
						1.3744316
					],
					[
						103.8376707,
						1.3745028
					],
					[
						103.837814,
						1.3746467
					],
					[
						103.8378613,
						1.374685
					],
					[
						103.8380356,
						1.3748231
					],
					[
						103.8384351,
						1.3751059
					],
					[
						103.8384934,
						1.3751471
					],
					[
						103.8385526,
						1.3751891
					],
					[
						103.8388081,
						1.3753699
					],
					[
						103.8389403,
						1.3754814
					],
					[
						103.8390292,
						1.3755564
					],
					[
						103.8391663,
						1.3757103
					],
					[
						103.8392779,
						1.3758846
					],
					[
						103.8393653,
						1.3760738
					],
					[
						103.8394273,
						1.3762969
					],
					[
						103.8395463,
						1.3770045
					],
					[
						103.8395595,
						1.377083
					],
					[
						103.839572,
						1.3771558
					],
					[
						103.8397238,
						1.3780386
					],
					[
						103.8397647,
						1.3782762
					],
					[
						103.839791,
						1.3784289
					],
					[
						103.8398343,
						1.3788154
					],
					[
						103.8398351,
						1.3794505
					],
					[
						103.8397515,
						1.3800849
					],
					[
						103.8397397,
						1.3801749
					],
					[
						103.8395202,
						1.3808085
					],
					[
						103.8393587,
						1.3811124
					],
					[
						103.8393318,
						1.3811632
					],
					[
						103.8386779,
						1.3822129
					],
					[
						103.8386365,
						1.3822793
					],
					[
						103.8385937,
						1.3823393
					],
					[
						103.8382133,
						1.3828727
					],
					[
						103.8377012,
						1.3835254
					],
					[
						103.83749,
						1.3836861
					],
					[
						103.8373652,
						1.3837327
					],
					[
						103.8372547,
						1.3837292
					],
					[
						103.8371156,
						1.3836574
					],
					[
						103.8368912,
						1.383495
					],
					[
						103.8362863,
						1.3826892
					],
					[
						103.8360856,
						1.3824219
					],
					[
						103.8360622,
						1.3823907
					],
					[
						103.8357018,
						1.3819941
					],
					[
						103.8356464,
						1.3819331
					],
					[
						103.8355747,
						1.3818733
					],
					[
						103.8352755,
						1.3816236
					],
					[
						103.83468,
						1.3812272
					],
					[
						103.8343877,
						1.3810658
					],
					[
						103.8342834,
						1.3810044
					],
					[
						103.8340831,
						1.3809313
					],
					[
						103.8337776,
						1.3808294
					],
					[
						103.8335656,
						1.380776
					],
					[
						103.8329526,
						1.3806391
					],
					[
						103.8321569,
						1.3803863
					],
					[
						103.8316589,
						1.3801221
					],
					[
						103.8315748,
						1.3800775
					],
					[
						103.8315101,
						1.3800351
					],
					[
						103.8300632,
						1.3790861
					],
					[
						103.8297652,
						1.3788907
					],
					[
						103.8295362,
						1.3787171
					],
					[
						103.82946,
						1.3786633
					],
					[
						103.829009,
						1.3783453
					],
					[
						103.8285642,
						1.3780378
					],
					[
						103.8282819,
						1.3778554
					],
					[
						103.8281571,
						1.3778284
					],
					[
						103.8279657,
						1.3784213
					],
					[
						103.8278658,
						1.3786438
					],
					[
						103.8276519,
						1.3790817
					],
					[
						103.8261174,
						1.382044
					],
					[
						103.825636,
						1.3829879
					],
					[
						103.8255219,
						1.3832104
					],
					[
						103.8253899,
						1.3834007
					],
					[
						103.8251795,
						1.3836636
					],
					[
						103.8249049,
						1.3839221
					],
					[
						103.8246445,
						1.3841302
					],
					[
						103.8231252,
						1.3850781
					],
					[
						103.8220502,
						1.3857532
					],
					[
						103.8212453,
						1.3862445
					],
					[
						103.8211526,
						1.3862995
					],
					[
						103.8194111,
						1.38743
					],
					[
						103.8189594,
						1.3877531
					],
					[
						103.8185849,
						1.3881299
					],
					[
						103.8183709,
						1.388453
					],
					[
						103.8181926,
						1.3887879
					],
					[
						103.8180559,
						1.3891887
					],
					[
						103.8180024,
						1.3894819
					],
					[
						103.8179608,
						1.3899006
					],
					[
						103.8179965,
						1.3902715
					],
					[
						103.8180797,
						1.3907321
					],
					[
						103.8182223,
						1.3913482
					],
					[
						103.8183828,
						1.3920422
					],
					[
						103.8185195,
						1.39276
					],
					[
						103.818674,
						1.3933223
					],
					[
						103.8187826,
						1.3939501
					],
					[
						103.8187855,
						1.3942133
					],
					[
						103.8187648,
						1.3945425
					],
					[
						103.818741,
						1.3949191
					],
					[
						103.8186912,
						1.3952683
					],
					[
						103.8185984,
						1.3960787
					],
					[
						103.8185319,
						1.3966099
					],
					[
						103.8184956,
						1.3967157
					],
					[
						103.8184843,
						1.3967487
					],
					[
						103.8184279,
						1.396935
					],
					[
						103.8184089,
						1.3970115
					],
					[
						103.8183519,
						1.3972078
					],
					[
						103.8182882,
						1.3973779
					],
					[
						103.8181997,
						1.3976145
					],
					[
						103.8176861,
						1.3990311
					],
					[
						103.8173866,
						1.3998111
					],
					[
						103.81725,
						1.4002077
					],
					[
						103.8171166,
						1.400698
					],
					[
						103.8170869,
						1.4010211
					],
					[
						103.8170988,
						1.4012544
					],
					[
						103.8172111,
						1.4017249
					],
					[
						103.8175269,
						1.4024578
					],
					[
						103.8176539,
						1.4027418
					],
					[
						103.8178857,
						1.4032682
					],
					[
						103.818073,
						1.4036122
					],
					[
						103.8181978,
						1.4037887
					],
					[
						103.8187476,
						1.4044557
					],
					[
						103.8188979,
						1.4045797
					],
					[
						103.819043,
						1.404792
					],
					[
						103.8193124,
						1.4051848
					],
					[
						103.8197296,
						1.4059497
					],
					[
						103.8198133,
						1.4061032
					],
					[
						103.8200873,
						1.4065918
					],
					[
						103.8203496,
						1.4071315
					],
					[
						103.8219481,
						1.4103788
					],
					[
						103.8222571,
						1.4109763
					],
					[
						103.8226699,
						1.4119056
					],
					[
						103.8228557,
						1.4125201
					],
					[
						103.8229209,
						1.4128738
					],
					[
						103.8228414,
						1.413272
					],
					[
						103.8227288,
						1.4135185
					],
					[
						103.8225737,
						1.4137385
					],
					[
						103.8221069,
						1.41395
					],
					[
						103.8215715,
						1.4141183
					],
					[
						103.8210103,
						1.4142192
					],
					[
						103.8204409,
						1.4142478
					],
					[
						103.8198724,
						1.4142036
					],
					[
						103.8164796,
						1.4136196
					],
					[
						103.816017,
						1.4135784
					],
					[
						103.8154471,
						1.4135939
					],
					[
						103.8147847,
						1.4137052
					],
					[
						103.8142407,
						1.4138767
					],
					[
						103.8113827,
						1.4151453
					],
					[
						103.8110629,
						1.4152624
					],
					[
						103.8107588,
						1.4153452
					],
					[
						103.8104467,
						1.4154032
					],
					[
						103.809976,
						1.4154409
					],
					[
						103.8095752,
						1.4154315
					],
					[
						103.8090942,
						1.415367
					],
					[
						103.8086121,
						1.4152415
					],
					[
						103.8082001,
						1.4150831
					],
					[
						103.8077222,
						1.4148341
					],
					[
						103.80719,
						1.4145188
					],
					[
						103.8067559,
						1.414322
					],
					[
						103.8065867,
						1.4142777
					],
					[
						103.806386,
						1.4142497
					],
					[
						103.806164,
						1.4142519
					],
					[
						103.805927,
						1.4142841
					],
					[
						103.8056558,
						1.4143571
					],
					[
						103.8053076,
						1.4145243
					],
					[
						103.8050024,
						1.4147537
					],
					[
						103.8045048,
						1.4151275
					],
					[
						103.8037327,
						1.4157352
					],
					[
						103.8032255,
						1.4160045
					],
					[
						103.8029023,
						1.4161203
					],
					[
						103.8024338,
						1.4162069
					],
					[
						103.8022876,
						1.4161954
					],
					[
						103.801996,
						1.4161838
					],
					[
						103.801694,
						1.4161365
					],
					[
						103.8013567,
						1.4160607
					],
					[
						103.8011393,
						1.4160118
					],
					[
						103.8010437,
						1.4160931
					],
					[
						103.8009831,
						1.4163112
					],
					[
						103.801645,
						1.4174574
					],
					[
						103.8016803,
						1.4176241
					],
					[
						103.8016662,
						1.4177801
					],
					[
						103.8015951,
						1.4179653
					],
					[
						103.8007285,
						1.4188285
					],
					[
						103.7993021,
						1.4199264
					],
					[
						103.7980923,
						1.4207393
					],
					[
						103.7965491,
						1.4214695
					],
					[
						103.7953746,
						1.4219415
					],
					[
						103.795232,
						1.4220755
					],
					[
						103.7951559,
						1.4222143
					],
					[
						103.7951178,
						1.4223483
					],
					[
						103.7951081,
						1.4226215
					],
					[
						103.7956934,
						1.4233007
					],
					[
						103.796314,
						1.4239894
					],
					[
						103.7985355,
						1.4265432
					],
					[
						103.7985638,
						1.4267402
					],
					[
						103.7985567,
						1.426903
					],
					[
						103.798481,
						1.4271317
					],
					[
						103.7981591,
						1.4274144
					],
					[
						103.7978908,
						1.4275859
					],
					[
						103.7978056,
						1.427624
					],
					[
						103.7976636,
						1.4276716
					],
					[
						103.7974021,
						1.4277266
					],
					[
						103.7970862,
						1.4277319
					],
					[
						103.7969614,
						1.4277265
					],
					[
						103.7966122,
						1.4276511
					],
					[
						103.7962761,
						1.4275901
					],
					[
						103.7959963,
						1.4275394
					],
					[
						103.7957808,
						1.4275003
					],
					[
						103.7953152,
						1.4274081
					],
					[
						103.795222,
						1.4273949
					],
					[
						103.7948995,
						1.4273494
					],
					[
						103.7946985,
						1.4273085
					],
					[
						103.7944131,
						1.4272677
					],
					[
						103.7942913,
						1.4272535
					],
					[
						103.7941405,
						1.4272391
					],
					[
						103.7938628,
						1.4272603
					],
					[
						103.7936605,
						1.4272906
					],
					[
						103.7934918,
						1.4273383
					],
					[
						103.7934165,
						1.4273663
					],
					[
						103.7931293,
						1.4274731
					],
					[
						103.7928512,
						1.427638
					],
					[
						103.7923685,
						1.4280524
					],
					[
						103.7921551,
						1.428334
					],
					[
						103.7919647,
						1.4286937
					],
					[
						103.7919241,
						1.4288252
					],
					[
						103.7916513,
						1.4297101
					],
					[
						103.7915717,
						1.4299683
					],
					[
						103.791502,
						1.4301566
					],
					[
						103.7914205,
						1.4303767
					],
					[
						103.791371,
						1.430477
					],
					[
						103.7912661,
						1.4306897
					],
					[
						103.7912485,
						1.4307253
					],
					[
						103.7909346,
						1.4311671
					],
					[
						103.7906598,
						1.4314779
					],
					[
						103.7903173,
						1.4317613
					],
					[
						103.7900497,
						1.4319057
					],
					[
						103.7898432,
						1.4320171
					],
					[
						103.7896549,
						1.4320735
					],
					[
						103.7894629,
						1.432131
					],
					[
						103.7891374,
						1.4321949
					],
					[
						103.7884219,
						1.4322165
					],
					[
						103.7882753,
						1.4322177
					],
					[
						103.7880118,
						1.4322224
					],
					[
						103.7879109,
						1.4322056
					],
					[
						103.7877616,
						1.4321808
					],
					[
						103.7878011,
						1.4323158
					],
					[
						103.787904,
						1.4326673
					],
					[
						103.7879317,
						1.4327803
					],
					[
						103.7882743,
						1.4341773
					],
					[
						103.7883342,
						1.4344258
					],
					[
						103.7884274,
						1.4347398
					],
					[
						103.7884733,
						1.4348945
					],
					[
						103.7885351,
						1.4351023
					],
					[
						103.7886115,
						1.4353589
					],
					[
						103.7886661,
						1.435578
					],
					[
						103.789004,
						1.4369843
					],
					[
						103.789008,
						1.4370011
					],
					[
						103.7890342,
						1.4373642
					],
					[
						103.789015,
						1.4376652
					],
					[
						103.7890028,
						1.4377827
					],
					[
						103.7889362,
						1.4380145
					],
					[
						103.7888949,
						1.4381583
					],
					[
						103.7888438,
						1.4383166
					],
					[
						103.7888095,
						1.4384226
					],
					[
						103.7886747,
						1.4386781
					],
					[
						103.7882208,
						1.4392016
					],
					[
						103.7881135,
						1.4393035
					],
					[
						103.7878207,
						1.4395019
					],
					[
						103.7871237,
						1.439901
					],
					[
						103.7854381,
						1.4408659
					],
					[
						103.785181,
						1.4410493
					],
					[
						103.7850524,
						1.4411409
					],
					[
						103.7849248,
						1.4412378
					],
					[
						103.7846984,
						1.4414096
					],
					[
						103.7843333,
						1.4416857
					],
					[
						103.7841362,
						1.441861
					],
					[
						103.7840694,
						1.4419205
					],
					[
						103.7840193,
						1.4419643
					],
					[
						103.7834802,
						1.442435
					],
					[
						103.7832372,
						1.4426156
					],
					[
						103.7827294,
						1.4429255
					],
					[
						103.7821888,
						1.4431713
					],
					[
						103.7812942,
						1.4434558
					],
					[
						103.7811046,
						1.4435362
					],
					[
						103.780989,
						1.4435852
					],
					[
						103.7813196,
						1.444553
					],
					[
						103.7819853,
						1.4456633
					],
					[
						103.7826942,
						1.4464041
					],
					[
						103.7833829,
						1.4470523
					],
					[
						103.7820555,
						1.4487106
					],
					[
						103.7817351,
						1.4495282
					],
					[
						103.7816321,
						1.450438
					],
					[
						103.7815592,
						1.451413
					],
					[
						103.781684,
						1.4511918
					],
					[
						103.781993,
						1.4509107
					],
					[
						103.7823079,
						1.4506595
					],
					[
						103.7825575,
						1.4505339
					],
					[
						103.7828665,
						1.4504502
					],
					[
						103.7830388,
						1.4503904
					],
					[
						103.7832713,
						1.4502771
					],
					[
						103.7834281,
						1.450126
					],
					[
						103.783528,
						1.4498245
					],
					[
						103.783956,
						1.4489487
					],
					[
						103.7842056,
						1.4487549
					],
					[
						103.7845408,
						1.4486401
					],
					[
						103.7847049,
						1.4485898
					],
					[
						103.7848875,
						1.4484399
					]
				]
			},
			"properties": {
				"styleUrl": "#busroute",
				"styleHash": "-2257368b",
				"stroke-opacity": 0.6039215686274509,
				"stroke": "#DA0FB1",
				"stroke-width": 4
			}
		}
	]
}