{
	"type": "FeatureCollection",
	"features": [
		{
			"type": "Feature",
			"geometry": {
				"type": "GeometryCollection",
				"geometries": [
					{
						"type": "LineString",
						"coordinates": [
							[
								103.8556661,
								1.2776079
							],
							[
								103.8546095,
								1.2783225
							],
							[
								103.8531892,
								1.279233
							],
							[
								103.8524324,
								1.279675
							],
							[
								103.8523505,
								1.2797226
							],
							[
								103.8520783,
								1.2798816
							]
						]
					},
					{
						"type": "LineString",
						"coordinates": [
							[
								103.8520783,
								1.2798816
							],
							[
								103.8520533,
								1.2798961
							],
							[
								103.8517442,
								1.2801474
							],
							[
								103.8514792,
								1.2803771
							],
							[
								103.8510823,
								1.2807708
							],
							[
								103.8505585,
								1.2799636
							],
							[
								103.8504823,
								1.2798365
							],
							[
								103.8495792,
								1.2783507
							],
							[
								103.8494517,
								1.2781411
							]
						]
					},
					{
						"type": "LineString",
						"coordinates": [
							[
								103.8494517,
								1.2781411
							],
							[
								103.8486824,
								1.2768758
							],
							[
								103.8485952,
								1.2767324
							],
							[
								103.8481432,
								1.2761015
							],
							[
								103.8478281,
								1.2756014
							],
							[
								103.8474444,
								1.2749925
							],
							[
								103.8473576,
								1.2748575
							],
							[
								103.8471589,
								1.2746228
							],
							[
								103.8467788,
								1.2741736
							],
							[
								103.8466839,
								1.2740615
							],
							[
								103.8464889,
								1.2738058
							],
							[
								103.8463296,
								1.273614
							],
							[
								103.8461037,
								1.2735488
							],
							[
								103.8459143,
								1.2735602
							],
							[
								103.8458731,
								1.2735859
							],
							[
								103.845686,
								1.2737038
							],
							[
								103.8454923,
								1.2739368
							],
							[
								103.8452212,
								1.2742629
							],
							[
								103.8437161,
								1.2741914
							],
							[
								103.843542,
								1.2741644
							]
						]
					},
					{
						"type": "LineString",
						"coordinates": [
							[
								103.843542,
								1.2741644
							],
							[
								103.8431491,
								1.2741033
							],
							[
								103.8430793,
								1.2745566
							],
							[
								103.8431072,
								1.2749253
							],
							[
								103.8432651,
								1.275661
							],
							[
								103.8433934,
								1.2763083
							],
							[
								103.8435298,
								1.2770571
							],
							[
								103.8435733,
								1.277362
							],
							[
								103.8435917,
								1.2776855
							],
							[
								103.8436221,
								1.2778477
							],
							[
								103.8438805,
								1.2785929
							],
							[
								103.8439021,
								1.2788627
							],
							[
								103.8438598,
								1.2791781
							],
							[
								103.8438598,
								1.2794047
							],
							[
								103.8439211,
								1.2797678
							],
							[
								103.8440578,
								1.2802534
							],
							[
								103.8441746,
								1.2803587
							],
							[
								103.8439391,
								1.2804983
							],
							[
								103.8435701,
								1.2802737
							],
							[
								103.8431256,
								1.280003
							],
							[
								103.8427819,
								1.2798188
							],
							[
								103.8426205,
								1.280179
							],
							[
								103.8423483,
								1.2806748
							],
							[
								103.8423137,
								1.2807406
							]
						]
					},
					{
						"type": "LineString",
						"coordinates": [
							[
								103.8423137,
								1.2807406
							],
							[
								103.8419662,
								1.2814004
							],
							[
								103.8416513,
								1.2820097
							],
							[
								103.8413517,
								1.2816527
							],
							[
								103.8410006,
								1.2812248
							]
						]
					},
					{
						"type": "LineString",
						"coordinates": [
							[
								103.8410006,
								1.2812248
							],
							[
								103.8405393,
								1.2806625
							],
							[
								103.8399831,
								1.2800301
							],
							[
								103.8397447,
								1.2797263
							],
							[
								103.8396683,
								1.2796253
							],
							[
								103.8396196,
								1.2795577
							],
							[
								103.8395395,
								1.2797213
							],
							[
								103.8394784,
								1.2798699
							],
							[
								103.8394091,
								1.2801247
							],
							[
								103.8393268,
								1.2803814
							],
							[
								103.8392703,
								1.280504
							],
							[
								103.839098,
								1.2807373
							],
							[
								103.8386106,
								1.2812906
							],
							[
								103.8383818,
								1.2815269
							],
							[
								103.8382091,
								1.281704
							],
							[
								103.8374885,
								1.2821474
							],
							[
								103.83742,
								1.2821896
							],
							[
								103.8373387,
								1.2822397
							],
							[
								103.8367475,
								1.2826035
							],
							[
								103.8365236,
								1.282758
							],
							[
								103.8360907,
								1.2830935
							],
							[
								103.8360423,
								1.2831358
							],
							[
								103.835888,
								1.2832527
							],
							[
								103.8357209,
								1.2833777
							],
							[
								103.8355864,
								1.2835845
							],
							[
								103.8354111,
								1.28387
							],
							[
								103.8349964,
								1.2840649
							],
							[
								103.8347856,
								1.284136
							],
							[
								103.8345379,
								1.2842193
							],
							[
								103.8345074,
								1.2842938
							],
							[
								103.8338616,
								1.2851107
							],
							[
								103.8337311,
								1.2852973
							],
							[
								103.8336659,
								1.2854597
							],
							[
								103.8336675,
								1.2856946
							],
							[
								103.8336686,
								1.286142
							],
							[
								103.8336967,
								1.287012
							],
							[
								103.8336907,
								1.2871071
							],
							[
								103.8336823,
								1.2872419
							],
							[
								103.8336785,
								1.287536
							],
							[
								103.8336212,
								1.2882546
							]
						]
					},
					{
						"type": "LineString",
						"coordinates": [
							[
								103.8336212,
								1.2882546
							],
							[
								103.8336069,
								1.2884339
							],
							[
								103.8335287,
								1.2891404
							],
							[
								103.8334466,
								1.2895333
							],
							[
								103.8334233,
								1.2896757
							],
							[
								103.8333222,
								1.2899336
							],
							[
								103.8329166,
								1.2907708
							],
							[
								103.8327178,
								1.2910415
							],
							[
								103.8324142,
								1.2914549
							],
							[
								103.8322997,
								1.2915878
							]
						]
					},
					{
						"type": "LineString",
						"coordinates": [
							[
								103.8322997,
								1.2915878
							],
							[
								103.8316613,
								1.2923282
							],
							[
								103.8313564,
								1.2928174
							],
							[
								103.8312385,
								1.2931626
							],
							[
								103.8309835,
								1.2939288
							],
							[
								103.8307544,
								1.2944817
							],
							[
								103.8302849,
								1.2956022
							],
							[
								103.8300639,
								1.2974981
							],
							[
								103.8300041,
								1.2985634
							],
							[
								103.8299906,
								1.2989884
							],
							[
								103.8300059,
								1.2992351
							],
							[
								103.8299718,
								1.299315
							],
							[
								103.8298983,
								1.2994872
							],
							[
								103.8297443,
								1.2998278
							],
							[
								103.8293281,
								1.3008394
							],
							[
								103.8293719,
								1.3013029
							],
							[
								103.8295693,
								1.3017939
							],
							[
								103.8299058,
								1.3023939
							]
						]
					},
					{
						"type": "LineString",
						"coordinates": [
							[
								103.8299058,
								1.3023939
							],
							[
								103.8301906,
								1.3029018
							],
							[
								103.8304487,
								1.3033778
							],
							[
								103.8304848,
								1.3037362
							],
							[
								103.830463,
								1.3038846
							],
							[
								103.8303986,
								1.304034
							],
							[
								103.830336,
								1.3041299
							],
							[
								103.8301014,
								1.3042657
							],
							[
								103.8295673,
								1.3045198
							],
							[
								103.8293889,
								1.3045581
							],
							[
								103.8288762,
								1.3046523
							],
							[
								103.8283773,
								1.3046429
							],
							[
								103.8279975,
								1.3045779
							],
							[
								103.8277061,
								1.3044907
							],
							[
								103.8272859,
								1.3042985
							],
							[
								103.8269509,
								1.3040855
							],
							[
								103.8262154,
								1.3034539
							],
							[
								103.8256175,
								1.3030625
							],
							[
								103.8250987,
								1.3028952
							],
							[
								103.8244452,
								1.3027845
							],
							[
								103.8243945,
								1.3027728
							],
							[
								103.8240585,
								1.3026957
							],
							[
								103.8238575,
								1.302725
							],
							[
								103.8236984,
								1.3027952
							],
							[
								103.8235499,
								1.3029078
							],
							[
								103.8234833,
								1.3030193
							],
							[
								103.8234976,
								1.3031533
							],
							[
								103.8234548,
								1.3036701
							],
							[
								103.8234025,
								1.3039285
							],
							[
								103.823349,
								1.3040686
							]
						]
					},
					{
						"type": "LineString",
						"coordinates": [
							[
								103.823349,
								1.3040686
							],
							[
								103.8232599,
								1.3043018
							],
							[
								103.8231457,
								1.3045172
							],
							[
								103.8230377,
								1.3046595
							],
							[
								103.8227749,
								1.3049479
							],
							[
								103.82274,
								1.3049724
							],
							[
								103.8223184,
								1.305269
							],
							[
								103.8214561,
								1.3056415
							],
							[
								103.8209966,
								1.3058607
							],
							[
								103.8207694,
								1.3059825
							],
							[
								103.8204141,
								1.306173
							],
							[
								103.8198221,
								1.3064781
							],
							[
								103.8193419,
								1.3066025
							],
							[
								103.8193366,
								1.3066034
							]
						]
					},
					{
						"type": "LineString",
						"coordinates": [
							[
								103.8193366,
								1.3066034
							],
							[
								103.8188616,
								1.3066838
							],
							[
								103.818196,
								1.306612
							],
							[
								103.8176539,
								1.3065163
							],
							[
								103.8170548,
								1.3064493
							],
							[
								103.816703,
								1.3064876
							],
							[
								103.8161181,
								1.3065546
							],
							[
								103.8154875,
								1.3065887
							],
							[
								103.8151879,
								1.3065672
							],
							[
								103.8149472,
								1.3065342
							],
							[
								103.8145603,
								1.3064739
							],
							[
								103.8140753,
								1.3063949
							],
							[
								103.8134476,
								1.3063375
							],
							[
								103.813198,
								1.306359
							],
							[
								103.8128913,
								1.3064523
							],
							[
								103.8114221,
								1.3072922
							],
							[
								103.8106875,
								1.3077014
							],
							[
								103.8098815,
								1.3081823
							],
							[
								103.8090447,
								1.3087374
							],
							[
								103.8084978,
								1.3091011
							],
							[
								103.8082839,
								1.3091968
							],
							[
								103.8079586,
								1.3093739
							],
							[
								103.8075378,
								1.3094959
							],
							[
								103.8071759,
								1.309611
							]
						]
					},
					{
						"type": "LineString",
						"coordinates": [
							[
								103.8071759,
								1.309611
							],
							[
								103.8068603,
								1.3097113
							],
							[
								103.806456,
								1.309779
							],
							[
								103.8047032,
								1.3103094
							],
							[
								103.8038606,
								1.3105178
							],
							[
								103.8036581,
								1.3105795
							],
							[
								103.8033609,
								1.310671
							],
							[
								103.8034468,
								1.3110014
							],
							[
								103.8035317,
								1.3113278
							],
							[
								103.803918,
								1.3126842
							],
							[
								103.8040999,
								1.3130293
							],
							[
								103.8043851,
								1.3138476
							],
							[
								103.8045848,
								1.3143788
							],
							[
								103.8047346,
								1.3146875
							],
							[
								103.80492,
								1.3149818
							],
							[
								103.8051269,
								1.3152403
							],
							[
								103.8053052,
								1.3154269
							],
							[
								103.8067413,
								1.316746
							],
							[
								103.8076804,
								1.3176433
							],
							[
								103.8088216,
								1.3186542
							],
							[
								103.8090771,
								1.3188875
							],
							[
								103.8092673,
								1.3190371
							],
							[
								103.8094575,
								1.3191567
							],
							[
								103.8107294,
								1.319755
							],
							[
								103.8110526,
								1.3199223
							],
							[
								103.8113305,
								1.3201013
							],
							[
								103.8115983,
								1.3204366
							],
							[
								103.8126856,
								1.3216327
							],
							[
								103.8128164,
								1.3218361
							],
							[
								103.8129055,
								1.3220694
							],
							[
								103.8129947,
								1.3224223
							],
							[
								103.8130327,
								1.322548
							],
							[
								103.8131326,
								1.3230289
							],
							[
								103.8133187,
								1.323934
							],
							[
								103.8135968,
								1.323879
							],
							[
								103.8137761,
								1.323812
							],
							[
								103.8139948,
								1.323721
							],
							[
								103.8143324,
								1.3235488
							],
							[
								103.8145416,
								1.3234722
							],
							[
								103.8147445,
								1.3234421
							],
							[
								103.8158956,
								1.3232872
							],
							[
								103.8164527,
								1.3232271
							],
							[
								103.8170042,
								1.3231607
							],
							[
								103.818708,
								1.3229654
							],
							[
								103.8198689,
								1.3226622
							],
							[
								103.82237,
								1.3220005
							],
							[
								103.8229024,
								1.3218317
							],
							[
								103.8233677,
								1.3217979
							],
							[
								103.8240971,
								1.3215523
							],
							[
								103.824243,
								1.3215032
							],
							[
								103.8250223,
								1.3212407
							],
							[
								103.8252918,
								1.3212208
							],
							[
								103.825405,
								1.3212749
							],
							[
								103.8255618,
								1.3214048
							],
							[
								103.825677,
								1.3215594
							],
							[
								103.8259106,
								1.3222617
							]
						]
					},
					{
						"type": "LineString",
						"coordinates": [
							[
								103.8259106,
								1.3222617
							],
							[
								103.8259658,
								1.3224277
							],
							[
								103.8265115,
								1.3235337
							],
							[
								103.8266164,
								1.3237386
							],
							[
								103.8267273,
								1.3239553
							],
							[
								103.8267656,
								1.32403
							],
							[
								103.8266487,
								1.3251272
							],
							[
								103.8266431,
								1.3253861
							],
							[
								103.8266832,
								1.3258503
							],
							[
								103.8267875,
								1.3262026
							],
							[
								103.8269916,
								1.3268924
							],
							[
								103.8270719,
								1.3270843
							],
							[
								103.8271077,
								1.3271698
							],
							[
								103.8272044,
								1.3273255
							],
							[
								103.8273301,
								1.3274861
							],
							[
								103.8274769,
								1.3275914
							],
							[
								103.8276298,
								1.3276564
							],
							[
								103.8278281,
								1.3276905
							],
							[
								103.8280034,
								1.3276817
							],
							[
								103.8282629,
								1.3276205
							],
							[
								103.8298764,
								1.3270331
							],
							[
								103.8301623,
								1.3269031
							],
							[
								103.8306023,
								1.3266114
							],
							[
								103.8311301,
								1.3263185
							]
						]
					},
					{
						"type": "LineString",
						"coordinates": [
							[
								103.8311301,
								1.3263185
							],
							[
								103.8314436,
								1.3261446
							],
							[
								103.831874,
								1.3259938
							],
							[
								103.8323429,
								1.3259306
							],
							[
								103.8327886,
								1.3259631
							],
							[
								103.8332673,
								1.3260653
							],
							[
								103.8347081,
								1.3265082
							],
							[
								103.8367772,
								1.3271898
							],
							[
								103.8372685,
								1.3274409
							],
							[
								103.8378618,
								1.3276432
							],
							[
								103.838263,
								1.3278162
							],
							[
								103.8387097,
								1.3280516
							],
							[
								103.8388443,
								1.3281345
							],
							[
								103.8400795,
								1.3289088
							],
							[
								103.8405621,
								1.3292261
							],
							[
								103.8409468,
								1.329436
							],
							[
								103.8412837,
								1.3295844
							],
							[
								103.841812,
								1.3297327
							],
							[
								103.8424302,
								1.3298174
							],
							[
								103.8437899,
								1.3298561
							]
						]
					},
					{
						"type": "LineString",
						"coordinates": [
							[
								103.8437899,
								1.3298561
							],
							[
								103.8449654,
								1.3298896
							],
							[
								103.8452328,
								1.3299571
							],
							[
								103.8454569,
								1.3299975
							],
							[
								103.8456031,
								1.33005
							],
							[
								103.8457041,
								1.3301131
							],
							[
								103.8457807,
								1.3301972
							],
							[
								103.8461087,
								1.3310001
							],
							[
								103.8461207,
								1.3310635
							],
							[
								103.8458335,
								1.3314915
							],
							[
								103.8457327,
								1.331576
							],
							[
								103.8454946,
								1.3316902
							],
							[
								103.8453352,
								1.3317477
							],
							[
								103.844924,
								1.3318958
							],
							[
								103.8447344,
								1.3319879
							],
							[
								103.8446884,
								1.3320169
							],
							[
								103.8443851,
								1.3322079
							],
							[
								103.8441969,
								1.3323785
							],
							[
								103.8440466,
								1.3325147
							],
							[
								103.8439814,
								1.3325738
							],
							[
								103.8439547,
								1.3325979
							],
							[
								103.8437125,
								1.3329035
							],
							[
								103.8436674,
								1.3329603
							],
							[
								103.8435577,
								1.3331402
							],
							[
								103.8433757,
								1.3335164
							],
							[
								103.8433468,
								1.3335893
							],
							[
								103.8432479,
								1.3339134
							],
							[
								103.8432062,
								1.3341334
							],
							[
								103.843202,
								1.3341553
							],
							[
								103.8431898,
								1.3343502
							],
							[
								103.8431844,
								1.3344361
							],
							[
								103.8431649,
								1.3347472
							],
							[
								103.8431794,
								1.3348633
							],
							[
								103.8432027,
								1.3350496
							],
							[
								103.8432371,
								1.3353077
							],
							[
								103.8432691,
								1.3354888
							],
							[
								103.843322,
								1.3357874
							],
							[
								103.8435273,
								1.3369478
							],
							[
								103.8435454,
								1.3370501
							],
							[
								103.8435627,
								1.3371473
							],
							[
								103.8436197,
								1.3374662
							],
							[
								103.843752,
								1.338207
							],
							[
								103.8437157,
								1.3384607
							],
							[
								103.8436681,
								1.3385707
							],
							[
								103.8436063,
								1.3386712
							],
							[
								103.8433828,
								1.3388072
							],
							[
								103.8430949,
								1.338832
							],
							[
								103.8430708,
								1.3388341
							],
							[
								103.8426161,
								1.3388221
							],
							[
								103.8424437,
								1.3388072
							],
							[
								103.8422238,
								1.3387885
							],
							[
								103.8420515,
								1.3387287
							],
							[
								103.8418791,
								1.3386389
							],
							[
								103.8417127,
								1.3384954
							],
							[
								103.8413263,
								1.3382381
							],
							[
								103.8411718,
								1.3381723
							],
							[
								103.8409816,
								1.3381006
							],
							[
								103.8406547,
								1.3380527
							],
							[
								103.8402599,
								1.3380446
							]
						]
					}
				]
			},
			"properties": {
				"styleUrl": "#busroute",
				"styleHash": "-2257368b",
				"stroke-opacity": 0.6039215686274509,
				"stroke": "#DA0FB1",
				"stroke-width": 4
			}
		}
	]
}