{
	"type": "FeatureCollection",
	"features": [
		{
			"type": "Feature",
			"geometry": {
				"type": "LineString",
				"coordinates": [
					[
						103.8418076,
						1.3385772
					],
					[
						103.8418791,
						1.3386389
					],
					[
						103.8420515,
						1.3387287
					],
					[
						103.8422238,
						1.3387885
					],
					[
						103.8424437,
						1.3388072
					],
					[
						103.8426161,
						1.3388221
					],
					[
						103.8430708,
						1.3388341
					],
					[
						103.8430949,
						1.338832
					],
					[
						103.8433828,
						1.3388072
					],
					[
						103.8438536,
						1.3386904
					],
					[
						103.8438185,
						1.3385275
					],
					[
						103.8437746,
						1.3383338
					],
					[
						103.843752,
						1.338207
					],
					[
						103.8436704,
						1.3377503
					],
					[
						103.8436197,
						1.3374662
					],
					[
						103.8435627,
						1.3371473
					],
					[
						103.8435454,
						1.3370501
					],
					[
						103.8435273,
						1.3369478
					],
					[
						103.843322,
						1.3357874
					],
					[
						103.8432691,
						1.3354888
					],
					[
						103.8432371,
						1.3353077
					],
					[
						103.8432027,
						1.3350496
					],
					[
						103.8431794,
						1.3348633
					],
					[
						103.8431649,
						1.3347472
					],
					[
						103.8431844,
						1.3344361
					],
					[
						103.8431898,
						1.3343502
					],
					[
						103.843202,
						1.3341553
					],
					[
						103.8432062,
						1.3341334
					],
					[
						103.8432479,
						1.3339134
					],
					[
						103.8433468,
						1.3335893
					],
					[
						103.8433757,
						1.3335164
					],
					[
						103.8435577,
						1.3331402
					],
					[
						103.8436674,
						1.3329603
					],
					[
						103.8437125,
						1.3329035
					],
					[
						103.8439547,
						1.3325979
					],
					[
						103.8439814,
						1.3325738
					],
					[
						103.8440466,
						1.3325147
					],
					[
						103.8441969,
						1.3323785
					],
					[
						103.8443851,
						1.3322079
					],
					[
						103.8446884,
						1.3320169
					],
					[
						103.8447344,
						1.3319879
					],
					[
						103.844924,
						1.3318958
					],
					[
						103.8451076,
						1.3318297
					],
					[
						103.8453352,
						1.3317477
					],
					[
						103.8454946,
						1.3316902
					],
					[
						103.846196,
						1.3315804
					],
					[
						103.8462727,
						1.3315684
					],
					[
						103.8462517,
						1.3314989
					],
					[
						103.8461207,
						1.3310635
					],
					[
						103.8461087,
						1.3310001
					],
					[
						103.8460107,
						1.3305548
					],
					[
						103.8459472,
						1.3302662
					],
					[
						103.8459758,
						1.3292407
					],
					[
						103.8460264,
						1.3289637
					],
					[
						103.8460734,
						1.3288409
					],
					[
						103.8461954,
						1.3286849
					],
					[
						103.8462703,
						1.328627
					],
					[
						103.8464079,
						1.3285692
					],
					[
						103.8465944,
						1.3285394
					],
					[
						103.846725,
						1.3285551
					],
					[
						103.8468522,
						1.3286042
					],
					[
						103.8469933,
						1.3286989
					],
					[
						103.8470787,
						1.3288059
					],
					[
						103.8471327,
						1.3289321
					],
					[
						103.8471675,
						1.3290759
					],
					[
						103.8471553,
						1.3292039
					],
					[
						103.847117,
						1.329309
					],
					[
						103.8470229,
						1.329416
					],
					[
						103.8469298,
						1.3294719
					],
					[
						103.8467466,
						1.3295818
					],
					[
						103.8431195,
						1.3294096
					],
					[
						103.8426068,
						1.3293796
					],
					[
						103.842544,
						1.3293684
					],
					[
						103.8420303,
						1.3292765
					],
					[
						103.8412954,
						1.3290138
					],
					[
						103.8405993,
						1.3286737
					],
					[
						103.839729,
						1.3281968
					],
					[
						103.8392939,
						1.327973
					],
					[
						103.8389675,
						1.3277613
					],
					[
						103.8386073,
						1.327574
					],
					[
						103.8376887,
						1.3272625
					],
					[
						103.8366642,
						1.3269321
					],
					[
						103.8333205,
						1.3258658
					],
					[
						103.8332738,
						1.3258557
					],
					[
						103.8326726,
						1.3257247
					],
					[
						103.8321157,
						1.3257118
					],
					[
						103.8316081,
						1.325848
					],
					[
						103.8309428,
						1.3261952
					],
					[
						103.8303316,
						1.3265433
					],
					[
						103.8300042,
						1.3266805
					],
					[
						103.8296679,
						1.3267501
					],
					[
						103.8290939,
						1.3267671
					],
					[
						103.8286539,
						1.3266115
					],
					[
						103.8283735,
						1.3264803
					],
					[
						103.8281119,
						1.3263233
					],
					[
						103.827938,
						1.3261761
					],
					[
						103.8277302,
						1.3259304
					],
					[
						103.827109,
						1.324628
					],
					[
						103.8267656,
						1.32403
					],
					[
						103.8267273,
						1.3239553
					],
					[
						103.8266164,
						1.3237386
					],
					[
						103.8265115,
						1.3235337
					],
					[
						103.8260626,
						1.322624
					],
					[
						103.8259658,
						1.3224277
					],
					[
						103.825677,
						1.3215594
					],
					[
						103.8255131,
						1.3210665
					],
					[
						103.8254346,
						1.3207812
					],
					[
						103.825433,
						1.3207757
					],
					[
						103.8254053,
						1.3204708
					],
					[
						103.8249011,
						1.3206428
					],
					[
						103.8238072,
						1.3210155
					],
					[
						103.8231119,
						1.321245
					],
					[
						103.8228817,
						1.3213331
					],
					[
						103.8220738,
						1.3215875
					],
					[
						103.8212345,
						1.3218279
					],
					[
						103.8197662,
						1.3222219
					],
					[
						103.8196239,
						1.3222559
					],
					[
						103.8189669,
						1.3224129
					],
					[
						103.8182699,
						1.3225548
					],
					[
						103.816844,
						1.3227004
					],
					[
						103.8162442,
						1.3227053
					],
					[
						103.8159743,
						1.3227017
					],
					[
						103.8148807,
						1.3228357
					],
					[
						103.8146311,
						1.3228665
					],
					[
						103.8138037,
						1.3229606
					],
					[
						103.8135989,
						1.3229083
					],
					[
						103.8135035,
						1.3228602
					],
					[
						103.8134179,
						1.322792
					],
					[
						103.8133608,
						1.3226664
					],
					[
						103.8133359,
						1.3225049
					],
					[
						103.8133016,
						1.3222715
					],
					[
						103.8132253,
						1.3219414
					],
					[
						103.8131026,
						1.3216068
					],
					[
						103.8122232,
						1.3206134
					],
					[
						103.8116772,
						1.3200805
					],
					[
						103.811422,
						1.3198746
					],
					[
						103.811258,
						1.3197914
					],
					[
						103.8110921,
						1.3197773
					],
					[
						103.8105035,
						1.3195073
					],
					[
						103.810248,
						1.31939
					],
					[
						103.8096002,
						1.319067
					],
					[
						103.8091603,
						1.3187679
					],
					[
						103.8087324,
						1.3183851
					],
					[
						103.808352,
						1.3180142
					],
					[
						103.8072109,
						1.3169793
					],
					[
						103.806693,
						1.3165004
					],
					[
						103.8061795,
						1.3160122
					],
					[
						103.8058187,
						1.3157069
					],
					[
						103.8053266,
						1.3152618
					],
					[
						103.8050342,
						1.3149029
					],
					[
						103.8048773,
						1.3146588
					],
					[
						103.8047489,
						1.3144291
					],
					[
						103.8046348,
						1.3141348
					],
					[
						103.8042425,
						1.3129503
					],
					[
						103.8041592,
						1.3125765
					],
					[
						103.8038489,
						1.3113008
					],
					[
						103.8039226,
						1.3110256
					],
					[
						103.8040636,
						1.3108355
					],
					[
						103.804471,
						1.3106947
					],
					[
						103.8052484,
						1.3105081
					],
					[
						103.8062847,
						1.3101386
					],
					[
						103.8066299,
						1.3100179
					],
					[
						103.8069601,
						1.3098477
					],
					[
						103.8076734,
						1.309618
					],
					[
						103.8082154,
						1.309417
					],
					[
						103.8086433,
						1.3091801
					],
					[
						103.8089876,
						1.3089336
					],
					[
						103.8099457,
						1.3083187
					],
					[
						103.8114801,
						1.307408
					],
					[
						103.812713,
						1.3066964
					],
					[
						103.8130054,
						1.30656
					],
					[
						103.8132836,
						1.3064882
					],
					[
						103.8135903,
						1.3064882
					],
					[
						103.8139897,
						1.3065528
					],
					[
						103.8148481,
						1.3066689
					],
					[
						103.8149454,
						1.3066821
					],
					[
						103.8150871,
						1.3066926
					],
					[
						103.8156141,
						1.3067317
					],
					[
						103.8165841,
						1.3066551
					],
					[
						103.8169455,
						1.3066168
					],
					[
						103.8173829,
						1.3066168
					],
					[
						103.8179772,
						1.3067556
					],
					[
						103.8182816,
						1.3068226
					],
					[
						103.8185431,
						1.3068609
					],
					[
						103.8192183,
						1.3068513
					],
					[
						103.8197128,
						1.3067652
					],
					[
						103.8200764,
						1.3066094
					],
					[
						103.820193,
						1.3065594
					],
					[
						103.8206257,
						1.3063393
					],
					[
						103.8208539,
						1.3062005
					],
					[
						103.8210631,
						1.3060904
					],
					[
						103.8218144,
						1.3057076
					],
					[
						103.822461,
						1.3053391
					],
					[
						103.8228681,
						1.3050393
					],
					[
						103.8232028,
						1.3046942
					],
					[
						103.823412,
						1.3043832
					],
					[
						103.8235594,
						1.304053
					],
					[
						103.8235927,
						1.3039285
					],
					[
						103.8236022,
						1.3035888
					],
					[
						103.8235912,
						1.3035249
					],
					[
						103.8235642,
						1.3033686
					],
					[
						103.8234976,
						1.3031533
					],
					[
						103.8234833,
						1.3030193
					],
					[
						103.8234094,
						1.3024299
					],
					[
						103.8232571,
						1.3016731
					],
					[
						103.8232327,
						1.3014632
					],
					[
						103.823256,
						1.3011607
					],
					[
						103.8233338,
						1.3010236
					],
					[
						103.82347,
						1.3007652
					],
					[
						103.8236023,
						1.3006064
					],
					[
						103.8241197,
						1.3002829
					],
					[
						103.8247116,
						1.3000217
					],
					[
						103.8251457,
						1.2997838
					],
					[
						103.8258886,
						1.2993547
					],
					[
						103.8269593,
						1.2991135
					],
					[
						103.8270781,
						1.2990867
					],
					[
						103.8274353,
						1.2990651
					],
					[
						103.8275248,
						1.2990598
					],
					[
						103.8281775,
						1.299021
					],
					[
						103.8286036,
						1.2989957
					],
					[
						103.8288671,
						1.2989963
					],
					[
						103.8289349,
						1.2989965
					],
					[
						103.8290956,
						1.2989969
					],
					[
						103.8293842,
						1.2989977
					],
					[
						103.8299339,
						1.2992076
					],
					[
						103.8300059,
						1.2992351
					],
					[
						103.8300705,
						1.2992795
					],
					[
						103.830433,
						1.2995282
					],
					[
						103.8306059,
						1.2996288
					],
					[
						103.8307115,
						1.2996723
					],
					[
						103.830925,
						1.2997052
					],
					[
						103.8314988,
						1.2997514
					],
					[
						103.8319906,
						1.2997906
					],
					[
						103.8320189,
						1.2997919
					],
					[
						103.8324063,
						1.2998089
					],
					[
						103.8324752,
						1.2998119
					],
					[
						103.8335775,
						1.2998652
					],
					[
						103.8339267,
						1.2998794
					],
					[
						103.8342503,
						1.2998926
					],
					[
						103.8344784,
						1.2999714
					],
					[
						103.8346708,
						1.3001184
					],
					[
						103.8348601,
						1.3004323
					],
					[
						103.8342775,
						1.3008211
					],
					[
						103.8328683,
						1.302232
					],
					[
						103.8323878,
						1.3027045
					],
					[
						103.8321168,
						1.302929
					],
					[
						103.8315871,
						1.3033846
					],
					[
						103.831332,
						1.3035736
					],
					[
						103.8310471,
						1.3036263
					],
					[
						103.8308966,
						1.3035996
					],
					[
						103.830752,
						1.3034897
					],
					[
						103.8301906,
						1.3029018
					],
					[
						103.8297869,
						1.3021818
					],
					[
						103.8295693,
						1.3017939
					],
					[
						103.8293719,
						1.3013029
					],
					[
						103.8293281,
						1.3008394
					],
					[
						103.8297443,
						1.2998278
					],
					[
						103.8298983,
						1.2994872
					],
					[
						103.8299718,
						1.299315
					],
					[
						103.8300059,
						1.2992351
					],
					[
						103.8301652,
						1.2989977
					],
					[
						103.8302891,
						1.298699
					],
					[
						103.8305377,
						1.2974786
					],
					[
						103.8306523,
						1.2970407
					],
					[
						103.8308368,
						1.2966751
					],
					[
						103.8309422,
						1.2965226
					],
					[
						103.8311679,
						1.2962733
					],
					[
						103.8314053,
						1.2960094
					],
					[
						103.8316368,
						1.2955969
					],
					[
						103.8319248,
						1.2950792
					],
					[
						103.8324136,
						1.2942007
					],
					[
						103.8329661,
						1.2932078
					],
					[
						103.8330626,
						1.2930369
					],
					[
						103.8336528,
						1.2919445
					],
					[
						103.8342871,
						1.2907177
					],
					[
						103.8343203,
						1.2906535
					],
					[
						103.8345085,
						1.2902867
					],
					[
						103.8349748,
						1.2893998
					],
					[
						103.8350285,
						1.2890748
					],
					[
						103.8350643,
						1.288462
					],
					[
						103.8350445,
						1.2880946
					],
					[
						103.835085,
						1.2873281
					],
					[
						103.8348544,
						1.2861009
					],
					[
						103.8348439,
						1.2858584
					],
					[
						103.8348819,
						1.2854278
					],
					[
						103.8348977,
						1.2852492
					],
					[
						103.834916,
						1.2851457
					],
					[
						103.8351297,
						1.2846106
					],
					[
						103.835162,
						1.2845298
					],
					[
						103.835246,
						1.2843235
					],
					[
						103.8354111,
						1.28387
					],
					[
						103.8355864,
						1.2835845
					],
					[
						103.8357209,
						1.2833777
					],
					[
						103.835888,
						1.2832527
					],
					[
						103.8360423,
						1.2831358
					],
					[
						103.8360907,
						1.2830935
					],
					[
						103.8365236,
						1.282758
					],
					[
						103.8367475,
						1.2826035
					],
					[
						103.8373387,
						1.2822397
					],
					[
						103.83742,
						1.2821896
					],
					[
						103.8374885,
						1.2821474
					],
					[
						103.8382091,
						1.281704
					],
					[
						103.8383818,
						1.2815269
					],
					[
						103.8386106,
						1.2812906
					],
					[
						103.839098,
						1.2807373
					],
					[
						103.8393862,
						1.2805698
					],
					[
						103.839514,
						1.2804681
					],
					[
						103.8396567,
						1.2803873
					],
					[
						103.8398231,
						1.2803515
					],
					[
						103.8400905,
						1.2803305
					],
					[
						103.840251,
						1.280504
					],
					[
						103.8403966,
						1.2808001
					],
					[
						103.8409448,
						1.2814914
					],
					[
						103.8412184,
						1.2818365
					],
					[
						103.8415409,
						1.2822185
					],
					[
						103.8419087,
						1.2826587
					],
					[
						103.8425076,
						1.2833608
					],
					[
						103.8432742,
						1.2842638
					],
					[
						103.8436542,
						1.2847028
					],
					[
						103.8438865,
						1.2849686
					],
					[
						103.8440018,
						1.2850826
					],
					[
						103.8447292,
						1.2859686
					],
					[
						103.8452152,
						1.2865664
					],
					[
						103.845405,
						1.2864421
					],
					[
						103.8462969,
						1.2859377
					],
					[
						103.8468524,
						1.2856235
					],
					[
						103.847183,
						1.285433
					],
					[
						103.8469106,
						1.2850057
					],
					[
						103.8468371,
						1.2849328
					],
					[
						103.8466367,
						1.2845585
					],
					[
						103.8466093,
						1.2845113
					],
					[
						103.8463868,
						1.2841283
					],
					[
						103.8460845,
						1.2836289
					],
					[
						103.8458393,
						1.2832137
					],
					[
						103.8456412,
						1.2828797
					],
					[
						103.8455411,
						1.2827143
					],
					[
						103.8452694,
						1.2822494
					],
					[
						103.8450215,
						1.2818238
					],
					[
						103.8449642,
						1.2817293
					],
					[
						103.8447718,
						1.2814015
					],
					[
						103.8446544,
						1.2811729
					],
					[
						103.8445129,
						1.2809235
					],
					[
						103.8445118,
						1.2809216
					],
					[
						103.8442919,
						1.2805986
					],
					[
						103.8441746,
						1.2803587
					],
					[
						103.8442598,
						1.2802917
					],
					[
						103.844705,
						1.2797287
					],
					[
						103.8447533,
						1.2796673
					],
					[
						103.8452223,
						1.2790715
					],
					[
						103.8452322,
						1.279059
					],
					[
						103.8452665,
						1.2790153
					],
					[
						103.8453036,
						1.2789686
					],
					[
						103.846103,
						1.2779607
					],
					[
						103.8462431,
						1.2777952
					],
					[
						103.8462987,
						1.2777296
					],
					[
						103.8463595,
						1.2776755
					],
					[
						103.8464923,
						1.2775575
					],
					[
						103.8469307,
						1.2770293
					],
					[
						103.8472993,
						1.2766425
					],
					[
						103.8476729,
						1.2769761
					],
					[
						103.8481644,
						1.2777871
					],
					[
						103.8481657,
						1.2777893
					],
					[
						103.8487887,
						1.2788174
					],
					[
						103.8494403,
						1.2798839
					],
					[
						103.8496231,
						1.280183
					],
					[
						103.849783,
						1.28042
					],
					[
						103.8503142,
						1.2812099
					],
					[
						103.8505937,
						1.2815041
					],
					[
						103.8508205,
						1.2818678
					],
					[
						103.8509218,
						1.282031
					],
					[
						103.8512709,
						1.2825937
					],
					[
						103.8514059,
						1.2825361
					],
					[
						103.8519642,
						1.2821678
					],
					[
						103.8526647,
						1.2817574
					],
					[
						103.8534127,
						1.2812583
					],
					[
						103.8541763,
						1.2807734
					],
					[
						103.8549292,
						1.2802955
					]
				]
			},
			"properties": {
				"styleUrl": "#busroute",
				"styleHash": "-2257368b",
				"stroke-opacity": 0.6039215686274509,
				"stroke": "#DA0FB1",
				"stroke-width": 4
			}
		}
	]
}