{
	"type": "FeatureCollection",
	"features": [
		{
			"type": "Feature",
			"geometry": {
				"type": "GeometryCollection",
				"geometries": [
					{
						"type": "LineString",
						"coordinates": [
							[
								103.8549292,
								1.2802955
							],
							[
								103.8556143,
								1.2798605
							],
							[
								103.8567561,
								1.2791256
							],
							[
								103.8571406,
								1.2788781
							],
							[
								103.8583357,
								1.278081
							],
							[
								103.8585112,
								1.2779689
							],
							[
								103.8590859,
								1.2776015
							],
							[
								103.8601877,
								1.2768988
							],
							[
								103.8619673,
								1.2757495
							],
							[
								103.8625261,
								1.2766215
							],
							[
								103.8630067,
								1.2773716
							],
							[
								103.8642695,
								1.2793423
							],
							[
								103.864707,
								1.2797532
							],
							[
								103.8652612,
								1.2801349
							],
							[
								103.8657133,
								1.280355
							],
							[
								103.8659881,
								1.2804472
							],
							[
								103.8660895,
								1.2804772
							],
							[
								103.8665737,
								1.2805605
							],
							[
								103.8668878,
								1.2805722
							],
							[
								103.8673954,
								1.2805287
							],
							[
								103.8677054,
								1.2804751
							],
							[
								103.8679945,
								1.2803908
							],
							[
								103.8685042,
								1.2801879
							],
							[
								103.8688314,
								1.2800539
							],
							[
								103.869079,
								1.2799274
							]
						]
					},
					{
						"type": "LineString",
						"coordinates": [
							[
								103.869079,
								1.2799274
							],
							[
								103.8692098,
								1.2798606
							],
							[
								103.8695669,
								1.2796439
							],
							[
								103.8698827,
								1.2794509
							],
							[
								103.8699955,
								1.2793623
							]
						]
					},
					{
						"type": "LineString",
						"coordinates": [
							[
								103.8699955,
								1.2793623
							],
							[
								103.8701653,
								1.2792287
							],
							[
								103.8702164,
								1.2792643
							],
							[
								103.8702582,
								1.2792715
							],
							[
								103.8703058,
								1.2792639
							],
							[
								103.8703438,
								1.2792347
							],
							[
								103.8703614,
								1.2791835
							],
							[
								103.8703652,
								1.2791394
							],
							[
								103.8703518,
								1.2790967
							],
							[
								103.8703191,
								1.2790729
							],
							[
								103.8702701,
								1.2790562
							],
							[
								103.8702283,
								1.2790552
							],
							[
								103.8701845,
								1.2790739
							],
							[
								103.8701579,
								1.2791126
							],
							[
								103.8701527,
								1.2791547
							],
							[
								103.8701522,
								1.2791882
							],
							[
								103.8701653,
								1.2792287
							],
							[
								103.8698827,
								1.2794509
							],
							[
								103.8695669,
								1.2796439
							],
							[
								103.8692098,
								1.2798606
							],
							[
								103.8688314,
								1.2800539
							],
							[
								103.8685042,
								1.2801879
							],
							[
								103.8679945,
								1.2803908
							],
							[
								103.8677054,
								1.2804751
							],
							[
								103.8673954,
								1.2805287
							],
							[
								103.8668878,
								1.2805722
							],
							[
								103.8665737,
								1.2805605
							],
							[
								103.8660895,
								1.2804772
							],
							[
								103.8659881,
								1.2804472
							],
							[
								103.8657133,
								1.280355
							],
							[
								103.8652612,
								1.2801349
							],
							[
								103.864707,
								1.2797532
							],
							[
								103.8642695,
								1.2793423
							],
							[
								103.8635492,
								1.2782182
							]
						]
					},
					{
						"type": "LineString",
						"coordinates": [
							[
								103.8635492,
								1.2782182
							],
							[
								103.8630067,
								1.2773716
							],
							[
								103.8625261,
								1.2766215
							],
							[
								103.8619673,
								1.2757495
							],
							[
								103.8632596,
								1.2749303
							],
							[
								103.8634049,
								1.2748319
							],
							[
								103.8643293,
								1.2742054
							],
							[
								103.8649355,
								1.2740589
							],
							[
								103.8657628,
								1.2746561
							],
							[
								103.8660767,
								1.274995
							],
							[
								103.866225,
								1.2751328
							],
							[
								103.8663905,
								1.2752706
							],
							[
								103.8672748,
								1.2758811
							],
							[
								103.8674803,
								1.2760229
							],
							[
								103.8679082,
								1.2762756
							],
							[
								103.8683448,
								1.2764432
							],
							[
								103.8706717,
								1.2780907
							],
							[
								103.8763621,
								1.2823112
							],
							[
								103.8767858,
								1.2826785
							],
							[
								103.877209,
								1.2830808
							],
							[
								103.8775113,
								1.2834317
							],
							[
								103.8778257,
								1.2839123
							],
							[
								103.877987,
								1.2842486
							],
							[
								103.8781255,
								1.2846668
							],
							[
								103.8781831,
								1.2850263
							],
							[
								103.8782065,
								1.2853793
							],
							[
								103.8781987,
								1.2859325
							],
							[
								103.8781239,
								1.2862555
							],
							[
								103.8779955,
								1.2866
							],
							[
								103.8777816,
								1.2870199
							],
							[
								103.877557,
								1.2873967
							],
							[
								103.8772254,
								1.287795
							],
							[
								103.8763245,
								1.2888166
							],
							[
								103.8756969,
								1.2893766
							],
							[
								103.8754187,
								1.2897355
							],
							[
								103.8752618,
								1.2900226
							],
							[
								103.8751406,
								1.2902739
							],
							[
								103.875055,
								1.2905538
							],
							[
								103.8749837,
								1.2908769
							],
							[
								103.8747769,
								1.2921546
							],
							[
								103.8747056,
								1.2923987
							],
							[
								103.87462,
								1.2926212
							],
							[
								103.8744631,
								1.2928796
							],
							[
								103.8742562,
								1.2932098
							],
							[
								103.8741065,
								1.2934898
							],
							[
								103.8740352,
								1.2937698
							],
							[
								103.8740066,
								1.2940641
							],
							[
								103.8740566,
								1.2943728
							],
							[
								103.8741778,
								1.2946814
							],
							[
								103.8743133,
								1.2948968
							],
							[
								103.8745344,
								1.2951265
							],
							[
								103.8747413,
								1.2952844
							],
							[
								103.8751335,
								1.2954782
							],
							[
								103.8754616,
								1.2955931
							],
							[
								103.8756756,
								1.295672
							],
							[
								103.8758539,
								1.2957582
							],
							[
								103.8760607,
								1.2958587
							],
							[
								103.8763318,
								1.2959735
							],
							[
								103.8766741,
								1.2961386
							],
							[
								103.8768738,
								1.2961673
							],
							[
								103.877102,
								1.2961601
							],
							[
								103.8773802,
								1.2961171
							],
							[
								103.8780007,
								1.2960094
							],
							[
								103.8783359,
								1.2959519
							],
							[
								103.8785927,
								1.295916
							],
							[
								103.8787781,
								1.295916
							],
							[
								103.8790789,
								1.2959298
							],
							[
								103.8799491,
								1.2959657
							],
							[
								103.8809119,
								1.2959585
							],
							[
								103.8816822,
								1.2959154
							],
							[
								103.8822456,
								1.295901
							],
							[
								103.8826094,
								1.2959154
							],
							[
								103.8834908,
								1.2960049
							],
							[
								103.8844584,
								1.2960614
							],
							[
								103.8849145,
								1.2961295
							],
							[
								103.884987,
								1.2961505
							],
							[
								103.8851138,
								1.2962317
							],
							[
								103.8852015,
								1.2963544
							],
							[
								103.8852266,
								1.2964261
							],
							[
								103.885311,
								1.2968956
							],
							[
								103.885305,
								1.2974292
							],
							[
								103.8852515,
								1.2976276
							],
							[
								103.8851448,
								1.2978036
							],
							[
								103.8849946,
								1.2979429
							],
							[
								103.884885,
								1.2980057
							],
							[
								103.8840667,
								1.2980595
							],
							[
								103.8839416,
								1.2980673
							],
							[
								103.8835759,
								1.2980903
							],
							[
								103.8834967,
								1.298091
							],
							[
								103.8833681,
								1.2980921
							],
							[
								103.8830617,
								1.2980947
							],
							[
								103.8829069,
								1.2981053
							],
							[
								103.8825563,
								1.2980691
							],
							[
								103.8820871,
								1.2979589
							],
							[
								103.8816157,
								1.2978708
							],
							[
								103.8807278,
								1.2977742
							],
							[
								103.8793246,
								1.2976513
							],
							[
								103.8783463,
								1.2975656
							],
							[
								103.8771431,
								1.2974605
							],
							[
								103.8764328,
								1.2974036
							],
							[
								103.8760806,
								1.2973345
							],
							[
								103.8758054,
								1.2971522
							],
							[
								103.875535,
								1.2968668
							],
							[
								103.8754076,
								1.2967642
							],
							[
								103.874951,
								1.2972212
							],
							[
								103.8738828,
								1.2971623
							],
							[
								103.873151,
								1.2971225
							],
							[
								103.8725143,
								1.2971048
							],
							[
								103.8724431,
								1.2971102
							],
							[
								103.8723615,
								1.2971154
							],
							[
								103.8724007,
								1.2971307
							],
							[
								103.8724431,
								1.2971102
							],
							[
								103.8725143,
								1.2971048
							],
							[
								103.873151,
								1.2971225
							],
							[
								103.8736973,
								1.2971522
							]
						]
					},
					{
						"type": "LineString",
						"coordinates": [
							[
								103.8736973,
								1.2971522
							],
							[
								103.8738828,
								1.2971623
							],
							[
								103.874951,
								1.2972212
							],
							[
								103.8754076,
								1.2967642
							],
							[
								103.875535,
								1.2968668
							],
							[
								103.8758054,
								1.2971522
							],
							[
								103.8760806,
								1.2973345
							],
							[
								103.8764328,
								1.2974036
							],
							[
								103.8771431,
								1.2974605
							],
							[
								103.8772457,
								1.2979224
							]
						]
					},
					{
						"type": "LineString",
						"coordinates": [
							[
								103.8772457,
								1.2979224
							],
							[
								103.8775722,
								1.2993932
							],
							[
								103.8779873,
								1.3005591
							],
							[
								103.8780382,
								1.3007414
							],
							[
								103.8781499,
								1.3011415
							],
							[
								103.8781818,
								1.3012305
							],
							[
								103.8783173,
								1.3013023
							],
							[
								103.8786383,
								1.3014566
							],
							[
								103.8787381,
								1.3015427
							],
							[
								103.878838,
								1.3016791
							],
							[
								103.8789022,
								1.3018334
							],
							[
								103.8789093,
								1.3020237
							],
							[
								103.8788914,
								1.3021621
							],
							[
								103.8788263,
								1.3023207
							],
							[
								103.8786837,
								1.3025989
							],
							[
								103.8786004,
								1.3027514
							],
							[
								103.8783657,
								1.3032469
							],
							[
								103.8781636,
								1.3036761
							],
							[
								103.8780923,
								1.3037509
							],
							[
								103.8780014,
								1.3038496
							],
							[
								103.8778707,
								1.3038496
							],
							[
								103.8777221,
								1.3038975
							],
							[
								103.8776745,
								1.3039693
							],
							[
								103.8776567,
								1.304047
							],
							[
								103.8776627,
								1.3041547
							],
							[
								103.8777378,
								1.3042696
							],
							[
								103.8777994,
								1.3043043
							],
							[
								103.877942,
								1.3043222
							],
							[
								103.8780787,
								1.3042684
							],
							[
								103.878232,
								1.3043013
							],
							[
								103.8786361,
								1.3044927
							],
							[
								103.8803164,
								1.3052847
							],
							[
								103.8807196,
								1.3055073
							],
							[
								103.8810078,
								1.305697
							],
							[
								103.8812708,
								1.3057655
							],
							[
								103.8821611,
								1.3060253
							],
							[
								103.8822258,
								1.3059713
							],
							[
								103.8826983,
								1.3055768
							],
							[
								103.8830244,
								1.3052968
							],
							[
								103.8835124,
								1.304775
							],
							[
								103.8837043,
								1.3045943
							],
							[
								103.883921,
								1.3043716
							],
							[
								103.8842704,
								1.3039768
							],
							[
								103.884493,
								1.3035297
							],
							[
								103.8845066,
								1.3034129
							],
							[
								103.8845838,
								1.3030997
							],
							[
								103.8845945,
								1.3029166
							],
							[
								103.8846049,
								1.3025033
							],
							[
								103.8848338,
								1.3022863
							],
							[
								103.8850613,
								1.3020018
							],
							[
								103.8853272,
								1.3016405
							],
							[
								103.8853975,
								1.3015115
							],
							[
								103.8855355,
								1.3011802
							],
							[
								103.8855164,
								1.300907
							],
							[
								103.8854787,
								1.3003544
							],
							[
								103.885415,
								1.2994087
							],
							[
								103.885397,
								1.2991476
							]
						]
					},
					{
						"type": "LineString",
						"coordinates": [
							[
								103.885397,
								1.2991476
							],
							[
								103.8853625,
								1.2986465
							],
							[
								103.8853537,
								1.2985123
							],
							[
								103.8853359,
								1.2981597
							],
							[
								103.8853263,
								1.2979684
							],
							[
								103.8853189,
								1.2977806
							],
							[
								103.885305,
								1.2974292
							],
							[
								103.885311,
								1.2968956
							],
							[
								103.8854978,
								1.2964276
							],
							[
								103.8855926,
								1.2962853
							],
							[
								103.8856564,
								1.2962281
							],
							[
								103.8858078,
								1.2961498
							],
							[
								103.8860819,
								1.2960908
							],
							[
								103.8866782,
								1.2960838
							],
							[
								103.8880072,
								1.2959433
							],
							[
								103.8887928,
								1.2958251
							],
							[
								103.8911192,
								1.295716
							],
							[
								103.8927284,
								1.2957067
							],
							[
								103.893514,
								1.2958175
							],
							[
								103.8943805,
								1.2960244
							],
							[
								103.8954874,
								1.2964328
							],
							[
								103.8968918,
								1.2969849
							],
							[
								103.8977459,
								1.2974052
							],
							[
								103.897857,
								1.2974946
							],
							[
								103.8979432,
								1.297614
							],
							[
								103.8979792,
								1.2977842
							],
							[
								103.8979716,
								1.2979386
							],
							[
								103.8977416,
								1.2988184
							],
							[
								103.8976722,
								1.2991699
							],
							[
								103.8977082,
								1.2994574
							],
							[
								103.8976368,
								1.2998318
							],
							[
								103.8975805,
								1.3001278
							],
							[
								103.8975032,
								1.3005334
							],
							[
								103.8974454,
								1.3008094
							]
						]
					},
					{
						"type": "LineString",
						"coordinates": [
							[
								103.8974454,
								1.3008094
							],
							[
								103.8974111,
								1.300973
							],
							[
								103.8973615,
								1.3011962
							],
							[
								103.8972645,
								1.3015525
							],
							[
								103.8971991,
								1.3017571
							],
							[
								103.8971262,
								1.301985
							],
							[
								103.8973206,
								1.3020332
							],
							[
								103.8975584,
								1.3020923
							],
							[
								103.8982367,
								1.3022737
							],
							[
								103.8985344,
								1.3023515
							],
							[
								103.8990109,
								1.302529
							],
							[
								103.8991576,
								1.3025906
							],
							[
								103.9001858,
								1.3030227
							],
							[
								103.9005097,
								1.303175
							],
							[
								103.9006217,
								1.3028339
							],
							[
								103.9009231,
								1.302043
							],
							[
								103.901089,
								1.3016689
							],
							[
								103.901305,
								1.3012873
							],
							[
								103.9014391,
								1.3010342
							],
							[
								103.9015142,
								1.3009091
							],
							[
								103.9016053,
								1.3008282
							],
							[
								103.9018378,
								1.3007109
							],
							[
								103.902033,
								1.3007006
							],
							[
								103.9024134,
								1.3007591
							],
							[
								103.903189,
								1.3012868
							],
							[
								103.9036827,
								1.3016124
							],
							[
								103.904132,
								1.3019569
							],
							[
								103.9047026,
								1.3023158
							],
							[
								103.9051163,
								1.3026101
							],
							[
								103.9054773,
								1.3028542
							],
							[
								103.9055728,
								1.3029188
							],
							[
								103.9066447,
								1.3036845
							],
							[
								103.9072225,
								1.304114
							],
							[
								103.9077529,
								1.3044399
							],
							[
								103.9078885,
								1.3045113
							]
						]
					},
					{
						"type": "LineString",
						"coordinates": [
							[
								103.9078885,
								1.3045113
							],
							[
								103.9084332,
								1.3047981
							],
							[
								103.9093767,
								1.3051888
							],
							[
								103.9097761,
								1.3053611
							],
							[
								103.9098795,
								1.3054113
							],
							[
								103.9100116,
								1.3054992
							],
							[
								103.9104066,
								1.3056581
							],
							[
								103.9114402,
								1.3059137
							],
							[
								103.9117395,
								1.3059878
							],
							[
								103.9119166,
								1.3060335
							],
							[
								103.9120965,
								1.3060799
							],
							[
								103.9131274,
								1.3062905
							],
							[
								103.9133945,
								1.306345
							],
							[
								103.9136177,
								1.3064016
							],
							[
								103.9149915,
								1.3067498
							]
						]
					},
					{
						"type": "LineString",
						"coordinates": [
							[
								103.9149915,
								1.3067498
							],
							[
								103.9164162,
								1.3071109
							],
							[
								103.9167937,
								1.3072106
							],
							[
								103.918343,
								1.3075227
							],
							[
								103.9201147,
								1.3077768
							],
							[
								103.9203042,
								1.307808
							],
							[
								103.9203891,
								1.3078221
							],
							[
								103.9204527,
								1.3078357
							],
							[
								103.9205806,
								1.307863
							],
							[
								103.9227605,
								1.3083683
							],
							[
								103.9231703,
								1.308432
							],
							[
								103.9244019,
								1.3085411
							],
							[
								103.9255744,
								1.3088897
							],
							[
								103.9257995,
								1.3089684
							],
							[
								103.9259172,
								1.3090095
							],
							[
								103.9260554,
								1.3090474
							],
							[
								103.9263886,
								1.3091387
							],
							[
								103.9272204,
								1.3092826
							],
							[
								103.9279131,
								1.3094025
							],
							[
								103.9287455,
								1.3095288
							],
							[
								103.9294083,
								1.309721
							]
						]
					},
					{
						"type": "LineString",
						"coordinates": [
							[
								103.9294083,
								1.309721
							],
							[
								103.9302504,
								1.3099652
							],
							[
								103.9308111,
								1.3101254
							],
							[
								103.9321278,
								1.3105533
							],
							[
								103.9322464,
								1.3107594
							],
							[
								103.9322863,
								1.3108718
							],
							[
								103.9323243,
								1.3111751
							],
							[
								103.9323132,
								1.3112622
							],
							[
								103.9322764,
								1.3115937
							],
							[
								103.9322036,
								1.3123131
							],
							[
								103.9321437,
								1.3132765
							],
							[
								103.9320834,
								1.3139912
							],
							[
								103.9330668,
								1.3140503
							],
							[
								103.9336605,
								1.3140976
							],
							[
								103.9343643,
								1.314176
							],
							[
								103.9345824,
								1.3142154
							],
							[
								103.9349063,
								1.3142798
							],
							[
								103.9354426,
								1.3143436
							],
							[
								103.9357207,
								1.3143744
							],
							[
								103.9363439,
								1.314446
							],
							[
								103.9364221,
								1.3144556
							],
							[
								103.9378899,
								1.3146269
							],
							[
								103.9379968,
								1.3146394
							],
							[
								103.9383076,
								1.3146683
							],
							[
								103.9388529,
								1.314719
							],
							[
								103.9389945,
								1.3147322
							],
							[
								103.9402587,
								1.3148687
							],
							[
								103.9409111,
								1.3149681
							]
						]
					}
				]
			},
			"properties": {
				"styleUrl": "#busroute",
				"styleHash": "-2257368b",
				"stroke-opacity": 0.6039215686274509,
				"stroke": "#DA0FB1",
				"stroke-width": 4
			}
		}
	]
}