{
	"type": "FeatureCollection",
	"features": [
		{
			"type": "Feature",
			"geometry": {
				"type": "GeometryCollection",
				"geometries": [
					{
						"type": "LineString",
						"coordinates": [
							[
								103.940652,
								1.3149286
							],
							[
								103.9402587,
								1.3148687
							],
							[
								103.9389945,
								1.3147322
							],
							[
								103.9388529,
								1.314719
							],
							[
								103.9383076,
								1.3146683
							],
							[
								103.9379968,
								1.3146394
							],
							[
								103.9378899,
								1.3146269
							],
							[
								103.9364221,
								1.3144556
							],
							[
								103.9363439,
								1.314446
							],
							[
								103.9357207,
								1.3143744
							],
							[
								103.9354426,
								1.3143436
							],
							[
								103.9349063,
								1.3142798
							],
							[
								103.9345824,
								1.3142154
							],
							[
								103.9343643,
								1.314176
							],
							[
								103.9340695,
								1.3138589
							],
							[
								103.9338143,
								1.313497
							],
							[
								103.9341602,
								1.3122179
							],
							[
								103.9343387,
								1.3115429
							],
							[
								103.933432,
								1.3111095
							],
							[
								103.9333727,
								1.311088
							],
							[
								103.9332645,
								1.3110489
							],
							[
								103.9331333,
								1.3110015
							],
							[
								103.932798,
								1.3108804
							],
							[
								103.9325122,
								1.3107357
							],
							[
								103.9323889,
								1.3106732
							],
							[
								103.932292,
								1.3106287
							],
							[
								103.9321278,
								1.3105533
							],
							[
								103.9308111,
								1.3101254
							],
							[
								103.9302504,
								1.3099652
							],
							[
								103.9287455,
								1.3095288
							],
							[
								103.9279131,
								1.3094025
							],
							[
								103.9277804,
								1.3093796
							]
						]
					},
					{
						"type": "LineString",
						"coordinates": [
							[
								103.9277804,
								1.3093796
							],
							[
								103.9272204,
								1.3092826
							],
							[
								103.9263886,
								1.3091387
							],
							[
								103.9260554,
								1.3090474
							],
							[
								103.9259172,
								1.3090095
							],
							[
								103.9257995,
								1.3089684
							],
							[
								103.9255744,
								1.3088897
							],
							[
								103.9244019,
								1.3085411
							],
							[
								103.9231703,
								1.308432
							],
							[
								103.9227605,
								1.3083683
							],
							[
								103.9205806,
								1.307863
							],
							[
								103.9204527,
								1.3078357
							],
							[
								103.9203891,
								1.3078221
							],
							[
								103.9203042,
								1.307808
							],
							[
								103.9201147,
								1.3077768
							],
							[
								103.918343,
								1.3075227
							],
							[
								103.9167937,
								1.3072106
							],
							[
								103.9164162,
								1.3071109
							],
							[
								103.9148491,
								1.3067137
							]
						]
					},
					{
						"type": "LineString",
						"coordinates": [
							[
								103.9148491,
								1.3067137
							],
							[
								103.9136177,
								1.3064016
							],
							[
								103.9133945,
								1.306345
							],
							[
								103.9131274,
								1.3062905
							],
							[
								103.9120965,
								1.3060799
							],
							[
								103.9119166,
								1.3060335
							],
							[
								103.9117395,
								1.3059878
							],
							[
								103.9114402,
								1.3059137
							],
							[
								103.9104066,
								1.3056581
							],
							[
								103.9100116,
								1.3054992
							],
							[
								103.9098795,
								1.3054113
							],
							[
								103.9097761,
								1.3053611
							],
							[
								103.9093767,
								1.3051888
							],
							[
								103.9084332,
								1.3047981
							],
							[
								103.9078226,
								1.3044766
							]
						]
					},
					{
						"type": "LineString",
						"coordinates": [
							[
								103.9078226,
								1.3044766
							],
							[
								103.9077529,
								1.3044399
							],
							[
								103.9072225,
								1.304114
							],
							[
								103.9066447,
								1.3036845
							],
							[
								103.9055728,
								1.3029188
							],
							[
								103.9054773,
								1.3028542
							],
							[
								103.9051163,
								1.3026101
							],
							[
								103.9047026,
								1.3023158
							],
							[
								103.904132,
								1.3019569
							],
							[
								103.9036827,
								1.3016124
							],
							[
								103.903189,
								1.3012868
							],
							[
								103.9028379,
								1.3010479
							]
						]
					},
					{
						"type": "LineString",
						"coordinates": [
							[
								103.9028379,
								1.3010479
							],
							[
								103.9024134,
								1.3007591
							],
							[
								103.9022301,
								1.3004174
							],
							[
								103.9022159,
								1.3003161
							],
							[
								103.9021501,
								1.3002003
							],
							[
								103.9020422,
								1.3001228
							],
							[
								103.901912,
								1.3000978
							],
							[
								103.9017501,
								1.3001437
							],
							[
								103.9016565,
								1.3002358
							],
							[
								103.9016104,
								1.3003591
							],
							[
								103.9016203,
								1.3004905
							],
							[
								103.901601,
								1.3006385
							],
							[
								103.9015605,
								1.3007665
							],
							[
								103.9015142,
								1.3009091
							],
							[
								103.9014391,
								1.3010342
							],
							[
								103.901305,
								1.3012873
							],
							[
								103.901089,
								1.3016689
							],
							[
								103.9009231,
								1.302043
							],
							[
								103.9006217,
								1.3028339
							],
							[
								103.900477,
								1.3029465
							],
							[
								103.9004053,
								1.3029856
							],
							[
								103.9001858,
								1.3030227
							],
							[
								103.8991576,
								1.3025906
							],
							[
								103.8990109,
								1.302529
							],
							[
								103.8985344,
								1.3023515
							],
							[
								103.8982367,
								1.3022737
							],
							[
								103.8975584,
								1.3020923
							],
							[
								103.8974364,
								1.3019398
							],
							[
								103.8973827,
								1.3017936
							],
							[
								103.897417,
								1.3013684
							],
							[
								103.8973834,
								1.301264
							]
						]
					},
					{
						"type": "LineString",
						"coordinates": [
							[
								103.8973834,
								1.301264
							],
							[
								103.8973615,
								1.3011962
							],
							[
								103.8974111,
								1.300973
							],
							[
								103.8975032,
								1.3005334
							],
							[
								103.8975805,
								1.3001278
							],
							[
								103.8976368,
								1.2998318
							],
							[
								103.8977082,
								1.2994574
							],
							[
								103.8978029,
								1.299104
							],
							[
								103.898263,
								1.2974494
							],
							[
								103.8982937,
								1.2972429
							],
							[
								103.8982879,
								1.2971056
							],
							[
								103.8982626,
								1.2969762
							],
							[
								103.898199,
								1.2968166
							],
							[
								103.8980778,
								1.2966351
							],
							[
								103.8979218,
								1.2964983
							],
							[
								103.8977588,
								1.2964028
							],
							[
								103.8976098,
								1.2963605
							],
							[
								103.8972616,
								1.2963559
							],
							[
								103.8968175,
								1.2964303
							],
							[
								103.8965963,
								1.2964429
							],
							[
								103.896422,
								1.296421
							],
							[
								103.8962043,
								1.2963542
							],
							[
								103.8957242,
								1.2962904
							],
							[
								103.8947255,
								1.2959431
							],
							[
								103.893793,
								1.2956845
							],
							[
								103.8929045,
								1.2955294
							],
							[
								103.8920602,
								1.2954851
							],
							[
								103.8888518,
								1.2956058
							],
							[
								103.8878906,
								1.2955356
							],
							[
								103.8859828,
								1.2955145
							],
							[
								103.8853142,
								1.295776
							],
							[
								103.8853287,
								1.2960963
							],
							[
								103.885311,
								1.2968956
							],
							[
								103.885305,
								1.2974292
							],
							[
								103.8853189,
								1.2977806
							],
							[
								103.8853263,
								1.2979684
							],
							[
								103.8853359,
								1.2981597
							],
							[
								103.8853537,
								1.2985123
							],
							[
								103.8853625,
								1.2986465
							],
							[
								103.8854075,
								1.2992998
							]
						]
					},
					{
						"type": "LineString",
						"coordinates": [
							[
								103.8854075,
								1.2992998
							],
							[
								103.885415,
								1.2994087
							],
							[
								103.8854787,
								1.3003544
							],
							[
								103.885404,
								1.3005659
							],
							[
								103.885297,
								1.3007371
							],
							[
								103.8852088,
								1.300847
							],
							[
								103.8851176,
								1.3009427
							],
							[
								103.8849365,
								1.3011192
							],
							[
								103.8847535,
								1.3013804
							],
							[
								103.8846809,
								1.3016617
							],
							[
								103.8846049,
								1.3025033
							],
							[
								103.8845945,
								1.3029166
							],
							[
								103.8845838,
								1.3030997
							],
							[
								103.8845066,
								1.3034129
							],
							[
								103.884493,
								1.3035297
							],
							[
								103.8842704,
								1.3039768
							],
							[
								103.883921,
								1.3043716
							],
							[
								103.8837043,
								1.3045943
							],
							[
								103.8835124,
								1.304775
							],
							[
								103.8830244,
								1.3052968
							],
							[
								103.8826983,
								1.3055768
							],
							[
								103.8822903,
								1.30567
							],
							[
								103.881696,
								1.3057206
							],
							[
								103.88134,
								1.3055698
							],
							[
								103.8810159,
								1.3054028
							],
							[
								103.8808138,
								1.3053284
							],
							[
								103.8797849,
								1.3048439
							]
						]
					},
					{
						"type": "LineString",
						"coordinates": [
							[
								103.8797849,
								1.3048439
							],
							[
								103.8786896,
								1.3043282
							],
							[
								103.8785202,
								1.3041816
							],
							[
								103.8784222,
								1.3041068
							],
							[
								103.8783716,
								1.304044
							],
							[
								103.8783271,
								1.3039633
							],
							[
								103.8783033,
								1.3038855
							],
							[
								103.8782944,
								1.3037928
							],
							[
								103.8783003,
								1.3036851
							],
							[
								103.8783241,
								1.303538
							],
							[
								103.8790805,
								1.3018945
							],
							[
								103.8791232,
								1.3017294
							],
							[
								103.8788094,
								1.3014673
							],
							[
								103.8781499,
								1.3011415
							],
							[
								103.8780382,
								1.3007414
							],
							[
								103.8779873,
								1.3005591
							],
							[
								103.8775722,
								1.2993932
							],
							[
								103.8771431,
								1.2974605
							],
							[
								103.8764328,
								1.2974036
							],
							[
								103.8760806,
								1.2973345
							],
							[
								103.8758054,
								1.2971522
							],
							[
								103.875535,
								1.2968668
							],
							[
								103.8754076,
								1.2967642
							],
							[
								103.874951,
								1.2972212
							],
							[
								103.8738828,
								1.2971623
							],
							[
								103.8735636,
								1.2971449
							]
						]
					},
					{
						"type": "LineString",
						"coordinates": [
							[
								103.8735636,
								1.2971449
							],
							[
								103.873151,
								1.2971225
							],
							[
								103.8725143,
								1.2971048
							],
							[
								103.8724431,
								1.2971102
							],
							[
								103.8723615,
								1.2971154
							],
							[
								103.87224,
								1.2971262
							],
							[
								103.8719584,
								1.2971433
							],
							[
								103.8714883,
								1.2971406
							],
							[
								103.8713255,
								1.2971358
							],
							[
								103.8710611,
								1.2971281
							],
							[
								103.8699935,
								1.2970967
							],
							[
								103.8696656,
								1.2970484
							],
							[
								103.8695921,
								1.2970208
							]
						]
					},
					{
						"type": "LineString",
						"coordinates": [
							[
								103.8695921,
								1.2970208
							],
							[
								103.8693748,
								1.296939
							],
							[
								103.8691574,
								1.2968007
							],
							[
								103.8688634,
								1.296537
							],
							[
								103.867992,
								1.2957692
							],
							[
								103.8679426,
								1.296001
							],
							[
								103.867832,
								1.29628
							],
							[
								103.8676251,
								1.296639
							],
							[
								103.8674006,
								1.297006
							],
							[
								103.8673293,
								1.2971352
							],
							[
								103.8672865,
								1.2972788
							],
							[
								103.8672651,
								1.2974511
							],
							[
								103.867258,
								1.2977597
							],
							[
								103.867181,
								1.2977826
							],
							[
								103.8671376,
								1.2978163
							],
							[
								103.867119,
								1.2978587
							],
							[
								103.8671276,
								1.2979149
							],
							[
								103.8671524,
								1.2979511
							],
							[
								103.8671921,
								1.2979723
							],
							[
								103.8672355,
								1.2979748
							],
							[
								103.867274,
								1.2979611
							],
							[
								103.8673,
								1.2979349
							],
							[
								103.8673186,
								1.2979012
							],
							[
								103.8673248,
								1.2978725
							],
							[
								103.8673436,
								1.2978429
							],
							[
								103.8673248,
								1.2978163
							],
							[
								103.8672988,
								1.2977876
							],
							[
								103.867258,
								1.2977597
							],
							[
								103.8672651,
								1.2974511
							],
							[
								103.8672865,
								1.2972788
							],
							[
								103.867291,
								1.2972638
							]
						]
					},
					{
						"type": "LineString",
						"coordinates": [
							[
								103.867291,
								1.2972638
							],
							[
								103.8673293,
								1.2971352
							],
							[
								103.8674006,
								1.297006
							],
							[
								103.8676251,
								1.296639
							],
							[
								103.867832,
								1.29628
							],
							[
								103.8679426,
								1.296001
							],
							[
								103.867992,
								1.2957692
							],
							[
								103.8688634,
								1.296537
							],
							[
								103.8691574,
								1.2968007
							],
							[
								103.8693748,
								1.296939
							],
							[
								103.8696656,
								1.2970484
							],
							[
								103.8699935,
								1.2970967
							],
							[
								103.8710611,
								1.2971281
							],
							[
								103.8713255,
								1.2971358
							],
							[
								103.8714883,
								1.2971406
							],
							[
								103.8719584,
								1.2971433
							],
							[
								103.87224,
								1.2971262
							],
							[
								103.8723615,
								1.2971154
							],
							[
								103.8724431,
								1.2971102
							],
							[
								103.8725143,
								1.2971048
							],
							[
								103.873151,
								1.2971225
							],
							[
								103.8738828,
								1.2971623
							],
							[
								103.874951,
								1.2972212
							],
							[
								103.8754076,
								1.2967642
							],
							[
								103.875535,
								1.2968668
							],
							[
								103.8758054,
								1.2971522
							],
							[
								103.8760806,
								1.2973345
							],
							[
								103.8764328,
								1.2974036
							],
							[
								103.8771431,
								1.2974605
							],
							[
								103.8783463,
								1.2975656
							],
							[
								103.8793246,
								1.2976513
							],
							[
								103.8807278,
								1.2977742
							],
							[
								103.8816157,
								1.2978708
							],
							[
								103.8820871,
								1.2979589
							],
							[
								103.8825563,
								1.2980691
							],
							[
								103.8829069,
								1.2981053
							],
							[
								103.8830617,
								1.2980947
							],
							[
								103.8833681,
								1.2980921
							],
							[
								103.8834967,
								1.298091
							],
							[
								103.8835759,
								1.2980903
							],
							[
								103.8839416,
								1.2980673
							],
							[
								103.8840667,
								1.2980595
							],
							[
								103.884885,
								1.2980057
							],
							[
								103.885142,
								1.297984
							],
							[
								103.8853263,
								1.2979684
							],
							[
								103.8853189,
								1.2977806
							],
							[
								103.885305,
								1.2974292
							],
							[
								103.885311,
								1.2968956
							],
							[
								103.8853287,
								1.2960963
							],
							[
								103.8853142,
								1.295776
							],
							[
								103.8849481,
								1.2955939
							],
							[
								103.8846216,
								1.2954897
							],
							[
								103.8843758,
								1.2954389
							],
							[
								103.8831395,
								1.2954583
							],
							[
								103.8822076,
								1.2954392
							],
							[
								103.8809238,
								1.2953722
							],
							[
								103.8794118,
								1.2952957
							],
							[
								103.8785179,
								1.2952287
							],
							[
								103.8779663,
								1.2952192
							],
							[
								103.8775289,
								1.2951617
							],
							[
								103.877158,
								1.2950373
							],
							[
								103.8769012,
								1.2949033
							],
							[
								103.876654,
								1.2947215
							],
							[
								103.8764257,
								1.2945109
							],
							[
								103.8762451,
								1.2942908
							],
							[
								103.8760644,
								1.2940036
							],
							[
								103.8759217,
								1.2937261
							],
							[
								103.8757981,
								1.2934198
							],
							[
								103.8756935,
								1.2930752
							],
							[
								103.8756079,
								1.2927211
							],
							[
								103.8755698,
								1.2922808
							],
							[
								103.8755793,
								1.2918788
							],
							[
								103.8756174,
								1.2914481
							],
							[
								103.8756839,
								1.2911036
							],
							[
								103.8758076,
								1.290692
							],
							[
								103.8761023,
								1.290022
							],
							[
								103.8765207,
								1.2892372
							],
							[
								103.8770343,
								1.288481
							],
							[
								103.8772815,
								1.2880695
							],
							[
								103.8779351,
								1.2872393
							],
							[
								103.8781015,
								1.2869402
							],
							[
								103.8782204,
								1.286665
							],
							[
								103.8783392,
								1.2863181
							],
							[
								103.8784224,
								1.285995
							],
							[
								103.8784581,
								1.285684
							],
							[
								103.8784462,
								1.2852772
							],
							[
								103.8784224,
								1.2849183
							],
							[
								103.878363,
								1.2845474
							],
							[
								103.8782203,
								1.2841167
							],
							[
								103.8780539,
								1.2837697
							],
							[
								103.8777329,
								1.2832792
							],
							[
								103.8774239,
								1.2829203
							],
							[
								103.8769959,
								1.2825135
							],
							[
								103.876568,
								1.2821427
							],
							[
								103.870898,
								1.2779754
							],
							[
								103.8690551,
								1.2766144
							],
							[
								103.8684845,
								1.2760401
							],
							[
								103.8677713,
								1.2755003
							],
							[
								103.8667157,
								1.274771
							],
							[
								103.8664019,
								1.2746274
							],
							[
								103.8660538,
								1.2744953
							],
							[
								103.8652893,
								1.2739843
							],
							[
								103.8649926,
								1.2737833
							],
							[
								103.8633835,
								1.2726405
							],
							[
								103.8631382,
								1.2728128
							],
							[
								103.8623508,
								1.2732664
							],
							[
								103.8609616,
								1.2741702
							],
							[
								103.8619673,
								1.2757495
							],
							[
								103.8625261,
								1.2766215
							],
							[
								103.8630067,
								1.2773716
							],
							[
								103.8642695,
								1.2793423
							],
							[
								103.864707,
								1.2797532
							],
							[
								103.8652612,
								1.2801349
							],
							[
								103.8657133,
								1.280355
							],
							[
								103.8659881,
								1.2804472
							],
							[
								103.8660895,
								1.2804772
							],
							[
								103.8665737,
								1.2805605
							],
							[
								103.8668878,
								1.2805722
							],
							[
								103.8673954,
								1.2805287
							],
							[
								103.8677054,
								1.2804751
							],
							[
								103.8679945,
								1.2803908
							],
							[
								103.8682903,
								1.2802731
							]
						]
					},
					{
						"type": "LineString",
						"coordinates": [
							[
								103.8682903,
								1.2802731
							],
							[
								103.8685042,
								1.2801879
							],
							[
								103.8688314,
								1.2800539
							],
							[
								103.8692098,
								1.2798606
							],
							[
								103.8695669,
								1.2796439
							],
							[
								103.8698827,
								1.2794509
							],
							[
								103.8701653,
								1.2792287
							],
							[
								103.8702164,
								1.2792643
							],
							[
								103.8702582,
								1.2792715
							],
							[
								103.8703058,
								1.2792639
							],
							[
								103.8703438,
								1.2792347
							],
							[
								103.8703614,
								1.2791835
							],
							[
								103.8703652,
								1.2791394
							],
							[
								103.8703518,
								1.2790967
							],
							[
								103.8703191,
								1.2790729
							],
							[
								103.8702701,
								1.2790562
							],
							[
								103.8702283,
								1.2790552
							],
							[
								103.8701845,
								1.2790739
							],
							[
								103.8701579,
								1.2791126
							],
							[
								103.8701527,
								1.2791547
							],
							[
								103.8701522,
								1.2791882
							],
							[
								103.8701653,
								1.2792287
							],
							[
								103.8698827,
								1.2794509
							],
							[
								103.8695669,
								1.2796439
							],
							[
								103.8692098,
								1.2798606
							],
							[
								103.8689333,
								1.2800018
							]
						]
					},
					{
						"type": "LineString",
						"coordinates": [
							[
								103.8689333,
								1.2800018
							],
							[
								103.8688314,
								1.2800539
							],
							[
								103.8685042,
								1.2801879
							],
							[
								103.8679945,
								1.2803908
							],
							[
								103.8677054,
								1.2804751
							],
							[
								103.8673954,
								1.2805287
							],
							[
								103.8668878,
								1.2805722
							],
							[
								103.8665737,
								1.2805605
							],
							[
								103.8660895,
								1.2804772
							],
							[
								103.8659881,
								1.2804472
							],
							[
								103.8657133,
								1.280355
							],
							[
								103.8652612,
								1.2801349
							],
							[
								103.864707,
								1.2797532
							],
							[
								103.8642695,
								1.2793423
							],
							[
								103.8630067,
								1.2773716
							],
							[
								103.8625261,
								1.2766215
							],
							[
								103.8619673,
								1.2757495
							],
							[
								103.8609616,
								1.2741702
							],
							[
								103.8588664,
								1.2755222
							],
							[
								103.8574923,
								1.2764109
							],
							[
								103.8573255,
								1.2765188
							],
							[
								103.8561355,
								1.2772904
							],
							[
								103.8556661,
								1.2776079
							]
						]
					}
				]
			},
			"properties": {
				"styleUrl": "#busroute",
				"styleHash": "-2257368b",
				"stroke-opacity": 0.6039215686274509,
				"stroke": "#DA0FB1",
				"stroke-width": 4
			}
		}
	]
}